{
  "type": "FeatureCollection",
  "features": [
    {
      "type": "Feature",
      "geometry": {
        "type": "Point",
        "coordinates": [
          107.612095,
          -6.956548
        ]
      },
      "properties": {
        "rowid": 110,
        "nama_cctv": "CTV139-KOM-MOH TOHA-RS SARTIKA ASIH",
        "polda_id": "13",
        "polres_id": "181",
        "status": "hidup",
        "ctdby": "0000ORGANIK",
        "ctddate": "2025-12-17T17:00:00.000Z",
        "ctdtime": "15:00:00",
        "rtsp_cctv": "rtsp://satansheir:letyur13@172.16.95.12:554/cam/realmonitor?channel=139subtype=1",
        "channel_code": null,
        "ctdupd": null,
        "instansi": "KOMINFO",
        "jenis_cctv": "ANALYTIC",
        "nama_jalan_s": "Jl. Mochamad Toha",
        "channel_id": "1000002$1$0$138",
        "cctv_in": "N",
        "cctv_out": "Y",
        "masuk_kab": "N",
        "keluar_kab": "Y",
        "keterangan": "perbatasan",
        "fungsi_jalan_cctv_id": 7,
        "masuk_prov": "N",
        "keluar_prov": "N",
        "is_active": 1,
        "channel_id_event": null,
        "cctv_category_id": 2,
        "hls_cctv": null,
        "kecamatan": null,
        "kota": null,
        "nama_objek_vital": null,
        "channel_id_enforcement": null,
        "cctv_id": "48f05aa5-40cd-4511-840b-7748b07e929b",
        "rtsp_cctv_dcc": null,
        "arah_cctv": null,
        "radius": null,
        "polda": "Polda Jawa Barat",
        "polres": "POLRESTABES BANDUNG",
        "fungsi_jalan": null,
        "category": "BATAS KOTA",
        "in_out": "CCTV OUT",
        "ket_in_out": "KOTA",
        "_region": "bandung",
        "Satwil": "Polrestabes Bandung"
      }
    },
    {
      "type": "Feature",
      "geometry": {
        "type": "Point",
        "coordinates": [
          107.6080283,
          -6.8898496
        ]
      },
      "properties": {
        "rowid": 109,
        "nama_cctv": "CTV208-KOM-TMN-SARI-GRBANG-KBON-BINATANG",
        "polda_id": "13",
        "polres_id": "181",
        "status": "hidup",
        "ctdby": "0000ORGANIK",
        "ctddate": "2025-11-17T17:00:00.000Z",
        "ctdtime": "10:30:00",
        "rtsp_cctv": "rtsp://satansheir:letyur13@172.16.95.12:554/cam/realmonitor?channel=208&subtype=1",
        "channel_code": null,
        "ctdupd": null,
        "instansi": "KOMINFO",
        "jenis_cctv": "ANALYTIC",
        "nama_jalan_s": "Jl. Tamansari",
        "channel_id": "1000002$1$0$207",
        "cctv_in": "N",
        "cctv_out": "N",
        "masuk_kab": "N",
        "keluar_kab": "N",
        "keterangan": "checkpoint",
        "fungsi_jalan_cctv_id": 7,
        "masuk_prov": "N",
        "keluar_prov": "N",
        "is_active": 1,
        "channel_id_event": null,
        "cctv_category_id": 5,
        "hls_cctv": null,
        "kecamatan": null,
        "kota": null,
        "nama_objek_vital": null,
        "channel_id_enforcement": null,
        "cctv_id": "94460a8b-a33c-4c48-b361-9d8044764062",
        "rtsp_cctv_dcc": null,
        "arah_cctv": null,
        "radius": null,
        "polda": "Polda Jawa Barat",
        "polres": "POLRESTABES BANDUNG",
        "fungsi_jalan": null,
        "category": "DALAM KOTA",
        "in_out": null,
        "ket_in_out": null,
        "_region": "bandung",
        "Satwil": "Polrestabes Bandung"
      }
    },
    {
      "type": "Feature",
      "geometry": {
        "type": "Point",
        "coordinates": [
          107.5802972,
          -6.9596693
        ]
      },
      "properties": {
        "rowid": 108,
        "nama_cctv": "CTV203-KOM-KOPO MIKO MALL",
        "polda_id": "13",
        "polres_id": "181",
        "status": "hidup",
        "ctdby": "0000ORGANIK",
        "ctddate": "2025-11-10T17:00:00.000Z",
        "ctdtime": "10:30:00",
        "rtsp_cctv": "rtsp://satansheir:letyur13@172.16.95.12:554/cam/realmonitor?channel=203&subtype=1",
        "channel_code": null,
        "ctdupd": null,
        "instansi": "DISHUB",
        "jenis_cctv": "ANALYTIC",
        "nama_jalan_s": "Jl. Raya Kopo",
        "channel_id": "1000002$1$0$202",
        "cctv_in": "N",
        "cctv_out": "Y",
        "masuk_kab": "N",
        "keluar_kab": "Y",
        "keterangan": "checkpoint",
        "fungsi_jalan_cctv_id": 7,
        "masuk_prov": "N",
        "keluar_prov": "N",
        "is_active": 1,
        "channel_id_event": null,
        "cctv_category_id": 2,
        "hls_cctv": null,
        "kecamatan": null,
        "kota": null,
        "nama_objek_vital": null,
        "channel_id_enforcement": null,
        "cctv_id": "fa36e546-bb4f-44ea-9825-0c90ae80b006",
        "rtsp_cctv_dcc": null,
        "arah_cctv": null,
        "radius": null,
        "polda": "Polda Jawa Barat",
        "polres": "POLRESTABES BANDUNG",
        "fungsi_jalan": null,
        "category": "BATAS KOTA",
        "in_out": "CCTV OUT",
        "ket_in_out": "KOTA",
        "_region": "bandung",
        "Satwil": "Polrestabes Bandung"
      }
    },
    {
      "type": "Feature",
      "geometry": {
        "type": "Point",
        "coordinates": [
          107.5813391,
          -6.8922872
        ]
      },
      "properties": {
        "rowid": 107,
        "nama_cctv": "CTV202-DISHUB-PASTEUR-BARAT-ARAH-TOL",
        "polda_id": "13",
        "polres_id": "181",
        "status": "hidup",
        "ctdby": "0000ORGANIK",
        "ctddate": "2025-11-10T17:00:00.000Z",
        "ctdtime": "10:30:00",
        "rtsp_cctv": "rtsp://satansheir:letyur13@172.16.95.12:554/cam/realmonitor?channel=202&subtype=1",
        "channel_code": null,
        "ctdupd": null,
        "instansi": "DISHUB",
        "jenis_cctv": "ANALYTIC",
        "nama_jalan_s": "Jl. Dr. Djundjunan",
        "channel_id": "1000002$1$0$201",
        "cctv_in": "Y",
        "cctv_out": "N",
        "masuk_kab": "Y",
        "keluar_kab": "N",
        "keterangan": "perbatasan",
        "fungsi_jalan_cctv_id": 7,
        "masuk_prov": "N",
        "keluar_prov": "N",
        "is_active": 1,
        "channel_id_event": null,
        "cctv_category_id": 2,
        "hls_cctv": null,
        "kecamatan": null,
        "kota": null,
        "nama_objek_vital": null,
        "channel_id_enforcement": null,
        "cctv_id": "5a794f56-6383-4a3d-8317-9aeefb8333fc",
        "rtsp_cctv_dcc": null,
        "arah_cctv": null,
        "radius": null,
        "polda": "Polda Jawa Barat",
        "polres": "POLRESTABES BANDUNG",
        "fungsi_jalan": null,
        "category": "BATAS KOTA",
        "in_out": "CCTV IN",
        "ket_in_out": "KOTA",
        "_region": "bandung",
        "Satwil": "Polrestabes Bandung"
      }
    },
    {
      "type": "Feature",
      "geometry": {
        "type": "Point",
        "coordinates": [
          107.5812487,
          -6.8924266
        ]
      },
      "properties": {
        "rowid": 106,
        "nama_cctv": "CTV201-DISHUB-PASTEUR-TIMUR-ARAH-BTC",
        "polda_id": "13",
        "polres_id": "181",
        "status": "hidup",
        "ctdby": "0000ORGANIK",
        "ctddate": "2025-11-16T17:00:00.000Z",
        "ctdtime": "10:30:00",
        "rtsp_cctv": "rtsp://satansheir:letyur13@172.16.95.12:554/cam/realmonitor?channel=201&subtype=1",
        "channel_code": null,
        "ctdupd": null,
        "instansi": "DISHUB",
        "jenis_cctv": "ANALYTIC",
        "nama_jalan_s": "Jl. Dr. Djundjunan",
        "channel_id": "1000002$1$0$200",
        "cctv_in": "N",
        "cctv_out": "Y",
        "masuk_kab": "N",
        "keluar_kab": "Y",
        "keterangan": "perbatasan",
        "fungsi_jalan_cctv_id": 7,
        "masuk_prov": "N",
        "keluar_prov": "N",
        "is_active": 1,
        "channel_id_event": null,
        "cctv_category_id": 2,
        "hls_cctv": null,
        "kecamatan": null,
        "kota": null,
        "nama_objek_vital": null,
        "channel_id_enforcement": null,
        "cctv_id": "ce481746-69d5-4013-9283-9366ed8f9ea2",
        "rtsp_cctv_dcc": null,
        "arah_cctv": null,
        "radius": null,
        "polda": "Polda Jawa Barat",
        "polres": "POLRESTABES BANDUNG",
        "fungsi_jalan": null,
        "category": "BATAS KOTA",
        "in_out": "CCTV OUT",
        "ket_in_out": "KOTA",
        "_region": "bandung",
        "Satwil": "Polrestabes Bandung"
      }
    },
    {
      "type": "Feature",
      "geometry": {
        "type": "Point",
        "coordinates": [
          107.576033,
          -6.930429
        ]
      },
      "properties": {
        "rowid": 105,
        "nama_cctv": "CTV154-DISHUB-PASIRKOJA-SELATAN-ARAH-CARINGIN",
        "polda_id": "13",
        "polres_id": "181",
        "status": "hidup",
        "ctdby": "0000ORGANIK",
        "ctddate": "2025-11-19T17:00:00.000Z",
        "ctdtime": "10:30:00",
        "rtsp_cctv": "rtsp://satansheir:letyur13@172.16.95.12:554/cam/realmonitor?channel=154&subtype=1",
        "channel_code": null,
        "ctdupd": null,
        "instansi": "KOMINFO",
        "jenis_cctv": "ANALYTIC",
        "nama_jalan_s": "Jl. Soekarno-Hatta",
        "channel_id": "1000002$1$0$153",
        "cctv_in": "N",
        "cctv_out": "N",
        "masuk_kab": "N",
        "keluar_kab": "N",
        "keterangan": "checkpoint",
        "fungsi_jalan_cctv_id": 7,
        "masuk_prov": "N",
        "keluar_prov": "N",
        "is_active": 1,
        "channel_id_event": null,
        "cctv_category_id": 5,
        "hls_cctv": null,
        "kecamatan": null,
        "kota": null,
        "nama_objek_vital": null,
        "channel_id_enforcement": null,
        "cctv_id": "6046a380-5762-4a96-b0a0-d6e6d553747d",
        "rtsp_cctv_dcc": null,
        "arah_cctv": null,
        "radius": null,
        "polda": "Polda Jawa Barat",
        "polres": "POLRESTABES BANDUNG",
        "fungsi_jalan": null,
        "category": "DALAM KOTA",
        "in_out": null,
        "ket_in_out": null,
        "_region": "bandung",
        "Satwil": "Polrestabes Bandung"
      }
    },
    {
      "type": "Feature",
      "geometry": {
        "type": "Point",
        "coordinates": [
          107.591662,
          -6.943522
        ]
      },
      "properties": {
        "rowid": 104,
        "nama_cctv": "CTV153-KOM-KOPO - RS BANDUNG KIWARI",
        "polda_id": "13",
        "polres_id": "181",
        "status": "hidup",
        "ctdby": "0000ORGANIK",
        "ctddate": "2025-11-19T17:00:00.000Z",
        "ctdtime": "10:30:00",
        "rtsp_cctv": "rtsp://satansheir:letyur13@172.16.95.12:554/cam/realmonitor?channel=153&subtype=1",
        "channel_code": null,
        "ctdupd": null,
        "instansi": "KOMINFO",
        "jenis_cctv": "ANALYTIC",
        "nama_jalan_s": "Jl. Raya Kopo",
        "channel_id": "1000002$1$0$152",
        "cctv_in": "N",
        "cctv_out": "N",
        "masuk_kab": "N",
        "keluar_kab": "N",
        "keterangan": "checkpoint",
        "fungsi_jalan_cctv_id": 7,
        "masuk_prov": "N",
        "keluar_prov": "N",
        "is_active": 1,
        "channel_id_event": null,
        "cctv_category_id": 5,
        "hls_cctv": null,
        "kecamatan": null,
        "kota": null,
        "nama_objek_vital": null,
        "channel_id_enforcement": null,
        "cctv_id": "e3398871-6400-443e-a3b4-e3355cf30bc2",
        "rtsp_cctv_dcc": null,
        "arah_cctv": null,
        "radius": null,
        "polda": "Polda Jawa Barat",
        "polres": "POLRESTABES BANDUNG",
        "fungsi_jalan": null,
        "category": "DALAM KOTA",
        "in_out": null,
        "ket_in_out": null,
        "_region": "bandung",
        "Satwil": "Polrestabes Bandung"
      }
    },
    {
      "type": "Feature",
      "geometry": {
        "type": "Point",
        "coordinates": [
          107.63591,
          -6.9276402
        ]
      },
      "properties": {
        "rowid": 103,
        "nama_cctv": "CTV147-KOM-GATOT-SUBROTO-DEPAN-TSM-CCTV01",
        "polda_id": "13",
        "polres_id": "181",
        "status": "hidup",
        "ctdby": "0000ORGANIK",
        "ctddate": "2025-11-19T17:00:00.000Z",
        "ctdtime": "10:30:00",
        "rtsp_cctv": "rtsp://satansheir:letyur13@172.16.95.12:554/cam/realmonitor?channel=147&subtype=1",
        "channel_code": null,
        "ctdupd": null,
        "instansi": "KOMINFO",
        "jenis_cctv": "ANALYTIC",
        "nama_jalan_s": "Jl. Gatot Subroto",
        "channel_id": "1000002$1$0$146",
        "cctv_in": "N",
        "cctv_out": "N",
        "masuk_kab": "N",
        "keluar_kab": "N",
        "keterangan": "checkpoint",
        "fungsi_jalan_cctv_id": 7,
        "masuk_prov": "N",
        "keluar_prov": "N",
        "is_active": 1,
        "channel_id_event": null,
        "cctv_category_id": 5,
        "hls_cctv": null,
        "kecamatan": null,
        "kota": null,
        "nama_objek_vital": null,
        "channel_id_enforcement": null,
        "cctv_id": "d414fa1e-eddf-4f66-acff-8809276e1392",
        "rtsp_cctv_dcc": null,
        "arah_cctv": null,
        "radius": null,
        "polda": "Polda Jawa Barat",
        "polres": "POLRESTABES BANDUNG",
        "fungsi_jalan": null,
        "category": "DALAM KOTA",
        "in_out": null,
        "ket_in_out": null,
        "_region": "bandung",
        "Satwil": "Polrestabes Bandung"
      }
    },
    {
      "type": "Feature",
      "geometry": {
        "type": "Point",
        "coordinates": [
          107.609938,
          -6.919761
        ]
      },
      "properties": {
        "rowid": 102,
        "nama_cctv": "CTV141-KOM-BRAGA-1-NARIPAN",
        "polda_id": "13",
        "polres_id": "181",
        "status": "hidup",
        "ctdby": "0000ORGANIK",
        "ctddate": "2025-11-19T17:00:00.000Z",
        "ctdtime": "10:30:00",
        "rtsp_cctv": "rtsp://satansheir:letyur13@172.16.95.12:554/cam/realmonitor?channel=141&subtype=1",
        "channel_code": null,
        "ctdupd": null,
        "instansi": "KOMINFO",
        "jenis_cctv": "ANALYTIC",
        "nama_jalan_s": "Jl. Braga",
        "channel_id": "1000002$1$0$140",
        "cctv_in": "N",
        "cctv_out": "N",
        "masuk_kab": "N",
        "keluar_kab": "N",
        "keterangan": "checkpoint",
        "fungsi_jalan_cctv_id": 7,
        "masuk_prov": "N",
        "keluar_prov": "N",
        "is_active": 1,
        "channel_id_event": null,
        "cctv_category_id": 5,
        "hls_cctv": null,
        "kecamatan": null,
        "kota": null,
        "nama_objek_vital": null,
        "channel_id_enforcement": null,
        "cctv_id": "3162d4b4-28de-4736-a274-e0880a29f58b",
        "rtsp_cctv_dcc": null,
        "arah_cctv": null,
        "radius": null,
        "polda": "Polda Jawa Barat",
        "polres": "POLRESTABES BANDUNG",
        "fungsi_jalan": null,
        "category": "DALAM KOTA",
        "in_out": null,
        "ket_in_out": null,
        "_region": "bandung",
        "Satwil": "Polrestabes Bandung"
      }
    },
    {
      "type": "Feature",
      "geometry": {
        "type": "Point",
        "coordinates": [
          107.612097,
          -6.956557
        ]
      },
      "properties": {
        "rowid": 101,
        "nama_cctv": "CTV138-KOM-MOH TOHA-RS SARTIKA ASIH",
        "polda_id": "13",
        "polres_id": "181",
        "status": "hidup",
        "ctdby": "0000ORGANIK",
        "ctddate": "2025-11-19T17:00:00.000Z",
        "ctdtime": "10:30:00",
        "rtsp_cctv": "rtsp://satansheir:letyur13@172.16.95.12:554/cam/realmonitor?channel=138&subtype=1",
        "channel_code": null,
        "ctdupd": null,
        "instansi": "KOMINFO",
        "jenis_cctv": "ANALYTIC",
        "nama_jalan_s": "Jl. Mochamad Toha",
        "channel_id": "1000002$1$0$137",
        "cctv_in": "Y",
        "cctv_out": "N",
        "masuk_kab": "Y",
        "keluar_kab": "N",
        "keterangan": "perbatasan",
        "fungsi_jalan_cctv_id": 7,
        "masuk_prov": "N",
        "keluar_prov": "N",
        "is_active": 1,
        "channel_id_event": null,
        "cctv_category_id": 2,
        "hls_cctv": null,
        "kecamatan": null,
        "kota": null,
        "nama_objek_vital": null,
        "channel_id_enforcement": null,
        "cctv_id": "c67ac351-c07a-48da-93fa-54843909219d",
        "rtsp_cctv_dcc": null,
        "arah_cctv": null,
        "radius": null,
        "polda": "Polda Jawa Barat",
        "polres": "POLRESTABES BANDUNG",
        "fungsi_jalan": null,
        "category": "BATAS KOTA",
        "in_out": "CCTV IN",
        "ket_in_out": "KOTA",
        "_region": "bandung",
        "Satwil": "Polrestabes Bandung"
      }
    },
    {
      "type": "Feature",
      "geometry": {
        "type": "Point",
        "coordinates": [
          107.5937509,
          -6.9619177
        ]
      },
      "properties": {
        "rowid": 100,
        "nama_cctv": "CTV133-KOM-CIBADUYUT-DEKAT TPS",
        "polda_id": "13",
        "polres_id": "181",
        "status": "hidup",
        "ctdby": "0000ORGANIK",
        "ctddate": "2025-11-10T17:00:00.000Z",
        "ctdtime": "10:30:00",
        "rtsp_cctv": "rtsp://satansheir:letyur13@172.16.95.12:554/cam/realmonitor?channel=133&subtype=1",
        "channel_code": null,
        "ctdupd": null,
        "instansi": "KOMINFO",
        "jenis_cctv": "ANALYTIC",
        "nama_jalan_s": "Jl. Cibaduyut",
        "channel_id": "1000002$1$0$132",
        "cctv_in": "N",
        "cctv_out": "Y",
        "masuk_kab": "N",
        "keluar_kab": "Y",
        "keterangan": "perbatasan",
        "fungsi_jalan_cctv_id": 7,
        "masuk_prov": "N",
        "keluar_prov": "N",
        "is_active": 1,
        "channel_id_event": null,
        "cctv_category_id": 2,
        "hls_cctv": null,
        "kecamatan": null,
        "kota": null,
        "nama_objek_vital": null,
        "channel_id_enforcement": null,
        "cctv_id": "c4536ac3-cfa9-488e-91b6-17c98d550c2a",
        "rtsp_cctv_dcc": null,
        "arah_cctv": null,
        "radius": null,
        "polda": "Polda Jawa Barat",
        "polres": "POLRESTABES BANDUNG",
        "fungsi_jalan": null,
        "category": "BATAS KOTA",
        "in_out": "CCTV OUT",
        "ket_in_out": "KOTA",
        "_region": "bandung",
        "Satwil": "Polrestabes Bandung"
      }
    },
    {
      "type": "Feature",
      "geometry": {
        "type": "Point",
        "coordinates": [
          107.593717,
          -6.961918
        ]
      },
      "properties": {
        "rowid": 99,
        "nama_cctv": "CTV132-KOM-CIBADUYUT-DEKAT TPS",
        "polda_id": "13",
        "polres_id": "181",
        "status": "hidup",
        "ctdby": "0000ORGANIK",
        "ctddate": "2025-11-21T17:00:00.000Z",
        "ctdtime": "10:30:00",
        "rtsp_cctv": "rtsp://satansheir:letyur13@172.16.95.12:554/cam/realmonitor?channel=132&subtype=1",
        "channel_code": null,
        "ctdupd": null,
        "instansi": "KOMINFO",
        "jenis_cctv": "ANALYTIC",
        "nama_jalan_s": "Jl. Cibaduyut",
        "channel_id": "1000002$1$0$131",
        "cctv_in": "Y",
        "cctv_out": "N",
        "masuk_kab": "Y",
        "keluar_kab": "N",
        "keterangan": "perbatasan",
        "fungsi_jalan_cctv_id": 7,
        "masuk_prov": "N",
        "keluar_prov": "N",
        "is_active": 1,
        "channel_id_event": null,
        "cctv_category_id": 2,
        "hls_cctv": null,
        "kecamatan": null,
        "kota": null,
        "nama_objek_vital": null,
        "channel_id_enforcement": null,
        "cctv_id": "da3e3c84-99bb-432f-aef9-4e6f2554b55d",
        "rtsp_cctv_dcc": null,
        "arah_cctv": null,
        "radius": null,
        "polda": "Polda Jawa Barat",
        "polres": "POLRESTABES BANDUNG",
        "fungsi_jalan": null,
        "category": "BATAS KOTA",
        "in_out": "CCTV IN",
        "ket_in_out": "KOTA",
        "_region": "bandung",
        "Satwil": "Polrestabes Bandung"
      }
    },
    {
      "type": "Feature",
      "geometry": {
        "type": "Point",
        "coordinates": [
          107.639078,
          -6.954535
        ]
      },
      "properties": {
        "rowid": 98,
        "nama_cctv": "CTV131-KOM-PERTIGAAN-KORDON-BUAH-BATU",
        "polda_id": "13",
        "polres_id": "181",
        "status": "hidup",
        "ctdby": "0000ORGANIK",
        "ctddate": "2025-11-20T17:00:00.000Z",
        "ctdtime": "10:30:00",
        "rtsp_cctv": "rtsp://satansheir:letyur13@172.16.95.12:554/cam/realmonitor?channel=131&subtype=1",
        "channel_code": null,
        "ctdupd": null,
        "instansi": "KOMINFO",
        "jenis_cctv": "ANALYTIC",
        "nama_jalan_s": "Jl. Terusan Buah Batu",
        "channel_id": "1000002$1$0$130",
        "cctv_in": "N",
        "cctv_out": "N",
        "masuk_kab": "N",
        "keluar_kab": "N",
        "keterangan": "checkpoint",
        "fungsi_jalan_cctv_id": 7,
        "masuk_prov": "N",
        "keluar_prov": "N",
        "is_active": 1,
        "channel_id_event": null,
        "cctv_category_id": 5,
        "hls_cctv": null,
        "kecamatan": null,
        "kota": null,
        "nama_objek_vital": null,
        "channel_id_enforcement": null,
        "cctv_id": "49daa0f0-7948-49e8-8e9a-8f44efaa3ba9",
        "rtsp_cctv_dcc": null,
        "arah_cctv": null,
        "radius": null,
        "polda": "Polda Jawa Barat",
        "polres": "POLRESTABES BANDUNG",
        "fungsi_jalan": null,
        "category": "DALAM KOTA",
        "in_out": null,
        "ket_in_out": null,
        "_region": "bandung",
        "Satwil": "Polrestabes Bandung"
      }
    },
    {
      "type": "Feature",
      "geometry": {
        "type": "Point",
        "coordinates": [
          107.585088,
          -6.892882
        ]
      },
      "properties": {
        "rowid": 97,
        "nama_cctv": "CTV126-KOM-PASTEUR-DR-DJUNJUNAN-BTC",
        "polda_id": "13",
        "polres_id": "181",
        "status": "hidup",
        "ctdby": "0000ORGANIK",
        "ctddate": "2025-11-27T17:00:00.000Z",
        "ctdtime": "10:30:00",
        "rtsp_cctv": "rtsp://satansheir:letyur13@172.16.95.12:554/cam/realmonitor?channel=126&subtype=1",
        "channel_code": null,
        "ctdupd": null,
        "instansi": "KOMINFO",
        "jenis_cctv": "ANALYTIC",
        "nama_jalan_s": "Jl. Dr. Djunjunan",
        "channel_id": "1000002$1$0$125",
        "cctv_in": "N",
        "cctv_out": "N",
        "masuk_kab": "N",
        "keluar_kab": "N",
        "keterangan": "checkpoint",
        "fungsi_jalan_cctv_id": 7,
        "masuk_prov": "N",
        "keluar_prov": "N",
        "is_active": 1,
        "channel_id_event": null,
        "cctv_category_id": 5,
        "hls_cctv": null,
        "kecamatan": null,
        "kota": null,
        "nama_objek_vital": null,
        "channel_id_enforcement": null,
        "cctv_id": "ba0304cc-edd6-4f19-8be9-bc95d22e2514",
        "rtsp_cctv_dcc": null,
        "arah_cctv": null,
        "radius": null,
        "polda": "Polda Jawa Barat",
        "polres": "POLRESTABES BANDUNG",
        "fungsi_jalan": null,
        "category": "DALAM KOTA",
        "in_out": null,
        "ket_in_out": null,
        "_region": "bandung",
        "Satwil": "Polrestabes Bandung"
      }
    },
    {
      "type": "Feature",
      "geometry": {
        "type": "Point",
        "coordinates": [
          107.6208644,
          -6.866812
        ]
      },
      "properties": {
        "rowid": 96,
        "nama_cctv": "CTV125-KOM-DAGO-(TERMINAL-DAGO)",
        "polda_id": "13",
        "polres_id": "181",
        "status": "hidup",
        "ctdby": "0000ORGANIK",
        "ctddate": "2025-11-10T17:00:00.000Z",
        "ctdtime": "10:30:00",
        "rtsp_cctv": "rtsp://satansheir:letyur13@172.16.95.12:554/cam/realmonitor?channel=125&subtype=1",
        "channel_code": null,
        "ctdupd": null,
        "instansi": "KOMINFO",
        "jenis_cctv": "ANALYTIC",
        "nama_jalan_s": "Jl. Ir. H. Juanda (Dago",
        "channel_id": "1000002$1$0$124",
        "cctv_in": "N",
        "cctv_out": "Y",
        "masuk_kab": "N",
        "keluar_kab": "N",
        "keterangan": "perbatasan",
        "fungsi_jalan_cctv_id": 7,
        "masuk_prov": "N",
        "keluar_prov": "N",
        "is_active": 1,
        "channel_id_event": null,
        "cctv_category_id": 2,
        "hls_cctv": null,
        "kecamatan": null,
        "kota": null,
        "nama_objek_vital": null,
        "channel_id_enforcement": null,
        "cctv_id": "a1ac7f3b-d67c-4196-8365-6da387c91be9",
        "rtsp_cctv_dcc": null,
        "arah_cctv": null,
        "radius": null,
        "polda": "Polda Jawa Barat",
        "polres": "POLRESTABES BANDUNG",
        "fungsi_jalan": null,
        "category": "BATAS KOTA",
        "in_out": null,
        "ket_in_out": null,
        "_region": "bandung",
        "Satwil": "Polrestabes Bandung"
      }
    },
    {
      "type": "Feature",
      "geometry": {
        "type": "Point",
        "coordinates": [
          107.6381429,
          -6.9648543
        ]
      },
      "properties": {
        "rowid": 95,
        "nama_cctv": "CTV123-KOM-TERUSAN-BUAH-BATU-JEMBATAN-TOL",
        "polda_id": "13",
        "polres_id": "181",
        "status": "hidup",
        "ctdby": "0000ORGANIK",
        "ctddate": "2025-11-10T17:00:00.000Z",
        "ctdtime": "10:30:00",
        "rtsp_cctv": "rtsp://satansheir:letyur13@172.16.95.12:554/cam/realmonitor?channel=123&subtype=1",
        "channel_code": null,
        "ctdupd": null,
        "instansi": "KOMINFO",
        "jenis_cctv": "ANALYTIC",
        "nama_jalan_s": "Jl. Terusan Buah Batu",
        "channel_id": "1000002$1$0$122",
        "cctv_in": "N",
        "cctv_out": "Y",
        "masuk_kab": "N",
        "keluar_kab": "N",
        "keterangan": "perbatasan",
        "fungsi_jalan_cctv_id": 7,
        "masuk_prov": "N",
        "keluar_prov": "N",
        "is_active": 1,
        "channel_id_event": null,
        "cctv_category_id": 2,
        "hls_cctv": null,
        "kecamatan": null,
        "kota": null,
        "nama_objek_vital": null,
        "channel_id_enforcement": null,
        "cctv_id": "0dcaed54-c59d-4070-9507-62b4282cf720",
        "rtsp_cctv_dcc": null,
        "arah_cctv": null,
        "radius": null,
        "polda": "Polda Jawa Barat",
        "polres": "POLRESTABES BANDUNG",
        "fungsi_jalan": null,
        "category": "BATAS KOTA",
        "in_out": null,
        "ket_in_out": null,
        "_region": "bandung",
        "Satwil": "Polrestabes Bandung"
      }
    },
    {
      "type": "Feature",
      "geometry": {
        "type": "Point",
        "coordinates": [
          107.62079,
          -6.866953
        ]
      },
      "properties": {
        "rowid": 94,
        "nama_cctv": "CTV121-KOM-DAGO-(TERMINAL-DAGO)",
        "polda_id": "13",
        "polres_id": "181",
        "status": "hidup",
        "ctdby": "0000ORGANIK",
        "ctddate": "2025-11-17T17:00:00.000Z",
        "ctdtime": "10:30:00",
        "rtsp_cctv": "rtsp://satansheir:letyur13@172.16.95.12:554/cam/realmonitor?channel=121&subtype=1",
        "channel_code": null,
        "ctdupd": null,
        "instansi": "KOMINFO",
        "jenis_cctv": "ANALYTIC",
        "nama_jalan_s": "Jl. Ir. H. Juanda",
        "channel_id": "1000002$1$0$120",
        "cctv_in": "Y",
        "cctv_out": "N",
        "masuk_kab": "Y",
        "keluar_kab": "N",
        "keterangan": "perbatasan",
        "fungsi_jalan_cctv_id": 7,
        "masuk_prov": "N",
        "keluar_prov": "N",
        "is_active": 1,
        "channel_id_event": null,
        "cctv_category_id": 2,
        "hls_cctv": null,
        "kecamatan": null,
        "kota": null,
        "nama_objek_vital": null,
        "channel_id_enforcement": null,
        "cctv_id": "94d19b07-946f-4328-ac08-dfa4a8dd74f7",
        "rtsp_cctv_dcc": null,
        "arah_cctv": null,
        "radius": null,
        "polda": "Polda Jawa Barat",
        "polres": "POLRESTABES BANDUNG",
        "fungsi_jalan": null,
        "category": "BATAS KOTA",
        "in_out": "CCTV IN",
        "ket_in_out": "KOTA",
        "_region": "bandung",
        "Satwil": "Polrestabes Bandung"
      }
    },
    {
      "type": "Feature",
      "geometry": {
        "type": "Point",
        "coordinates": [
          107.608497,
          -6.9033515
        ]
      },
      "properties": {
        "rowid": 93,
        "nama_cctv": "CTV105-KOM-TAMANSARI-UNISBA",
        "polda_id": "13",
        "polres_id": "181",
        "status": "hidup",
        "ctdby": "0000ORGANIK",
        "ctddate": "2025-11-17T17:00:00.000Z",
        "ctdtime": "10:30:00",
        "rtsp_cctv": "rtsp://satansheir:letyur13@172.16.95.12:554/cam/realmonitor?channel=105&subtype=1",
        "channel_code": null,
        "ctdupd": null,
        "instansi": "KOMINFO",
        "jenis_cctv": "ANALYTIC",
        "nama_jalan_s": "Jl. Tamansari",
        "channel_id": "1000002$1$0$104",
        "cctv_in": "N",
        "cctv_out": "N",
        "masuk_kab": "N",
        "keluar_kab": "N",
        "keterangan": "checkpoint",
        "fungsi_jalan_cctv_id": 7,
        "masuk_prov": "N",
        "keluar_prov": "N",
        "is_active": 1,
        "channel_id_event": null,
        "cctv_category_id": 5,
        "hls_cctv": null,
        "kecamatan": null,
        "kota": null,
        "nama_objek_vital": null,
        "channel_id_enforcement": null,
        "cctv_id": "dd93f279-901d-4166-928c-368f9e1f50c1",
        "rtsp_cctv_dcc": null,
        "arah_cctv": null,
        "radius": null,
        "polda": "Polda Jawa Barat",
        "polres": "POLRESTABES BANDUNG",
        "fungsi_jalan": null,
        "category": "DALAM KOTA",
        "in_out": null,
        "ket_in_out": null,
        "_region": "bandung",
        "Satwil": "Polrestabes Bandung"
      }
    },
    {
      "type": "Feature",
      "geometry": {
        "type": "Point",
        "coordinates": [
          107.6672538,
          -6.9387305
        ]
      },
      "properties": {
        "rowid": 92,
        "nama_cctv": "CTV083-KOM-SOETTA-DEALER-MERCY",
        "polda_id": "13",
        "polres_id": "181",
        "status": "hidup",
        "ctdby": "0000ORGANIK",
        "ctddate": "2025-11-16T17:00:00.000Z",
        "ctdtime": "10:30:00",
        "rtsp_cctv": "rtsp://satansheir:letyur13@172.16.95.12:554/cam/realmonitor?channel=83&subtype=1",
        "channel_code": null,
        "ctdupd": null,
        "instansi": "KOMINFO",
        "jenis_cctv": "ANALYTIC",
        "nama_jalan_s": "Jl. Soekarno-Hatta",
        "channel_id": "1000002$1$0$82",
        "cctv_in": "N",
        "cctv_out": "N",
        "masuk_kab": "N",
        "keluar_kab": "N",
        "keterangan": "checkpoint",
        "fungsi_jalan_cctv_id": 7,
        "masuk_prov": "N",
        "keluar_prov": "N",
        "is_active": 1,
        "channel_id_event": null,
        "cctv_category_id": 5,
        "hls_cctv": null,
        "kecamatan": null,
        "kota": null,
        "nama_objek_vital": null,
        "channel_id_enforcement": null,
        "cctv_id": "4f066e09-e68a-4d29-bd3f-c9d5890e9616",
        "rtsp_cctv_dcc": null,
        "arah_cctv": null,
        "radius": null,
        "polda": "Polda Jawa Barat",
        "polres": "POLRESTABES BANDUNG",
        "fungsi_jalan": null,
        "category": "DALAM KOTA",
        "in_out": null,
        "ket_in_out": null,
        "_region": "bandung",
        "Satwil": "Polrestabes Bandung"
      }
    },
    {
      "type": "Feature",
      "geometry": {
        "type": "Point",
        "coordinates": [
          107.613008,
          -6.894271
        ]
      },
      "properties": {
        "rowid": 91,
        "nama_cctv": "CTV064-KOM-DAGO-3-BORROMEUS",
        "polda_id": "13",
        "polres_id": "181",
        "status": "hidup",
        "ctdby": "0000ORGANIK",
        "ctddate": "2025-11-13T17:00:00.000Z",
        "ctdtime": "10:30:00",
        "rtsp_cctv": "rtsp://satansheir:letyur13@172.16.95.12:554/cam/realmonitor?channel=64&subtype=1",
        "channel_code": null,
        "ctdupd": null,
        "instansi": "KOMINFO",
        "jenis_cctv": "ANALYTIC",
        "nama_jalan_s": "Jl. Ir. H. Juanda",
        "channel_id": "1000002$1$0$63",
        "cctv_in": "N",
        "cctv_out": "N",
        "masuk_kab": "N",
        "keluar_kab": "N",
        "keterangan": "checkpoint",
        "fungsi_jalan_cctv_id": 7,
        "masuk_prov": "N",
        "keluar_prov": "N",
        "is_active": 1,
        "channel_id_event": null,
        "cctv_category_id": 5,
        "hls_cctv": null,
        "kecamatan": null,
        "kota": null,
        "nama_objek_vital": null,
        "channel_id_enforcement": null,
        "cctv_id": "78439079-4221-433f-9641-4af8cea39898",
        "rtsp_cctv_dcc": null,
        "arah_cctv": null,
        "radius": null,
        "polda": "Polda Jawa Barat",
        "polres": "POLRESTABES BANDUNG",
        "fungsi_jalan": null,
        "category": "DALAM KOTA",
        "in_out": null,
        "ket_in_out": null,
        "_region": "bandung",
        "Satwil": "Polrestabes Bandung"
      }
    },
    {
      "type": "Feature",
      "geometry": {
        "type": "Point",
        "coordinates": [
          107.6094349,
          -6.9178582
        ]
      },
      "properties": {
        "rowid": 90,
        "nama_cctv": "CTV063-KOM-BRAGA-TENGAH",
        "polda_id": "13",
        "polres_id": "181",
        "status": "hidup",
        "ctdby": "0000ORGANIK",
        "ctddate": "2025-11-13T17:00:00.000Z",
        "ctdtime": "10:30:00",
        "rtsp_cctv": "rtsp://satansheir:letyur13@172.16.95.12:554/cam/realmonitor?channel=63&subtype=1",
        "channel_code": null,
        "ctdupd": null,
        "instansi": "KOMINFO",
        "jenis_cctv": "ANALYTIC",
        "nama_jalan_s": "Jl. Braga",
        "channel_id": "1000002$1$0$62",
        "cctv_in": "N",
        "cctv_out": "N",
        "masuk_kab": "N",
        "keluar_kab": "N",
        "keterangan": "checkpoint",
        "fungsi_jalan_cctv_id": 7,
        "masuk_prov": "N",
        "keluar_prov": "N",
        "is_active": 1,
        "channel_id_event": null,
        "cctv_category_id": 3,
        "hls_cctv": null,
        "kecamatan": null,
        "kota": null,
        "nama_objek_vital": null,
        "channel_id_enforcement": null,
        "cctv_id": "6796564a-34e8-46c2-9cb2-d2f4fbd68e14",
        "rtsp_cctv_dcc": null,
        "arah_cctv": null,
        "radius": null,
        "polda": "Polda Jawa Barat",
        "polres": "POLRESTABES BANDUNG",
        "fungsi_jalan": null,
        "category": "OBJEK VITAL",
        "in_out": null,
        "ket_in_out": null,
        "_region": "bandung",
        "Satwil": "Polrestabes Bandung"
      }
    },
    {
      "type": "Feature",
      "geometry": {
        "type": "Point",
        "coordinates": [
          107.6093419,
          -6.9079083
        ]
      },
      "properties": {
        "rowid": 89,
        "nama_cctv": "CTV060-KOM-BEC-ARAH-MARTADINATA",
        "polda_id": "13",
        "polres_id": "181",
        "status": "hidup",
        "ctdby": "0000ORGANIK",
        "ctddate": "2025-11-13T17:00:00.000Z",
        "ctdtime": "10:30:00",
        "rtsp_cctv": "rtsp://satansheir:letyur13@172.16.95.12:554/cam/realmonitor?channel=60&subtype=1",
        "channel_code": null,
        "ctdupd": null,
        "instansi": "KOMINFO",
        "jenis_cctv": "ANALYTIC",
        "nama_jalan_s": "Jl. Purnawarman",
        "channel_id": "1000002$1$0$59",
        "cctv_in": "N",
        "cctv_out": "N",
        "masuk_kab": "N",
        "keluar_kab": "N",
        "keterangan": "checkpoint",
        "fungsi_jalan_cctv_id": 7,
        "masuk_prov": "N",
        "keluar_prov": "N",
        "is_active": 1,
        "channel_id_event": null,
        "cctv_category_id": 5,
        "hls_cctv": null,
        "kecamatan": null,
        "kota": null,
        "nama_objek_vital": null,
        "channel_id_enforcement": null,
        "cctv_id": "ec1015f9-2263-400e-96dd-fe08dcf591c2",
        "rtsp_cctv_dcc": null,
        "arah_cctv": null,
        "radius": null,
        "polda": "Polda Jawa Barat",
        "polres": "POLRESTABES BANDUNG",
        "fungsi_jalan": null,
        "category": "DALAM KOTA",
        "in_out": null,
        "ket_in_out": null,
        "_region": "bandung",
        "Satwil": "Polrestabes Bandung"
      }
    },
    {
      "type": "Feature",
      "geometry": {
        "type": "Point",
        "coordinates": [
          107.7048535,
          -6.9474787
        ]
      },
      "properties": {
        "rowid": 88,
        "nama_cctv": "CTV052-KOM-MESJID-AL-JABBAR",
        "polda_id": "13",
        "polres_id": "181",
        "status": "hidup",
        "ctdby": "0000ORGANIK",
        "ctddate": "2025-11-13T17:00:00.000Z",
        "ctdtime": "10:30:00",
        "rtsp_cctv": "rtsp://satansheir:letyur13@172.16.95.12:554/cam/realmonitor?channel=52&subtype=1",
        "channel_code": null,
        "ctdupd": null,
        "instansi": "KOMINFO",
        "jenis_cctv": "ANALYTIC",
        "nama_jalan_s": "Jl. Cimincrang",
        "channel_id": "1000002$1$0$51",
        "cctv_in": "N",
        "cctv_out": "N",
        "masuk_kab": "N",
        "keluar_kab": "N",
        "keterangan": "checkpoint",
        "fungsi_jalan_cctv_id": 7,
        "masuk_prov": "N",
        "keluar_prov": "N",
        "is_active": 1,
        "channel_id_event": null,
        "cctv_category_id": 3,
        "hls_cctv": null,
        "kecamatan": null,
        "kota": null,
        "nama_objek_vital": null,
        "channel_id_enforcement": null,
        "cctv_id": "c8c31e66-2aa6-4cc1-8e61-134ff16505c0",
        "rtsp_cctv_dcc": null,
        "arah_cctv": null,
        "radius": null,
        "polda": "Polda Jawa Barat",
        "polres": "POLRESTABES BANDUNG",
        "fungsi_jalan": null,
        "category": "OBJEK VITAL",
        "in_out": null,
        "ket_in_out": null,
        "_region": "bandung",
        "Satwil": "Polrestabes Bandung"
      }
    },
    {
      "type": "Feature",
      "geometry": {
        "type": "Point",
        "coordinates": [
          107.6082959,
          -6.9213034
        ]
      },
      "properties": {
        "rowid": 87,
        "nama_cctv": "CTV050-KOM-PERTIGAAN-SOEKARNO-ASIA AFRIKA",
        "polda_id": "13",
        "polres_id": "181",
        "status": "hidup",
        "ctdby": "0000ORGANIK",
        "ctddate": "2025-11-13T17:00:00.000Z",
        "ctdtime": "10:30:00",
        "rtsp_cctv": "rtsp://satansheir:letyur13@172.16.95.12:554/cam/realmonitor?channel=50&subtype=1",
        "channel_code": null,
        "ctdupd": null,
        "instansi": "KOMINFO",
        "jenis_cctv": "ANALYTIC",
        "nama_jalan_s": "Jl. Asia Afrika",
        "channel_id": "1000002$1$0$49",
        "cctv_in": "N",
        "cctv_out": "N",
        "masuk_kab": "N",
        "keluar_kab": "N",
        "keterangan": "checkpoint",
        "fungsi_jalan_cctv_id": 7,
        "masuk_prov": "N",
        "keluar_prov": "N",
        "is_active": 1,
        "channel_id_event": null,
        "cctv_category_id": 3,
        "hls_cctv": null,
        "kecamatan": null,
        "kota": null,
        "nama_objek_vital": null,
        "channel_id_enforcement": null,
        "cctv_id": "11375bf4-e8a4-4ccc-b94b-d514f5d21d16",
        "rtsp_cctv_dcc": null,
        "arah_cctv": null,
        "radius": null,
        "polda": "Polda Jawa Barat",
        "polres": "POLRESTABES BANDUNG",
        "fungsi_jalan": null,
        "category": "OBJEK VITAL",
        "in_out": null,
        "ket_in_out": null,
        "_region": "bandung",
        "Satwil": "Polrestabes Bandung"
      }
    },
    {
      "type": "Feature",
      "geometry": {
        "type": "Point",
        "coordinates": [
          107.60989,
          -6.921433
        ]
      },
      "properties": {
        "rowid": 86,
        "nama_cctv": "CTV033-KOM-BRAGA-ASIA-AFRIKA",
        "polda_id": "13",
        "polres_id": "181",
        "status": "hidup",
        "ctdby": "0000ORGANIK",
        "ctddate": "2025-11-10T17:00:00.000Z",
        "ctdtime": "10:30:00",
        "rtsp_cctv": "rtsp://satansheir:letyur13@172.16.95.12:554/cam/realmonitor?channel=33&subtype=1",
        "channel_code": null,
        "ctdupd": null,
        "instansi": "KOMINFO",
        "jenis_cctv": "ANALYTIC",
        "nama_jalan_s": "Jl. Asia Afrika (Savoy Homann)",
        "channel_id": "1000002$1$0$32",
        "cctv_in": "N",
        "cctv_out": "N",
        "masuk_kab": "N",
        "keluar_kab": "N",
        "keterangan": "checkpoint",
        "fungsi_jalan_cctv_id": 7,
        "masuk_prov": "N",
        "keluar_prov": "N",
        "is_active": 1,
        "channel_id_event": null,
        "cctv_category_id": 3,
        "hls_cctv": null,
        "kecamatan": null,
        "kota": null,
        "nama_objek_vital": null,
        "channel_id_enforcement": null,
        "cctv_id": "36f8f6a6-01ab-4d01-b8ee-7ac9bf2325a8",
        "rtsp_cctv_dcc": null,
        "arah_cctv": null,
        "radius": null,
        "polda": "Polda Jawa Barat",
        "polres": "POLRESTABES BANDUNG",
        "fungsi_jalan": null,
        "category": "OBJEK VITAL",
        "in_out": null,
        "ket_in_out": null,
        "_region": "bandung",
        "Satwil": "Polrestabes Bandung"
      }
    },
    {
      "type": "Feature",
      "geometry": {
        "type": "Point",
        "coordinates": [
          107.609867,
          -6.921412
        ]
      },
      "properties": {
        "rowid": 85,
        "nama_cctv": "CTV032-KOM-BRAGA-ASIA-AFRIKA",
        "polda_id": "13",
        "polres_id": "181",
        "status": "hidup",
        "ctdby": "0000ORGANIK",
        "ctddate": "2025-11-10T17:00:00.000Z",
        "ctdtime": "10:30:00",
        "rtsp_cctv": "rtsp://satansheir:letyur13@172.16.95.12:554/cam/realmonitor?channel=32&subtype=1",
        "channel_code": null,
        "ctdupd": null,
        "instansi": "KOMINFO",
        "jenis_cctv": "ANALYTIC",
        "nama_jalan_s": "Jl. Braga-Asia Afrika",
        "channel_id": "1000002$1$0$31",
        "cctv_in": "N",
        "cctv_out": "N",
        "masuk_kab": "N",
        "keluar_kab": "N",
        "keterangan": "checkpoint",
        "fungsi_jalan_cctv_id": 7,
        "masuk_prov": "N",
        "keluar_prov": "N",
        "is_active": 1,
        "channel_id_event": null,
        "cctv_category_id": 3,
        "hls_cctv": null,
        "kecamatan": null,
        "kota": null,
        "nama_objek_vital": null,
        "channel_id_enforcement": null,
        "cctv_id": "e1919abd-f1e4-49be-8dd8-5f9b7fbcb94e",
        "rtsp_cctv_dcc": null,
        "arah_cctv": null,
        "radius": null,
        "polda": "Polda Jawa Barat",
        "polres": "POLRESTABES BANDUNG",
        "fungsi_jalan": null,
        "category": "OBJEK VITAL",
        "in_out": null,
        "ket_in_out": null,
        "_region": "bandung",
        "Satwil": "Polrestabes Bandung"
      }
    },
    {
      "type": "Feature",
      "geometry": {
        "type": "Point",
        "coordinates": [
          107.607391,
          -6.921124
        ]
      },
      "properties": {
        "rowid": 84,
        "nama_cctv": "CTV031-KOM-ASIA-AFRIKA-BRI",
        "polda_id": "13",
        "polres_id": "181",
        "status": "hidup",
        "ctdby": "0000ORGANIK",
        "ctddate": "2025-11-10T17:00:00.000Z",
        "ctdtime": "10:30:00",
        "rtsp_cctv": "rtsp://satansheir:letyur13@172.16.95.12:554/cam/realmonitor?channel=31&subtype=1",
        "channel_code": null,
        "ctdupd": null,
        "instansi": "KOMINFO",
        "jenis_cctv": "ANALYTIC",
        "nama_jalan_s": "Jl. Asia Afrika",
        "channel_id": "1000002$1$0$30",
        "cctv_in": "N",
        "cctv_out": "N",
        "masuk_kab": "N",
        "keluar_kab": "N",
        "keterangan": "checkpoint",
        "fungsi_jalan_cctv_id": 7,
        "masuk_prov": "N",
        "keluar_prov": "N",
        "is_active": 1,
        "channel_id_event": null,
        "cctv_category_id": 3,
        "hls_cctv": null,
        "kecamatan": null,
        "kota": null,
        "nama_objek_vital": null,
        "channel_id_enforcement": null,
        "cctv_id": "bdabe477-2f2a-4476-9cf8-f1d206022fc5",
        "rtsp_cctv_dcc": null,
        "arah_cctv": null,
        "radius": null,
        "polda": "Polda Jawa Barat",
        "polres": "POLRESTABES BANDUNG",
        "fungsi_jalan": null,
        "category": "OBJEK VITAL",
        "in_out": null,
        "ket_in_out": null,
        "_region": "bandung",
        "Satwil": "Polrestabes Bandung"
      }
    },
    {
      "type": "Feature",
      "geometry": {
        "type": "Point",
        "coordinates": [
          107.569041,
          -6.910468
        ]
      },
      "properties": {
        "rowid": 28,
        "nama_cctv": "CTV024-SP3-CIBEUREUM-OUT",
        "polda_id": "13",
        "polres_id": "181",
        "status": "hidup",
        "ctdby": "000ORGANIK",
        "ctddate": "2025-09-02T17:00:00.000Z",
        "ctdtime": "00:00:00",
        "rtsp_cctv": "rtsp://satansheir:letyur13@172.16.95.12:554/cam/realmonitor?channel=24&subtype=1",
        "channel_code": null,
        "ctdupd": null,
        "instansi": "KORLANTAS",
        "jenis_cctv": "ANALYTIC",
        "nama_jalan_s": "Jl. Jenderal Sudirman",
        "channel_id": "1000002$1$0$23",
        "cctv_in": "N",
        "cctv_out": "Y",
        "masuk_kab": "N",
        "keluar_kab": "Y",
        "keterangan": "perbatasan",
        "fungsi_jalan_cctv_id": 7,
        "masuk_prov": "N",
        "keluar_prov": "N",
        "is_active": 1,
        "channel_id_event": null,
        "cctv_category_id": 2,
        "hls_cctv": null,
        "kecamatan": null,
        "kota": null,
        "nama_objek_vital": null,
        "channel_id_enforcement": null,
        "cctv_id": "c1ec3202-d0ed-4094-88ba-cba99b1b7e84",
        "rtsp_cctv_dcc": null,
        "arah_cctv": null,
        "radius": null,
        "polda": "Polda Jawa Barat",
        "polres": "POLRESTABES BANDUNG",
        "fungsi_jalan": null,
        "category": "BATAS KOTA",
        "in_out": "CCTV OUT",
        "ket_in_out": "KOTA",
        "_region": "bandung",
        "Satwil": "Polrestabes Bandung"
      }
    },
    {
      "type": "Feature",
      "geometry": {
        "type": "Point",
        "coordinates": [
          107.718763,
          -6.935042
        ]
      },
      "properties": {
        "rowid": 27,
        "nama_cctv": "CTV028-SP3-CIBIRU-OUT",
        "polda_id": "13",
        "polres_id": "181",
        "status": "hidup",
        "ctdby": "000ORGANIK",
        "ctddate": "2025-09-02T17:00:00.000Z",
        "ctdtime": "00:00:00",
        "rtsp_cctv": "rtsp://satansheir:letyur13@172.16.95.12:554/cam/realmonitor?channel=28&subtype=1",
        "channel_code": null,
        "ctdupd": null,
        "instansi": "KORLANTAS",
        "jenis_cctv": "ANALYTIC",
        "nama_jalan_s": "Jl. Soekarno Hatta",
        "channel_id": "1000002$1$0$27",
        "cctv_in": "N",
        "cctv_out": "Y",
        "masuk_kab": "N",
        "keluar_kab": "Y",
        "keterangan": "perbatasan",
        "fungsi_jalan_cctv_id": 7,
        "masuk_prov": "N",
        "keluar_prov": "N",
        "is_active": 1,
        "channel_id_event": null,
        "cctv_category_id": 2,
        "hls_cctv": null,
        "kecamatan": null,
        "kota": null,
        "nama_objek_vital": null,
        "channel_id_enforcement": null,
        "cctv_id": "a49a6baf-5c6d-4ede-a630-0a41deeec2d4",
        "rtsp_cctv_dcc": null,
        "arah_cctv": null,
        "radius": null,
        "polda": "Polda Jawa Barat",
        "polres": "POLRESTABES BANDUNG",
        "fungsi_jalan": null,
        "category": "BATAS KOTA",
        "in_out": "CCTV OUT",
        "ket_in_out": "KOTA",
        "_region": "bandung",
        "Satwil": "Polrestabes Bandung"
      }
    },
    {
      "type": "Feature",
      "geometry": {
        "type": "Point",
        "coordinates": [
          107.576439,
          -6.930264
        ]
      },
      "properties": {
        "rowid": 24,
        "nama_cctv": "CTV025-SP-PASIRKOJA-OUT",
        "polda_id": "13",
        "polres_id": "181",
        "status": "hidup",
        "ctdby": "000ORGANIK",
        "ctddate": "2025-09-02T17:00:00.000Z",
        "ctdtime": "00:00:00",
        "rtsp_cctv": "rtsp://satansheir:letyur13@172.16.95.12:554/cam/realmonitor?channel=25&subtype=1",
        "channel_code": null,
        "ctdupd": null,
        "instansi": "KORLANTAS",
        "jenis_cctv": "ANALYTIC",
        "nama_jalan_s": "Jl. Terusan Pasirkoja",
        "channel_id": "1000002$1$0$24",
        "cctv_in": "N",
        "cctv_out": "Y",
        "masuk_kab": "N",
        "keluar_kab": "Y",
        "keterangan": "perbatasan",
        "fungsi_jalan_cctv_id": 7,
        "masuk_prov": "N",
        "keluar_prov": "N",
        "is_active": 1,
        "channel_id_event": null,
        "cctv_category_id": 2,
        "hls_cctv": null,
        "kecamatan": null,
        "kota": null,
        "nama_objek_vital": null,
        "channel_id_enforcement": null,
        "cctv_id": "fc3d97d6-8b50-47b8-b2fb-f5b1b5c8979f",
        "rtsp_cctv_dcc": null,
        "arah_cctv": null,
        "radius": null,
        "polda": "Polda Jawa Barat",
        "polres": "POLRESTABES BANDUNG",
        "fungsi_jalan": null,
        "category": "BATAS KOTA",
        "in_out": "CCTV OUT",
        "ket_in_out": "KOTA",
        "_region": "bandung",
        "Satwil": "Polrestabes Bandung"
      }
    },
    {
      "type": "Feature",
      "geometry": {
        "type": "Point",
        "coordinates": [
          107.594959,
          -6.858832
        ]
      },
      "properties": {
        "rowid": 23,
        "nama_cctv": "CTV023-SP3-LEDENG-OUT",
        "polda_id": "13",
        "polres_id": "181",
        "status": "hidup",
        "ctdby": "000ORGANIK",
        "ctddate": "2025-09-02T17:00:00.000Z",
        "ctdtime": "00:00:00",
        "rtsp_cctv": "rtsp://satansheir:letyur13@172.16.95.12:554/cam/realmonitor?channel=23&subtype=1",
        "channel_code": null,
        "ctdupd": null,
        "instansi": "KORLANTAS",
        "jenis_cctv": "ANALYTIC",
        "nama_jalan_s": "Jl. Dr.Setiabudi",
        "channel_id": "1000002$1$0$22",
        "cctv_in": "N",
        "cctv_out": "Y",
        "masuk_kab": "N",
        "keluar_kab": "Y",
        "keterangan": "perbatasan",
        "fungsi_jalan_cctv_id": 7,
        "masuk_prov": "N",
        "keluar_prov": "N",
        "is_active": 1,
        "channel_id_event": null,
        "cctv_category_id": 2,
        "hls_cctv": null,
        "kecamatan": null,
        "kota": null,
        "nama_objek_vital": null,
        "channel_id_enforcement": null,
        "cctv_id": "40bd5675-cb56-4084-b27c-afff4511bb0d",
        "rtsp_cctv_dcc": null,
        "arah_cctv": null,
        "radius": null,
        "polda": "Polda Jawa Barat",
        "polres": "POLRESTABES BANDUNG",
        "fungsi_jalan": null,
        "category": "BATAS KOTA",
        "in_out": "CCTV OUT",
        "ket_in_out": "KOTA",
        "_region": "bandung",
        "Satwil": "Polrestabes Bandung"
      }
    },
    {
      "type": "Feature",
      "geometry": {
        "type": "Point",
        "coordinates": [
          107.58126,
          -6.89212
        ]
      },
      "properties": {
        "rowid": 22,
        "nama_cctv": "CTV022-KORLAN-SIMPANG-PASTEUR",
        "polda_id": "13",
        "polres_id": "181",
        "status": "hidup",
        "ctdby": "000ORGANIK",
        "ctddate": "2025-08-22T17:00:00.000Z",
        "ctdtime": "00:00:00",
        "rtsp_cctv": "rtsp://satansheir:letyur13@172.16.95.12:554/cam/realmonitor?channel=22&subtype=1",
        "channel_code": null,
        "ctdupd": null,
        "instansi": "KORLANTAS",
        "jenis_cctv": "ptz",
        "nama_jalan_s": null,
        "channel_id": "1000002$1$0$21",
        "cctv_in": "Y",
        "cctv_out": "N",
        "masuk_kab": "Y",
        "keluar_kab": "N",
        "keterangan": "perbatasan",
        "fungsi_jalan_cctv_id": 7,
        "masuk_prov": "N",
        "keluar_prov": "N",
        "is_active": 1,
        "channel_id_event": null,
        "cctv_category_id": 2,
        "hls_cctv": null,
        "kecamatan": null,
        "kota": null,
        "nama_objek_vital": null,
        "channel_id_enforcement": null,
        "cctv_id": "068478dc-a3a5-4976-b34d-21e8f5215098",
        "rtsp_cctv_dcc": null,
        "arah_cctv": null,
        "radius": null,
        "polda": "Polda Jawa Barat",
        "polres": "POLRESTABES BANDUNG",
        "fungsi_jalan": null,
        "category": "BATAS KOTA",
        "in_out": "CCTV IN",
        "ket_in_out": "KOTA",
        "_region": "bandung",
        "Satwil": "Polrestabes Bandung"
      }
    },
    {
      "type": "Feature",
      "geometry": {
        "type": "Point",
        "coordinates": [
          107.612659,
          -6.898708
        ]
      },
      "properties": {
        "rowid": 21,
        "nama_cctv": "CTV021-KORLAN-CIHAMPELAS",
        "polda_id": "13",
        "polres_id": "181",
        "status": "hidup",
        "ctdby": "000ORGANIK",
        "ctddate": "2025-08-29T17:00:00.000Z",
        "ctdtime": "00:00:00",
        "rtsp_cctv": "rtsp://satansheir:letyur13@172.16.95.12:554/cam/realmonitor?channel=21&subtype=1",
        "channel_code": null,
        "ctdupd": null,
        "instansi": "KORLANTAS",
        "jenis_cctv": "ptz",
        "nama_jalan_s": "Jl. Ir. H. Juanda",
        "channel_id": "1000002$1$0$20",
        "cctv_in": "N",
        "cctv_out": "N",
        "masuk_kab": "N",
        "keluar_kab": "N",
        "keterangan": "checkpoint",
        "fungsi_jalan_cctv_id": 7,
        "masuk_prov": "N",
        "keluar_prov": "N",
        "is_active": 1,
        "channel_id_event": null,
        "cctv_category_id": 5,
        "hls_cctv": null,
        "kecamatan": null,
        "kota": null,
        "nama_objek_vital": null,
        "channel_id_enforcement": null,
        "cctv_id": "bf504132-b301-4827-824a-2e8e9abe21ee",
        "rtsp_cctv_dcc": null,
        "arah_cctv": null,
        "radius": null,
        "polda": "Polda Jawa Barat",
        "polres": "POLRESTABES BANDUNG",
        "fungsi_jalan": null,
        "category": "DALAM KOTA",
        "in_out": null,
        "ket_in_out": null,
        "_region": "bandung",
        "Satwil": "Polrestabes Bandung"
      }
    },
    {
      "type": "Feature",
      "geometry": {
        "type": "Point",
        "coordinates": [
          107.657054,
          -6.902213
        ]
      },
      "properties": {
        "rowid": 20,
        "nama_cctv": "CTV020-KORLAN-TERMINAL-CICAHEUM",
        "polda_id": "13",
        "polres_id": "181",
        "status": "hidup",
        "ctdby": "000ORGANIK",
        "ctddate": "2025-08-28T17:00:00.000Z",
        "ctdtime": "00:00:00",
        "rtsp_cctv": "rtsp://satansheir:letyur13@172.16.95.12:554/cam/realmonitor?channel=20&subtype=1",
        "channel_code": null,
        "ctdupd": null,
        "instansi": "KORLANTAS",
        "jenis_cctv": "ptz",
        "nama_jalan_s": "Jl. A. Yani",
        "channel_id": "1000002$1$0$19",
        "cctv_in": "N",
        "cctv_out": "N",
        "masuk_kab": "N",
        "keluar_kab": "N",
        "keterangan": "checkpoint",
        "fungsi_jalan_cctv_id": 7,
        "masuk_prov": "N",
        "keluar_prov": "N",
        "is_active": 1,
        "channel_id_event": null,
        "cctv_category_id": 5,
        "hls_cctv": null,
        "kecamatan": null,
        "kota": null,
        "nama_objek_vital": null,
        "channel_id_enforcement": null,
        "cctv_id": "2f3bea5d-9ee4-4b67-b647-c200464b0cd8",
        "rtsp_cctv_dcc": null,
        "arah_cctv": null,
        "radius": null,
        "polda": "Polda Jawa Barat",
        "polres": "POLRESTABES BANDUNG",
        "fungsi_jalan": null,
        "category": "DALAM KOTA",
        "in_out": null,
        "ket_in_out": null,
        "_region": "bandung",
        "Satwil": "Polrestabes Bandung"
      }
    },
    {
      "type": "Feature",
      "geometry": {
        "type": "Point",
        "coordinates": [
          107.633663,
          -6.948075
        ]
      },
      "properties": {
        "rowid": 19,
        "nama_cctv": "CTV019-KORLAN-POSPOL-BUAH-BATU",
        "polda_id": "13",
        "polres_id": "181",
        "status": "hidup",
        "ctdby": "000ORGANIK",
        "ctddate": "2025-08-27T17:00:00.000Z",
        "ctdtime": "00:00:00",
        "rtsp_cctv": "rtsp://satansheir:letyur13@172.16.95.12:554/cam/realmonitor?channel=19&subtype=1",
        "channel_code": null,
        "ctdupd": null,
        "instansi": "KORLANTAS",
        "jenis_cctv": "ptz",
        "nama_jalan_s": "Jl. Terusan Buah Batu",
        "channel_id": "1000002$1$0$18",
        "cctv_in": "N",
        "cctv_out": "N",
        "masuk_kab": "N",
        "keluar_kab": "N",
        "keterangan": "checkpoint",
        "fungsi_jalan_cctv_id": 7,
        "masuk_prov": "N",
        "keluar_prov": "N",
        "is_active": 1,
        "channel_id_event": null,
        "cctv_category_id": 5,
        "hls_cctv": null,
        "kecamatan": null,
        "kota": null,
        "nama_objek_vital": null,
        "channel_id_enforcement": null,
        "cctv_id": "10fbbca4-3595-405b-b45f-b83e7a8da69d",
        "rtsp_cctv_dcc": null,
        "arah_cctv": null,
        "radius": null,
        "polda": "Polda Jawa Barat",
        "polres": "POLRESTABES BANDUNG",
        "fungsi_jalan": null,
        "category": "DALAM KOTA",
        "in_out": null,
        "ket_in_out": null,
        "_region": "bandung",
        "Satwil": "Polrestabes Bandung"
      }
    },
    {
      "type": "Feature",
      "geometry": {
        "type": "Point",
        "coordinates": [
          107.634422,
          -6.913248
        ]
      },
      "properties": {
        "rowid": 16,
        "nama_cctv": "CTV016-KORLAN-POSPOL-A.YANI",
        "polda_id": "13",
        "polres_id": "181",
        "status": "hidup",
        "ctdby": "000ORGANIK",
        "ctddate": "2025-08-24T17:00:00.000Z",
        "ctdtime": "00:00:00",
        "rtsp_cctv": "rtsp://satansheir:letyur13@172.16.95.12:554/cam/realmonitor?channel=16&subtype=1",
        "channel_code": null,
        "ctdupd": null,
        "instansi": "KORLANTAS",
        "jenis_cctv": "ptz",
        "nama_jalan_s": "Jl. A. Yani",
        "channel_id": "1000002$1$0$15",
        "cctv_in": "N",
        "cctv_out": "N",
        "masuk_kab": "N",
        "keluar_kab": "N",
        "keterangan": "chekpoint",
        "fungsi_jalan_cctv_id": 7,
        "masuk_prov": "N",
        "keluar_prov": "N",
        "is_active": 1,
        "channel_id_event": null,
        "cctv_category_id": 5,
        "hls_cctv": null,
        "kecamatan": null,
        "kota": null,
        "nama_objek_vital": null,
        "channel_id_enforcement": null,
        "cctv_id": "e147efb4-6a64-4e2f-9897-975412ecc06f",
        "rtsp_cctv_dcc": null,
        "arah_cctv": null,
        "radius": null,
        "polda": "Polda Jawa Barat",
        "polres": "POLRESTABES BANDUNG",
        "fungsi_jalan": null,
        "category": "DALAM KOTA",
        "in_out": null,
        "ket_in_out": null,
        "_region": "bandung",
        "Satwil": "Polrestabes Bandung"
      }
    },
    {
      "type": "Feature",
      "geometry": {
        "type": "Point",
        "coordinates": [
          107.61037,
          -6.914449
        ]
      },
      "properties": {
        "rowid": 15,
        "nama_cctv": "CTV015-KORLAN-KATEDRAL-BANDUNG",
        "polda_id": "13",
        "polres_id": "181",
        "status": "hidup",
        "ctdby": "000ORGANIK",
        "ctddate": "2025-08-23T17:00:00.000Z",
        "ctdtime": "00:00:00",
        "rtsp_cctv": "rtsp://satansheir:letyur13@172.16.95.12:554/cam/realmonitor?channel=15&subtype=1",
        "channel_code": null,
        "ctdupd": null,
        "instansi": "KORLANTAS",
        "jenis_cctv": "ptz",
        "nama_jalan_s": "Jl. Merdeka",
        "channel_id": "1000002$1$0$14",
        "cctv_in": "N",
        "cctv_out": "N",
        "masuk_kab": "N",
        "keluar_kab": "N",
        "keterangan": "chekpoint",
        "fungsi_jalan_cctv_id": 7,
        "masuk_prov": "N",
        "keluar_prov": "N",
        "is_active": 1,
        "channel_id_event": null,
        "cctv_category_id": 5,
        "hls_cctv": null,
        "kecamatan": null,
        "kota": null,
        "nama_objek_vital": null,
        "channel_id_enforcement": null,
        "cctv_id": "4959aec1-6172-4a94-bbc2-ddb2eb769fd1",
        "rtsp_cctv_dcc": null,
        "arah_cctv": null,
        "radius": null,
        "polda": "Polda Jawa Barat",
        "polres": "POLRESTABES BANDUNG",
        "fungsi_jalan": null,
        "category": "DALAM KOTA",
        "in_out": null,
        "ket_in_out": null,
        "_region": "bandung",
        "Satwil": "Polrestabes Bandung"
      }
    },
    {
      "type": "Feature",
      "geometry": {
        "type": "Point",
        "coordinates": [
          107.612668,
          -6.898415
        ]
      },
      "properties": {
        "rowid": 14,
        "nama_cctv": "CTV014-GEREJA-GIL-DAGO-BANDUNG",
        "polda_id": "13",
        "polres_id": "181",
        "status": "hidup",
        "ctdby": "000ORGANIK",
        "ctddate": "2025-08-22T17:00:00.000Z",
        "ctdtime": "00:00:00",
        "rtsp_cctv": "rtsp://satansheir:letyur13@172.16.95.12:554/cam/realmonitor?channel=14&subtype=1",
        "channel_code": null,
        "ctdupd": null,
        "instansi": "KORLANTAS",
        "jenis_cctv": "ptz",
        "nama_jalan_s": null,
        "channel_id": "1000002$1$0$13",
        "cctv_in": "N",
        "cctv_out": "N",
        "masuk_kab": "N",
        "keluar_kab": "N",
        "keterangan": "checkpoint",
        "fungsi_jalan_cctv_id": 7,
        "masuk_prov": "N",
        "keluar_prov": "N",
        "is_active": 1,
        "channel_id_event": null,
        "cctv_category_id": 5,
        "hls_cctv": null,
        "kecamatan": null,
        "kota": null,
        "nama_objek_vital": null,
        "channel_id_enforcement": null,
        "cctv_id": "d918b4c6-3a72-4b3a-bcd0-91daa7d2478e",
        "rtsp_cctv_dcc": null,
        "arah_cctv": null,
        "radius": null,
        "polda": "Polda Jawa Barat",
        "polres": "POLRESTABES BANDUNG",
        "fungsi_jalan": null,
        "category": "DALAM KOTA",
        "in_out": null,
        "ket_in_out": null,
        "_region": "bandung",
        "Satwil": "Polrestabes Bandung"
      }
    },
    {
      "type": "Feature",
      "geometry": {
        "type": "Point",
        "coordinates": [
          107.618235,
          -6.901267
        ]
      },
      "properties": {
        "rowid": 13,
        "nama_cctv": "CTV013-KORLAN-GEDUNG-SATE",
        "polda_id": "13",
        "polres_id": "181",
        "status": "hidup",
        "ctdby": "000ORGANIK",
        "ctddate": "2025-08-22T17:00:00.000Z",
        "ctdtime": "00:00:00",
        "rtsp_cctv": "rtsp://satansheir:letyur13@172.16.95.12:554/cam/realmonitor?channel=13&subtype=1",
        "channel_code": null,
        "ctdupd": null,
        "instansi": "KORLANTAS",
        "jenis_cctv": "ptz",
        "nama_jalan_s": "Jl. Dipenogoro",
        "channel_id": "1000002$1$0$12",
        "cctv_in": "N",
        "cctv_out": "N",
        "masuk_kab": "N",
        "keluar_kab": "N",
        "keterangan": "checkpoint",
        "fungsi_jalan_cctv_id": 7,
        "masuk_prov": "N",
        "keluar_prov": "N",
        "is_active": 1,
        "channel_id_event": null,
        "cctv_category_id": 5,
        "hls_cctv": null,
        "kecamatan": null,
        "kota": null,
        "nama_objek_vital": null,
        "channel_id_enforcement": null,
        "cctv_id": "234fedae-4340-4a66-baa3-b00ac74d17d9",
        "rtsp_cctv_dcc": null,
        "arah_cctv": null,
        "radius": null,
        "polda": "Polda Jawa Barat",
        "polres": "POLRESTABES BANDUNG",
        "fungsi_jalan": null,
        "category": "DALAM KOTA",
        "in_out": null,
        "ket_in_out": null,
        "_region": "bandung",
        "Satwil": "Polrestabes Bandung"
      }
    },
    {
      "type": "Feature",
      "geometry": {
        "type": "Point",
        "coordinates": [
          107.607409,
          -6.921264
        ]
      },
      "properties": {
        "rowid": 11,
        "nama_cctv": "CTV011-KORLAN-ALUN-ALUN-BRAGA",
        "polda_id": "13",
        "polres_id": "181",
        "status": "hidup",
        "ctdby": "000ORGANIK",
        "ctddate": "2025-08-20T17:00:00.000Z",
        "ctdtime": "00:00:00",
        "rtsp_cctv": "rtsp://satansheir:letyur13@172.16.95.12:554/cam/realmonitor?channel=11&subtype=1",
        "channel_code": null,
        "ctdupd": null,
        "instansi": "KORLANTAS",
        "jenis_cctv": "ptz",
        "nama_jalan_s": "Jl. Asia Afrika",
        "channel_id": "1000002$1$0$10",
        "cctv_in": "N",
        "cctv_out": "N",
        "masuk_kab": "N",
        "keluar_kab": "N",
        "keterangan": "checkpoint",
        "fungsi_jalan_cctv_id": 7,
        "masuk_prov": "N",
        "keluar_prov": "N",
        "is_active": 1,
        "channel_id_event": null,
        "cctv_category_id": 5,
        "hls_cctv": null,
        "kecamatan": null,
        "kota": null,
        "nama_objek_vital": null,
        "channel_id_enforcement": null,
        "cctv_id": "0d5ce7b6-d590-4f85-a1bc-67529e51143d",
        "rtsp_cctv_dcc": null,
        "arah_cctv": null,
        "radius": null,
        "polda": "Polda Jawa Barat",
        "polres": "POLRESTABES BANDUNG",
        "fungsi_jalan": null,
        "category": "DALAM KOTA",
        "in_out": null,
        "ket_in_out": null,
        "_region": "bandung",
        "Satwil": "Polrestabes Bandung"
      }
    },
    {
      "type": "Feature",
      "geometry": {
        "type": "Point",
        "coordinates": [
          107.608004,
          -6.921333
        ]
      },
      "properties": {
        "rowid": 8,
        "nama_cctv": "CTV008-SMCT-SP-ASIA-AFRIKA",
        "polda_id": "13",
        "polres_id": "181",
        "status": "hidup",
        "ctdby": "000ORGANIK",
        "ctddate": "2025-08-17T17:00:00.000Z",
        "ctdtime": "00:00:00",
        "rtsp_cctv": "rtsp://satansheir:letyur13@172.16.95.12:554/cam/realmonitor?channel=8&subtype=1",
        "channel_code": null,
        "ctdupd": null,
        "instansi": "KORLANTAS",
        "jenis_cctv": "ANALYTIC",
        "nama_jalan_s": "Jl. Asia Afrika",
        "channel_id": "1000002$1$0$7",
        "cctv_in": "N",
        "cctv_out": "N",
        "masuk_kab": "N",
        "keluar_kab": "N",
        "keterangan": "checkpoint",
        "fungsi_jalan_cctv_id": 7,
        "masuk_prov": "N",
        "keluar_prov": "N",
        "is_active": 1,
        "channel_id_event": null,
        "cctv_category_id": 3,
        "hls_cctv": null,
        "kecamatan": null,
        "kota": null,
        "nama_objek_vital": null,
        "channel_id_enforcement": null,
        "cctv_id": "bfa2974c-1824-44b5-a4d9-43b0a419e85d",
        "rtsp_cctv_dcc": null,
        "arah_cctv": null,
        "radius": null,
        "polda": "Polda Jawa Barat",
        "polres": "POLRESTABES BANDUNG",
        "fungsi_jalan": null,
        "category": "OBJEK VITAL",
        "in_out": null,
        "ket_in_out": null,
        "_region": "bandung",
        "Satwil": "Polrestabes Bandung"
      }
    },
    {
      "type": "Feature",
      "geometry": {
        "type": "Point",
        "coordinates": [
          107.718847,
          -6.93503
        ]
      },
      "properties": {
        "rowid": 7,
        "nama_cctv": "CTV006-SMCT-SP3-CIBIRU",
        "polda_id": "13",
        "polres_id": "181",
        "status": "hidup",
        "ctdby": "000ORGANIK",
        "ctddate": "2025-08-17T17:00:00.000Z",
        "ctdtime": "00:00:00",
        "rtsp_cctv": "rtsp://satansheir:letyur13@172.16.95.12:554/cam/realmonitor?channel=6&subtype=1",
        "channel_code": null,
        "ctdupd": null,
        "instansi": "KORLANTAS",
        "jenis_cctv": "ANALYTIC",
        "nama_jalan_s": "Jl. Soekarno Hatta",
        "channel_id": "1000002$1$0$5",
        "cctv_in": "Y",
        "cctv_out": "N",
        "masuk_kab": "Y",
        "keluar_kab": "N",
        "keterangan": "perbatasan",
        "fungsi_jalan_cctv_id": 7,
        "masuk_prov": "N",
        "keluar_prov": "N",
        "is_active": 1,
        "channel_id_event": "1000015$1$0$1",
        "cctv_category_id": 2,
        "hls_cctv": null,
        "kecamatan": null,
        "kota": null,
        "nama_objek_vital": null,
        "channel_id_enforcement": null,
        "cctv_id": "be0eac85-7282-44b8-9997-c8b1bba936a7",
        "rtsp_cctv_dcc": null,
        "arah_cctv": null,
        "radius": null,
        "polda": "Polda Jawa Barat",
        "polres": "POLRESTABES BANDUNG",
        "fungsi_jalan": null,
        "category": "BATAS KOTA",
        "in_out": "CCTV IN",
        "ket_in_out": "KOTA",
        "_region": "bandung",
        "Satwil": "Polrestabes Bandung"
      }
    },
    {
      "type": "Feature",
      "geometry": {
        "type": "Point",
        "coordinates": [
          107.69249,
          -6.936827
        ]
      },
      "properties": {
        "rowid": 6,
        "nama_cctv": "CTV007-SMCT-SP4-GEDEBAGE",
        "polda_id": "13",
        "polres_id": "181",
        "status": "hidup",
        "ctdby": "000ORGANIK",
        "ctddate": "2025-08-17T17:00:00.000Z",
        "ctdtime": "00:00:00",
        "rtsp_cctv": "rtsp://satansheir:letyur13@172.16.95.12:554/cam/realmonitor?channel=7&subtype=1",
        "channel_code": null,
        "ctdupd": null,
        "instansi": "KORLANTAS",
        "jenis_cctv": "ANALYTIC",
        "nama_jalan_s": "Jl. Soekarno Hatta",
        "channel_id": "1000002$1$0$6",
        "cctv_in": "N",
        "cctv_out": "N",
        "masuk_kab": "N",
        "keluar_kab": "N",
        "keterangan": "checkpoint",
        "fungsi_jalan_cctv_id": 7,
        "masuk_prov": "N",
        "keluar_prov": "N",
        "is_active": 1,
        "channel_id_event": "1000015$1$0$16",
        "cctv_category_id": 5,
        "hls_cctv": null,
        "kecamatan": null,
        "kota": null,
        "nama_objek_vital": null,
        "channel_id_enforcement": null,
        "cctv_id": "68649937-5444-4d28-9354-64ccf98d6eed",
        "rtsp_cctv_dcc": null,
        "arah_cctv": null,
        "radius": null,
        "polda": "Polda Jawa Barat",
        "polres": "POLRESTABES BANDUNG",
        "fungsi_jalan": null,
        "category": "DALAM KOTA",
        "in_out": null,
        "ket_in_out": null,
        "_region": "bandung",
        "Satwil": "Polrestabes Bandung"
      }
    },
    {
      "type": "Feature",
      "geometry": {
        "type": "Point",
        "coordinates": [
          107.638768,
          -6.961444
        ]
      },
      "properties": {
        "rowid": 5,
        "nama_cctv": "CTV005-SMCT-EXIT-TOL-BUAH-BATU",
        "polda_id": "13",
        "polres_id": "181",
        "status": "hidup",
        "ctdby": "000ORGANIK",
        "ctddate": "2025-08-17T17:00:00.000Z",
        "ctdtime": "00:00:00",
        "rtsp_cctv": "rtsp://satansheir:letyur13@172.16.95.12:554/cam/realmonitor?channel=5&subtype=1",
        "channel_code": null,
        "ctdupd": null,
        "instansi": "KORLANTAS",
        "jenis_cctv": "ANALYTIC",
        "nama_jalan_s": "Jl. Terusan Buah Batu",
        "channel_id": "1000002$1$0$4",
        "cctv_in": "Y",
        "cctv_out": "N",
        "masuk_kab": "Y",
        "keluar_kab": "N",
        "keterangan": "perbatasan",
        "fungsi_jalan_cctv_id": 7,
        "masuk_prov": "N",
        "keluar_prov": "N",
        "is_active": 1,
        "channel_id_event": "1000015$1$0$2",
        "cctv_category_id": 2,
        "hls_cctv": null,
        "kecamatan": null,
        "kota": null,
        "nama_objek_vital": null,
        "channel_id_enforcement": null,
        "cctv_id": "e4ce1ef5-ddd9-4706-9eec-f04269ab6eb7",
        "rtsp_cctv_dcc": null,
        "arah_cctv": null,
        "radius": null,
        "polda": "Polda Jawa Barat",
        "polres": "POLRESTABES BANDUNG",
        "fungsi_jalan": null,
        "category": "BATAS KOTA",
        "in_out": "CCTV IN",
        "ket_in_out": "KOTA",
        "_region": "bandung",
        "Satwil": "Polrestabes Bandung"
      }
    },
    {
      "type": "Feature",
      "geometry": {
        "type": "Point",
        "coordinates": [
          107.589483,
          -6.945718
        ]
      },
      "properties": {
        "rowid": 4,
        "nama_cctv": "CTV004-SMCT-SP-KOPO",
        "polda_id": "13",
        "polres_id": "181",
        "status": "hidup",
        "ctdby": "000ORGANIK",
        "ctddate": "2025-08-17T17:00:00.000Z",
        "ctdtime": "00:00:00",
        "rtsp_cctv": "rtsp://satansheir:letyur13@172.16.95.12:554/cam/realmonitor?channel=4&subtype=1",
        "channel_code": null,
        "ctdupd": null,
        "instansi": "KORLANTAS",
        "jenis_cctv": "ANALYTIC",
        "nama_jalan_s": "Jl. Raya Kopo",
        "channel_id": "1000002$1$0$3",
        "cctv_in": "Y",
        "cctv_out": "N",
        "masuk_kab": "Y",
        "keluar_kab": "N",
        "keterangan": "perbatasan",
        "fungsi_jalan_cctv_id": 7,
        "masuk_prov": "N",
        "keluar_prov": "N",
        "is_active": 1,
        "channel_id_event": "1000015$1$0$5",
        "cctv_category_id": 2,
        "hls_cctv": null,
        "kecamatan": null,
        "kota": null,
        "nama_objek_vital": null,
        "channel_id_enforcement": null,
        "cctv_id": "f03867a6-9380-4aba-b3c4-fe0690eb098c",
        "rtsp_cctv_dcc": null,
        "arah_cctv": null,
        "radius": null,
        "polda": "Polda Jawa Barat",
        "polres": "POLRESTABES BANDUNG",
        "fungsi_jalan": null,
        "category": "BATAS KOTA",
        "in_out": "CCTV IN",
        "ket_in_out": "KOTA",
        "_region": "bandung",
        "Satwil": "Polrestabes Bandung"
      }
    },
    {
      "type": "Feature",
      "geometry": {
        "type": "Point",
        "coordinates": [
          107.576572,
          -6.93022
        ]
      },
      "properties": {
        "rowid": 3,
        "nama_cctv": "CTV003-SMCT-SP-PASIRKOJA",
        "polda_id": "13",
        "polres_id": "181",
        "status": "hidup",
        "ctdby": "000ORGANIK",
        "ctddate": "2025-08-17T17:00:00.000Z",
        "ctdtime": "00:00:00",
        "rtsp_cctv": "rtsp://satansheir:letyur13@172.16.95.12:554/cam/realmonitor?channel=3&subtype=1",
        "channel_code": null,
        "ctdupd": null,
        "instansi": "KORLANTAS",
        "jenis_cctv": "ANALYTIC",
        "nama_jalan_s": "Jl. Terusan Pasirkoja",
        "channel_id": "1000002$1$0$2",
        "cctv_in": "Y",
        "cctv_out": "N",
        "masuk_kab": "Y",
        "keluar_kab": "N",
        "keterangan": "perbatasan",
        "fungsi_jalan_cctv_id": 7,
        "masuk_prov": "N",
        "keluar_prov": "N",
        "is_active": 1,
        "channel_id_event": "1000015$1$0$4",
        "cctv_category_id": 2,
        "hls_cctv": null,
        "kecamatan": null,
        "kota": null,
        "nama_objek_vital": null,
        "channel_id_enforcement": null,
        "cctv_id": "692c1e1e-e00d-46a1-b98b-7c6567251d5e",
        "rtsp_cctv_dcc": null,
        "arah_cctv": null,
        "radius": null,
        "polda": "Polda Jawa Barat",
        "polres": "POLRESTABES BANDUNG",
        "fungsi_jalan": null,
        "category": "BATAS KOTA",
        "in_out": "CCTV IN",
        "ket_in_out": "KOTA",
        "_region": "bandung",
        "Satwil": "Polrestabes Bandung"
      }
    },
    {
      "type": "Feature",
      "geometry": {
        "type": "Point",
        "coordinates": [
          107.569082,
          -6.910512
        ]
      },
      "properties": {
        "rowid": 2,
        "nama_cctv": "CTV002-SMCT-SP3-CIBEUREUM",
        "polda_id": "13",
        "polres_id": "181",
        "status": "hidup",
        "ctdby": "000ORGANIK",
        "ctddate": "2025-08-17T17:00:00.000Z",
        "ctdtime": "00:00:00",
        "rtsp_cctv": "rtsp://satansheir:letyur13@172.16.95.12:554/cam/realmonitor?channel=2&subtype=1",
        "channel_code": null,
        "ctdupd": null,
        "instansi": "KORLANTAS",
        "jenis_cctv": "ANALYTIC",
        "nama_jalan_s": "Jl. Jenderal Sudirman",
        "channel_id": "1000002$1$0$1",
        "cctv_in": "Y",
        "cctv_out": "N",
        "masuk_kab": "Y",
        "keluar_kab": "N",
        "keterangan": "perbatasan",
        "fungsi_jalan_cctv_id": 7,
        "masuk_prov": "N",
        "keluar_prov": "N",
        "is_active": 1,
        "channel_id_event": "1000015$1$0$3",
        "cctv_category_id": 2,
        "hls_cctv": null,
        "kecamatan": null,
        "kota": null,
        "nama_objek_vital": null,
        "channel_id_enforcement": null,
        "cctv_id": "12e0fa55-a4ed-4581-81fa-92b1dbb8186e",
        "rtsp_cctv_dcc": null,
        "arah_cctv": null,
        "radius": null,
        "polda": "Polda Jawa Barat",
        "polres": "POLRESTABES BANDUNG",
        "fungsi_jalan": null,
        "category": "BATAS KOTA",
        "in_out": "CCTV IN",
        "ket_in_out": "KOTA",
        "_region": "bandung",
        "Satwil": "Polrestabes Bandung"
      }
    },
    {
      "type": "Feature",
      "geometry": {
        "type": "Point",
        "coordinates": [
          107.594868,
          -6.858883
        ]
      },
      "properties": {
        "rowid": 1,
        "nama_cctv": "CTV001-SMCT-SP3-LEDENG",
        "polda_id": "13",
        "polres_id": "181",
        "status": "hidup",
        "ctdby": "000ORGANIK",
        "ctddate": "2025-08-17T17:00:00.000Z",
        "ctdtime": "00:00:00",
        "rtsp_cctv": "rtsp://satansheir:letyur13@172.16.95.12:554/cam/realmonitor?channel=1&subtype=1",
        "channel_code": null,
        "ctdupd": null,
        "instansi": "KORLANTAS",
        "jenis_cctv": "ANALYTIC",
        "nama_jalan_s": "Jl. Dr.Setiabudi",
        "channel_id": "1000002$1$0$0",
        "cctv_in": "Y",
        "cctv_out": "N",
        "masuk_kab": "Y",
        "keluar_kab": "N",
        "keterangan": "perbatasan",
        "fungsi_jalan_cctv_id": 7,
        "masuk_prov": "N",
        "keluar_prov": "N",
        "is_active": 1,
        "channel_id_event": "1000015$1$0$0",
        "cctv_category_id": 2,
        "hls_cctv": null,
        "kecamatan": null,
        "kota": null,
        "nama_objek_vital": null,
        "channel_id_enforcement": null,
        "cctv_id": "cd2aa85c-d79c-4aec-912b-70f0da5bfbb3",
        "rtsp_cctv_dcc": null,
        "arah_cctv": null,
        "radius": null,
        "polda": "Polda Jawa Barat",
        "polres": "POLRESTABES BANDUNG",
        "fungsi_jalan": null,
        "category": "BATAS KOTA",
        "in_out": "CCTV IN",
        "ket_in_out": "KOTA",
        "_region": "bandung",
        "Satwil": "Polrestabes Bandung"
      }
    }
  ]
}