{
"type": "FeatureCollection",
"crs": { "type": "name", "properties": { "name": "urn:ogc:def:crs:OGC:1.3:CRS84" } },
"features": [
{ "type": "Feature", "properties": { "vehicleId": 228, "vehicleName": "Korlantas Polsek Jebres", "nopol": "232-30", "ownerId": 388, "vehicleGroup": "KORLANTAS", "merkName": "MITSUBISHI", "tipeName": "T120SS", "tahun": "T120SS", "imei": "354017112651126", "simcard": "081119603847", "longitude": 110.8021, "speed": 0, "fuel": 0, "locTime": "2024-07-10T14:34:57+07:00", "statusEngine": "0", "parking": false, "Satwil": "Polresta Surakarta", "_source": "eling_solo", "last_update": "2026-06-10T13:18:05+07:00" }, "geometry": { "type": "Point", "coordinates": [ 110.8021, -7.5523516 ] } },
{ "type": "Feature", "properties": { "vehicleId": 229, "vehicleName": "DAMKAR-13", "nopol": "AD8032XA", "ownerId": 388, "vehicleGroup": "DAMKAR", "merkName": "HINO", "tipeName": "Dutro", "tahun": "Dutro", "imei": "354017112644063", "simcard": "081119603850", "longitude": 110.83297, "speed": 0, "fuel": 0, "locTime": "2026-06-10T12:41:13+07:00", "statusEngine": "0", "parking": false, "Satwil": "Polresta Surakarta", "_source": "eling_solo", "last_update": "2026-06-10T13:18:05+07:00" }, "geometry": { "type": "Point", "coordinates": [ 110.83297, -7.5575683 ] } },
{ "type": "Feature", "properties": { "vehicleId": 230, "vehicleName": "DISHUB", "nopol": "AD9592CU", "ownerId": 388, "vehicleGroup": "DISHUB", "merkName": "TOYOTA", "tipeName": "Dyna", "tahun": "Dyna", "imei": "354017112656190", "simcard": "081119603852", "longitude": 110.8090883, "speed": 0, "fuel": 0, "locTime": "2026-06-10T11:10:22+07:00", "statusEngine": "0", "parking": false, "Satwil": "Polresta Surakarta", "_source": "eling_solo", "last_update": "2026-06-10T13:18:05+07:00" }, "geometry": { "type": "Point", "coordinates": [ 110.8090883, -7.5555683 ] } },
{ "type": "Feature", "properties": { "vehicleId": 232, "vehicleName": "PATWAL 7001", "nopol": "7001", "ownerId": 388, "vehicleGroup": "KORLANTAS", "merkName": "MITSUBISHI", "tipeName": "Lancer", "tahun": "Lancer", "imei": "354017112282443", "simcard": "081119603848", "longitude": 110.8052049, "speed": 0, "fuel": 0, "locTime": "2026-06-10T10:47:04+07:00", "statusEngine": "0", "parking": false, "Satwil": "Polresta Surakarta", "_source": "eling_solo", "last_update": "2026-06-10T13:18:05+07:00" }, "geometry": { "type": "Point", "coordinates": [ 110.8052049, -7.5644133 ] } },
{ "type": "Feature", "properties": { "vehicleId": 240, "vehicleName": "RSUD-BUNGKARNO-01", "nopol": "AD9010XA", "ownerId": 388, "vehicleGroup": "DINKES", "merkName": "TOYOTA", "tipeName": "Hiace", "tahun": "Hiace", "imei": "354017112644147", "simcard": "081119603853", "longitude": 110.8338933, "speed": 0, "fuel": 0, "locTime": "2026-06-10T11:28:13+07:00", "statusEngine": "0", "parking": false, "Satwil": "Polresta Surakarta", "_source": "eling_solo", "last_update": "2026-06-10T13:18:05+07:00" }, "geometry": { "type": "Point", "coordinates": [ 110.8338933, -7.5919116 ] } },
{ "type": "Feature", "properties": { "vehicleId": 241, "vehicleName": "PSC-119", "nopol": "AD9020XA", "ownerId": 388, "vehicleGroup": "DINKES", "merkName": "SUZUKI", "tipeName": "APV", "tahun": "APV", "imei": "354017112594417", "simcard": "081120004535", "longitude": 110.8300983, "speed": 0, "fuel": 0, "locTime": "2026-06-10T12:13:16+07:00", "statusEngine": "0", "parking": false, "Satwil": "Polresta Surakarta", "_source": "eling_solo", "last_update": "2026-06-10T13:18:05+07:00" }, "geometry": { "type": "Point", "coordinates": [ 110.830098299999989, -7.5686099 ] } },
{ "type": "Feature", "properties": { "vehicleId": 242, "vehicleName": "RSUD-BUNGKARNO-02", "nopol": "AD9514DU", "ownerId": 388, "vehicleGroup": "DINKES", "merkName": "TOYOTA", "tipeName": "Hiace", "tahun": "Hiace", "imei": "354017112594813", "simcard": "081119603855", "longitude": 110.8069566, "speed": 0, "fuel": 0, "locTime": "2026-06-10T11:08:43+07:00", "statusEngine": "0", "parking": false, "Satwil": "Polresta Surakarta", "_source": "eling_solo", "last_update": "2026-06-10T13:18:05+07:00" }, "geometry": { "type": "Point", "coordinates": [ 110.8069566, -7.5539183 ] } },
{ "type": "Feature", "properties": { "vehicleId": 243, "vehicleName": "DAMKAR-16", "nopol": "AD9597PU", "ownerId": 388, "vehicleGroup": "DAMKAR", "merkName": "MITSUBISHI", "tipeName": "Canter", "tahun": "Canter", "imei": "354017112670001", "simcard": "081119603854", "longitude": 110.8082333, "speed": 0, "fuel": 0, "locTime": "2026-06-10T11:56:24+07:00", "statusEngine": "0", "parking": false, "Satwil": "Polresta Surakarta", "_source": "eling_solo", "last_update": "2026-06-10T13:18:05+07:00" }, "geometry": { "type": "Point", "coordinates": [ 110.8082333, -7.5606899 ] } },
{ "type": "Feature", "properties": { "vehicleId": 244, "vehicleName": "DAMKAR-14", "nopol": "AD9590PU", "ownerId": 388, "vehicleGroup": "DAMKAR", "merkName": "MITSUBISHI", "tipeName": "Canter", "tahun": "Canter", "imei": "359633108829818", "simcard": "081120004536", "longitude": 110.84805, "speed": 0, "fuel": 0, "locTime": "2026-06-10T12:29:10+07:00", "statusEngine": "0", "parking": false, "Satwil": "Polresta Surakarta", "_source": "eling_solo", "last_update": "2026-06-10T13:18:05+07:00" }, "geometry": { "type": "Point", "coordinates": [ 110.84805, -7.5566316 ] } },
{ "type": "Feature", "properties": { "vehicleId": 438, "vehicleName": "DAMKAR-15", "nopol": "AD9596PU", "ownerId": 388, "vehicleGroup": "DAMKAR", "merkName": "MITSUBISHI", "tipeName": "Canter", "tahun": "Canter", "imei": "359633108845707", "simcard": "081119315951", "longitude": 110.825865, "speed": 0, "fuel": 0, "locTime": "2026-06-10T10:54:44+07:00", "statusEngine": "0", "parking": false, "Satwil": "Polresta Surakarta", "_source": "eling_solo", "last_update": "2026-06-10T13:18:05+07:00" }, "geometry": { "type": "Point", "coordinates": [ 110.825865, -7.58339 ] } },
{ "type": "Feature", "properties": { "vehicleId": 439, "vehicleName": "DAMKAR-17", "nopol": "AD9590QU", "ownerId": 388, "vehicleGroup": "DAMKAR", "merkName": "MITSUBISHI", "tipeName": "Canter", "tahun": "Canter", "imei": "354017112652546", "simcard": "081119315944", "longitude": 110.8098366, "speed": 0, "fuel": 0, "locTime": "2026-06-10T13:09:16+07:00", "statusEngine": "0", "parking": false, "Satwil": "Polresta Surakarta", "_source": "eling_solo", "last_update": "2026-06-10T13:18:05+07:00" }, "geometry": { "type": "Point", "coordinates": [ 110.8098366, -7.54452 ] } },
{ "type": "Feature", "properties": { "vehicleId": 440, "vehicleName": "DAMKAR-10", "nopol": "AD9563AA", "ownerId": 388, "vehicleGroup": "DAMKAR", "merkName": "MITSUBISHI", "tipeName": "Canter", "tahun": "Canter", "imei": "354017112660994", "simcard": "081119315945", "longitude": 110.8257433, "speed": 0, "fuel": 0, "locTime": "2026-06-10T08:31:15+07:00", "statusEngine": "0", "parking": false, "Satwil": "Polresta Surakarta", "_source": "eling_solo", "last_update": "2026-06-10T13:18:05+07:00" }, "geometry": { "type": "Point", "coordinates": [ 110.8257433, -7.5833833 ] } },
{ "type": "Feature", "properties": { "vehicleId": 441, "vehicleName": "DAMKAR-12", "nopol": "AD9531AU", "ownerId": 388, "vehicleGroup": "DAMKAR", "merkName": "TOYOTA", "tipeName": "Dyna", "tahun": "Dyna", "imei": "354017112645037", "simcard": "081119315946", "longitude": 110.8481433, "speed": 0, "fuel": 0, "locTime": "2025-05-06T09:19:39+07:00", "statusEngine": "0", "parking": false, "Satwil": "Polresta Surakarta", "_source": "eling_solo", "last_update": "2026-06-10T13:18:05+07:00" }, "geometry": { "type": "Point", "coordinates": [ 110.8481433, -7.5563583 ] } },
{ "type": "Feature", "properties": { "vehicleId": 442, "vehicleName": "DAMKAR-9", "nopol": "AD8034XA", "ownerId": 388, "vehicleGroup": "DAMKAR", "merkName": "TOYOTA", "tipeName": "Dyna", "tahun": "Dyna", "imei": "359633108845756", "simcard": "081119315947", "longitude": 110.8096466, "speed": 0, "fuel": 0, "locTime": "2026-06-10T08:12:14+07:00", "statusEngine": "0", "parking": false, "Satwil": "Polresta Surakarta", "_source": "eling_solo", "last_update": "2026-06-10T13:18:05+07:00" }, "geometry": { "type": "Point", "coordinates": [ 110.8096466, -7.54429 ] } },
{ "type": "Feature", "properties": { "vehicleId": 443, "vehicleName": "SATPOLPP-05", "nopol": "AD9582BA", "ownerId": 388, "vehicleGroup": "SATPOLPP", "merkName": "ISUZU", "tipeName": "Panther", "tahun": "Panther", "imei": "354017112651308", "simcard": "081120007586", "longitude": 110.8470016, "speed": 0, "fuel": 0, "locTime": "2026-06-10T13:16:36+07:00", "statusEngine": "1", "parking": true, "Satwil": "Polresta Surakarta", "_source": "eling_solo", "last_update": "2026-06-10T13:18:05+07:00" }, "geometry": { "type": "Point", "coordinates": [ 110.8470016, -7.5550466 ] } },
{ "type": "Feature", "properties": { "vehicleId": 444, "vehicleName": "SATPOLPP-RANGER PATWAL", "nopol": "AD9567AU", "ownerId": 388, "vehicleGroup": "SATPOLPP", "merkName": "MITSUBISHI", "tipeName": "Pajero", "tahun": "Pajero", "imei": "354017112656455", "simcard": "081120007585", "longitude": 110.828835, "speed": 0, "fuel": 0, "locTime": "2026-06-03T08:47:03+07:00", "statusEngine": "0", "parking": false, "Satwil": "Polresta Surakarta", "_source": "eling_solo", "last_update": "2026-06-10T13:18:05+07:00" }, "geometry": { "type": "Point", "coordinates": [ 110.828835, -7.5696716 ] } },
{ "type": "Feature", "properties": { "vehicleId": 445, "vehicleName": "SATPOLPP-APV", "nopol": "AD9504BU", "ownerId": 388, "vehicleGroup": "SATPOLPP", "merkName": "SUZUKI", "tipeName": "APV", "tahun": "APV", "imei": "354017112667833", "simcard": "081120007584", "longitude": 110.8483116, "speed": 0, "fuel": 0, "locTime": "2026-06-10T12:43:27+07:00", "statusEngine": "0", "parking": false, "Satwil": "Polresta Surakarta", "_source": "eling_solo", "last_update": "2026-06-10T13:18:05+07:00" }, "geometry": { "type": "Point", "coordinates": [ 110.848311599999988, -7.555875 ] } },
{ "type": "Feature", "properties": { "vehicleId": 446, "vehicleName": "SATPOLPP-HILUX02", "nopol": "AD9584HU", "ownerId": 388, "vehicleGroup": "SATPOLPP", "merkName": "TOYOTA", "tipeName": "Hilux", "tahun": "Hilux", "imei": "359633108845731", "simcard": "081120007583", "longitude": 110.8482283, "speed": 0, "fuel": 0, "locTime": "2026-06-10T11:24:48+07:00", "statusEngine": "0", "parking": false, "Satwil": "Polresta Surakarta", "_source": "eling_solo", "last_update": "2026-06-10T13:18:05+07:00" }, "geometry": { "type": "Point", "coordinates": [ 110.848228299999988, -7.5560233 ] } },
{ "type": "Feature", "properties": { "vehicleId": 447, "vehicleName": "SATPOLPP-PREGIO", "nopol": "AD72A", "ownerId": 388, "vehicleGroup": "SATPOLPP", "merkName": "KIA", "tipeName": "Carnival", "tahun": "Carnival", "imei": "359633108845632", "simcard": "081120007508", "longitude": 110.8482133, "speed": 0, "fuel": 0, "locTime": "2026-06-10T11:49:57+07:00", "statusEngine": "0", "parking": false, "Satwil": "Polresta Surakarta", "_source": "eling_solo", "last_update": "2026-06-10T13:18:05+07:00" }, "geometry": { "type": "Point", "coordinates": [ 110.8482133, -7.55602 ] } },
{ "type": "Feature", "properties": { "vehicleId": 448, "vehicleName": "BPBD-AMBULANCE", "nopol": "B2138TO", "ownerId": 388, "vehicleGroup": "BPBD", "merkName": "DAIHATSU", "tipeName": "Gran Max", "tahun": "Gran Max", "imei": "354017112645029", "simcard": "081119315948", "longitude": 110.8082033, "speed": 0, "fuel": 0, "locTime": "2026-06-10T08:35:30+07:00", "statusEngine": "0", "parking": false, "Satwil": "Polresta Surakarta", "_source": "eling_solo", "last_update": "2026-06-10T13:18:05+07:00" }, "geometry": { "type": "Point", "coordinates": [ 110.808203299999988, -7.5607666 ] } },
{ "type": "Feature", "properties": { "vehicleId": 449, "vehicleName": "BPBD-RANGER", "nopol": "AD9580HU", "ownerId": 388, "vehicleGroup": "BPBD", "merkName": "FORD", "tipeName": "Ranger", "tahun": "Ranger", "imei": "354017112660374", "simcard": "081119315953", "longitude": 110.8082516, "speed": 0, "fuel": 0, "locTime": "2026-06-10T07:54:15+07:00", "statusEngine": "0", "parking": false, "Satwil": "Polresta Surakarta", "_source": "eling_solo", "last_update": "2026-06-10T13:18:05+07:00" }, "geometry": { "type": "Point", "coordinates": [ 110.8082516, -7.560615 ] } },
{ "type": "Feature", "properties": { "vehicleId": 450, "vehicleName": "SATPOLPP-HILUX01", "nopol": "AD9582HU", "ownerId": 388, "vehicleGroup": "SATPOLPP", "merkName": "TOYOTA", "tipeName": "Hilux", "tahun": "Hilux", "imei": "359633108845657", "simcard": "081120007590", "longitude": 110.8482783, "speed": 0, "fuel": 0, "locTime": "2026-06-10T10:16:33+07:00", "statusEngine": "0", "parking": false, "Satwil": "Polresta Surakarta", "_source": "eling_solo", "last_update": "2026-06-10T13:18:05+07:00" }, "geometry": { "type": "Point", "coordinates": [ 110.8482783, -7.5560266 ] } },
{ "type": "Feature", "properties": { "vehicleId": 451, "vehicleName": "SATPOLPP-KIJANG", "nopol": "AD9581BA", "ownerId": 388, "vehicleGroup": "SATPOLPP", "merkName": "TOYOTA", "tipeName": "Hilux", "tahun": "Hilux", "imei": "359633108845830", "simcard": "081120007589", "longitude": 110.8484833, "speed": 0, "fuel": 0, "locTime": "2026-06-10T12:25:12+07:00", "statusEngine": "0", "parking": false, "Satwil": "Polresta Surakarta", "_source": "eling_solo", "last_update": "2026-06-10T13:18:05+07:00" }, "geometry": { "type": "Point", "coordinates": [ 110.8484833, -7.5560766 ] } },
{ "type": "Feature", "properties": { "vehicleId": 452, "vehicleName": "SATPOLPP-TRUK", "nopol": "AD9530AU", "ownerId": 388, "vehicleGroup": "SATPOLPP", "merkName": "ISUZU", "tipeName": "ELF", "tahun": "ELF", "imei": "354017115303113", "simcard": "081120011103", "longitude": 110.8477516, "speed": 0, "fuel": 0, "locTime": "2026-06-09T15:22:58+07:00", "statusEngine": "0", "parking": false, "Satwil": "Polresta Surakarta", "_source": "eling_solo", "last_update": "2026-06-10T13:18:05+07:00" }, "geometry": { "type": "Point", "coordinates": [ 110.8477516, -7.55592 ] } },
{ "type": "Feature", "properties": { "vehicleId": 453, "vehicleName": "TAA", "nopol": "1611-30", "ownerId": 388, "vehicleGroup": "KORLANTAS", "merkName": "FORD", "tipeName": "Ranger", "tahun": "Ranger", "imei": "359633108831517", "simcard": "081120007591", "longitude": 110.8056233, "speed": 0, "fuel": 0, "locTime": "2026-06-10T11:18:52+07:00", "statusEngine": "0", "parking": false, "Satwil": "Polresta Surakarta", "_source": "eling_solo", "last_update": "2026-06-10T13:18:05+07:00" }, "geometry": { "type": "Point", "coordinates": [ 110.8056233, -7.56455 ] } },
{ "type": "Feature", "properties": { "vehicleId": 454, "vehicleName": "PATWAL 7004", "nopol": "7004", "ownerId": 388, "vehicleGroup": "KORLANTAS", "merkName": "FORD", "tipeName": "Focus", "tahun": "Focus", "imei": "354017112651142", "simcard": "081120007592", "longitude": 110.80982, "speed": 0, "fuel": 0, "locTime": "2026-06-09T20:24:06+07:00", "statusEngine": "0", "parking": false, "Satwil": "Polresta Surakarta", "_source": "eling_solo", "last_update": "2026-06-10T13:18:05+07:00" }, "geometry": { "type": "Point", "coordinates": [ 110.80982, -7.571785 ] } },
{ "type": "Feature", "properties": { "vehicleId": 455, "vehicleName": "SABHARA-K41", "nopol": "1563-30", "ownerId": 388, "vehicleGroup": "KORLANTAS", "merkName": "NISSAN", "tipeName": "Latio", "tahun": "Latio", "imei": "359633108831327", "simcard": "081119315943", "longitude": 110.8143833, "speed": 0, "fuel": 0, "locTime": "2026-06-10T12:12:15+07:00", "statusEngine": "0", "parking": false, "Satwil": "Polresta Surakarta", "_source": "eling_solo", "last_update": "2026-06-10T13:18:05+07:00" }, "geometry": { "type": "Point", "coordinates": [ 110.814383299999989, -7.5656516 ] } },
{ "type": "Feature", "properties": { "vehicleId": 456, "vehicleName": "SABHARA-K42", "nopol": "152-30", "ownerId": 388, "vehicleGroup": "KORLANTAS", "merkName": "NISSAN", "tipeName": "Latio", "tahun": "Latio", "imei": "354017112656398", "simcard": "081119315942", "longitude": 110.8049583, "speed": 0, "fuel": 0, "locTime": "2026-06-09T13:41:02+07:00", "statusEngine": "0", "parking": false, "Satwil": "Polresta Surakarta", "_source": "eling_solo", "last_update": "2026-06-10T13:18:05+07:00" }, "geometry": { "type": "Point", "coordinates": [ 110.8049583, -7.5647533 ] } },
{ "type": "Feature", "properties": { "vehicleId": 457, "vehicleName": "SABHARA-K51", "nopol": "1564-30", "ownerId": 388, "vehicleGroup": "KORLANTAS", "merkName": "NISSAN", "tipeName": "Latio", "tahun": "Latio", "imei": "354017112661133", "simcard": "081119315958", "longitude": 110.8152833, "speed": 0, "fuel": 0, "locTime": "2026-06-10T12:47:59+07:00", "statusEngine": "0", "parking": false, "Satwil": "Polresta Surakarta", "_source": "eling_solo", "last_update": "2026-06-10T13:18:05+07:00" }, "geometry": { "type": "Point", "coordinates": [ 110.8152833, -7.5591616 ] } },
{ "type": "Feature", "properties": { "vehicleId": 458, "vehicleName": "RSUD-NGIPANG-02", "nopol": "AD9590DU", "ownerId": 388, "vehicleGroup": "DINKES", "merkName": "HYUNDAI", "tipeName": "Starex", "tahun": "Starex", "imei": "354017112661067", "simcard": "081119315954", "longitude": 110.8129983, "speed": 0, "fuel": 0, "locTime": "2026-06-10T13:06:29+07:00", "statusEngine": "0", "parking": false, "Satwil": "Polresta Surakarta", "_source": "eling_solo", "last_update": "2026-06-10T13:18:05+07:00" }, "geometry": { "type": "Point", "coordinates": [ 110.8129983, -7.5259233 ] } },
{ "type": "Feature", "properties": { "vehicleId": 459, "vehicleName": "RSUD-NGIPANG-01", "nopol": "AD9585DU", "ownerId": 388, "vehicleGroup": "DINKES", "merkName": "HYUNDAI", "tipeName": "Starex", "tahun": "Starex", "imei": "354017112661141", "simcard": "081119315959", "longitude": 110.8254683, "speed": 40, "fuel": 0, "locTime": "2026-06-10T13:16:42+07:00", "statusEngine": "1", "parking": true, "Satwil": "Polresta Surakarta", "_source": "eling_solo", "last_update": "2026-06-10T13:18:05+07:00" }, "geometry": { "type": "Point", "coordinates": [ 110.8254683, -7.54747 ] } },
{ "type": "Feature", "properties": { "vehicleId": 460, "vehicleName": "RS. DKT SLAMET RIYADI", "nopol": "86015-IV", "ownerId": 388, "vehicleGroup": "DINKES", "merkName": "SUZUKI", "tipeName": "APV", "tahun": "APV", "imei": "354017112667734", "simcard": "081119315960", "longitude": 110.8048316, "speed": 0, "fuel": 0, "locTime": "2026-06-10T12:15:36+07:00", "statusEngine": "0", "parking": false, "Satwil": "Polresta Surakarta", "_source": "eling_solo", "last_update": "2026-06-10T13:18:05+07:00" }, "geometry": { "type": "Point", "coordinates": [ 110.8048316, -7.565305 ] } },
{ "type": "Feature", "properties": { "vehicleId": 461, "vehicleName": "RSUP", "nopol": "AD9585VU", "ownerId": 388, "vehicleGroup": "DINKES", "merkName": "HYUNDAI", "tipeName": "Starex", "tahun": "Starex", "imei": "359633108831319", "simcard": "081119315961", "longitude": 110.7878366, "speed": 0, "fuel": 0, "locTime": "2026-06-10T12:03:23+07:00", "statusEngine": "0", "parking": false, "Satwil": "Polresta Surakarta", "_source": "eling_solo", "last_update": "2026-06-10T13:18:05+07:00" }, "geometry": { "type": "Point", "coordinates": [ 110.7878366, -7.555345 ] } },
{ "type": "Feature", "properties": { "vehicleId": 462, "vehicleName": "RS. HERMINA", "nopol": "AD7101A", "ownerId": 388, "vehicleGroup": "DINKES", "merkName": "TOYOTA", "tipeName": "Hiace", "tahun": "Hiace", "imei": "354017112661125", "simcard": "081119315955", "longitude": 110.8403566, "speed": 0, "fuel": 0, "locTime": "2026-06-10T09:36:54+07:00", "statusEngine": "0", "parking": false, "Satwil": "Polresta Surakarta", "_source": "eling_solo", "last_update": "2026-06-10T13:18:05+07:00" }, "geometry": { "type": "Point", "coordinates": [ 110.8403566, -7.55998 ] } },
{ "type": "Feature", "properties": { "vehicleId": 463, "vehicleName": "RS. Dr. MOEWARDI", "nopol": "AD9588DU", "ownerId": 388, "vehicleGroup": "DINKES", "merkName": "SUZUKI", "tipeName": "APV", "tahun": "APV", "imei": "354017112651290", "simcard": "081120007587", "longitude": 111.32702, "speed": 0, "fuel": 0, "locTime": "2026-06-10T13:12:33+07:00", "statusEngine": "0", "parking": false, "Satwil": "Polresta Surakarta", "_source": "eling_solo", "last_update": "2026-06-10T13:18:05+07:00" }, "geometry": { "type": "Point", "coordinates": [ 111.32702, -6.7020016 ] } },
{ "type": "Feature", "properties": { "vehicleId": 464, "vehicleName": "RS. Dr.OEN", "nopol": "AD9011A", "ownerId": 388, "vehicleGroup": "DINKES", "merkName": "NISSAN", "tipeName": "Evalia", "tahun": "Evalia", "imei": "354017112667981", "simcard": "081119315956", "longitude": 110.83837, "speed": 10, "fuel": 0, "locTime": "2026-06-10T10:45:14+07:00", "statusEngine": "1", "parking": true, "Satwil": "Polresta Surakarta", "_source": "eling_solo", "last_update": "2026-06-10T13:18:05+07:00" }, "geometry": { "type": "Point", "coordinates": [ 110.83837, -7.5549916 ] } },
{ "type": "Feature", "properties": { "vehicleId": 465, "vehicleName": "RS. KASIH IBU", "nopol": "AD8568JA", "ownerId": 388, "vehicleGroup": "DINKES", "merkName": "SUZUKI", "tipeName": "APV", "tahun": "APV", "imei": "354017112667809", "simcard": "081119315957", "longitude": 110.7680266, "speed": 39, "fuel": 0, "locTime": "2026-06-10T13:16:46+07:00", "statusEngine": "1", "parking": true, "Satwil": "Polresta Surakarta", "_source": "eling_solo", "last_update": "2026-06-10T13:18:05+07:00" }, "geometry": { "type": "Point", "coordinates": [ 110.7680266, -7.5653416 ] } },
{ "type": "Feature", "properties": { "vehicleId": 466, "vehicleName": "RSUI KUSTATI", "nopol": "AD9016A", "ownerId": 388, "vehicleGroup": "DINKES", "merkName": "ISUZU", "tipeName": "ELF", "tahun": "ELF", "imei": "354017112282278", "simcard": "081119506982", "longitude": 110.8301433, "speed": 0, "fuel": 0, "locTime": "2026-06-10T12:03:59+07:00", "statusEngine": "0", "parking": false, "Satwil": "Polresta Surakarta", "_source": "eling_solo", "last_update": "2026-06-10T13:18:05+07:00" }, "geometry": { "type": "Point", "coordinates": [ 110.830143299999989, -7.5823466 ] } },
{ "type": "Feature", "properties": { "vehicleId": 467, "vehicleName": "RS. PANTI WALUYO", "nopol": "AD1939HS", "ownerId": 388, "vehicleGroup": "DINKES", "merkName": "MITSUBISHI", "tipeName": "L300", "tahun": "L300", "imei": "354017112652512", "simcard": "081119315952", "longitude": 110.79156, "speed": 0, "fuel": 0, "locTime": "2026-06-10T11:27:53+07:00", "statusEngine": "0", "parking": false, "Satwil": "Polresta Surakarta", "_source": "eling_solo", "last_update": "2026-06-10T13:18:05+07:00" }, "geometry": { "type": "Point", "coordinates": [ 110.79156, -7.5592666 ] } },
{ "type": "Feature", "properties": { "vehicleId": 468, "vehicleName": "RS. PKU MUHAMMADIYAH", "nopol": "AD1244JU", "ownerId": 388, "vehicleGroup": "DINKES", "merkName": "TOYOTA", "tipeName": "Hiace", "tahun": "Hiace", "imei": "354017112645268", "simcard": "081119315949", "longitude": 110.8166566, "speed": 6, "fuel": 0, "locTime": "2026-06-09T21:41:55+07:00", "statusEngine": "1", "parking": true, "Satwil": "Polresta Surakarta", "_source": "eling_solo", "last_update": "2026-06-10T13:18:05+07:00" }, "geometry": { "type": "Point", "coordinates": [ 110.8166566, -7.5656583 ] } },
{ "type": "Feature", "properties": { "vehicleId": 469, "vehicleName": "RS. BRAYAT MINULYA", "nopol": "AD1964BU", "ownerId": 388, "vehicleGroup": "DINKES", "merkName": "MITSUBISHI", "tipeName": "L300", "tahun": "L300", "imei": "354017112652439", "simcard": "081119315950", "longitude": 110.814725, "speed": 0, "fuel": 0, "locTime": "2026-06-08T13:34:23+07:00", "statusEngine": "1", "parking": true, "Satwil": "Polresta Surakarta", "_source": "eling_solo", "last_update": "2026-06-10T13:18:05+07:00" }, "geometry": { "type": "Point", "coordinates": [ 110.814725, -7.5524333 ] } },
{ "type": "Feature", "properties": { "vehicleId": 470, "vehicleName": "SATPOLPP-03", "nopol": "AD9583BA", "ownerId": 388, "vehicleGroup": "SATPOLPP", "merkName": "ISUZU", "tipeName": "Panther", "tahun": "Panther", "imei": "354017112651209", "simcard": "081119603851", "longitude": 110.8483066, "speed": 0, "fuel": 0, "locTime": "2026-06-10T10:15:26+07:00", "statusEngine": "0", "parking": false, "Satwil": "Polresta Surakarta", "_source": "eling_solo", "last_update": "2026-06-10T13:18:05+07:00" }, "geometry": { "type": "Point", "coordinates": [ 110.8483066, -7.5560366 ] } },
{ "type": "Feature", "properties": { "vehicleId": 3532, "vehicleName": "PEMADAM KEBAKARAN", "nopol": "AB 9054 DE", "ownerId": 388, "vehicleGroup": "DAMKAR", "merkName": "HINO", "tipeName": "Dutro", "tahun": "Dutro", "imei": "863719063846001", "simcard": "081120041228", "longitude": 110.3558649, "speed": 0, "fuel": 0, "locTime": "2026-06-10T08:35:39+07:00", "statusEngine": "0", "parking": false, "Satwil": "Polda DI Yogyakarta", "_source": "eling_jogja", "last_update": "2026-06-10T13:18:05+07:00" }, "geometry": { "type": "Point", "coordinates": [ 110.3558649, -7.7177516 ] } },
{ "type": "Feature", "properties": { "vehicleId": 3533, "vehicleName": "AMBULANS", "nopol": "AB 9013 CE", "ownerId": 388, "vehicleGroup": "DINKES", "merkName": "HYUNDAI", "tipeName": "Starex", "tahun": "Starex", "imei": "863719063845615", "simcard": "081120041229", "longitude": 110.3580666, "speed": 0, "fuel": 0, "locTime": "2026-06-10T13:16:47+07:00", "statusEngine": "1", "parking": true, "Satwil": "Polda DI Yogyakarta", "_source": "eling_jogja", "last_update": "2026-06-10T13:18:05+07:00" }, "geometry": { "type": "Point", "coordinates": [ 110.3580666, -7.70957 ] } },
{ "type": "Feature", "properties": { "vehicleId": 3534, "vehicleName": "MOBIL POLRES", "nopol": "1114-32", "ownerId": 388, "vehicleGroup": "KORLANTAS", "merkName": "ISUZU", "tipeName": "D-MAX", "tahun": "D-MAX", "imei": "863719063846076", "simcard": "081120041230", "longitude": 110.3621099, "speed": 0, "fuel": 0, "locTime": "2026-06-10T10:30:35+07:00", "statusEngine": "0", "parking": false, "Satwil": "Polda DI Yogyakarta", "_source": "eling_jogja", "last_update": "2026-06-10T13:18:05+07:00" }, "geometry": { "type": "Point", "coordinates": [ 110.3621099, -7.748835 ] } },
{ "type": "Feature", "properties": { "vehicleId": 3535, "vehicleName": "MOBIL POLRES", "nopol": "104-32", "ownerId": 388, "vehicleGroup": "KORLANTAS", "merkName": "MITSUBISHI", "tipeName": "Lancer", "tahun": "Lancer", "imei": "863719063845995", "simcard": "081120041231", "longitude": 110.3467666, "speed": 0, "fuel": 0, "locTime": "2026-06-09T18:22:58+07:00", "statusEngine": "0", "parking": false, "Satwil": "Polda DI Yogyakarta", "_source": "eling_jogja", "last_update": "2026-06-10T13:18:05+07:00" }, "geometry": { "type": "Point", "coordinates": [ 110.3467666, -7.6970816 ] } },
{ "type": "Feature", "properties": { "vehicleId": 3536, "vehicleName": "PEMADAM KEBAKARAN", "nopol": "AB 9039 AI", "ownerId": 388, "vehicleGroup": "DAMKAR", "merkName": "MITSUBISHI", "tipeName": "Canter", "tahun": "Canter", "imei": "863719063845623", "simcard": "081120041232", "longitude": 110.3551983, "speed": 0, "fuel": 0, "locTime": "2026-06-10T07:57:25+07:00", "statusEngine": "0", "parking": false, "Satwil": "Polda DI Yogyakarta", "_source": "eling_jogja", "last_update": "2026-06-10T13:18:05+07:00" }, "geometry": { "type": "Point", "coordinates": [ 110.3551983, -7.7820666 ] } },
{ "type": "Feature", "properties": { "vehicleId": 3537, "vehicleName": "AMBULANS", "nopol": "AB 9110 UA", "ownerId": 388, "vehicleGroup": "DINKES", "merkName": "HYUNDAI", "tipeName": "Starex", "tahun": "Starex", "imei": "863719063844154", "simcard": "081181418101", "longitude": 110.3919966, "speed": 0, "fuel": 0, "locTime": "2026-06-09T11:24:52+07:00", "statusEngine": "0", "parking": false, "Satwil": "Polda DI Yogyakarta", "_source": "eling_jogja", "last_update": "2026-06-10T13:18:05+07:00" }, "geometry": { "type": "Point", "coordinates": [ 110.3919966, -7.8004233 ] } },
{ "type": "Feature", "properties": { "vehicleId": 3538, "vehicleName": "MOBIL DEREK", "nopol": "AB 9086 UA", "ownerId": 388, "vehicleGroup": "KORLANTAS", "merkName": "HINO", "tipeName": "Dutro", "tahun": "Dutro", "imei": "863719063845672", "simcard": "081120041235", "longitude": 110.391685, "speed": 0, "fuel": 0, "locTime": "2026-06-10T12:09:38+07:00", "statusEngine": "0", "parking": false, "Satwil": "Polda DI Yogyakarta", "_source": "eling_jogja", "last_update": "2026-06-10T13:18:05+07:00" }, "geometry": { "type": "Point", "coordinates": [ 110.391685, -7.8337066 ] } },
{ "type": "Feature", "properties": { "vehicleId": 3539, "vehicleName": "MOBIL POLRES", "nopol": "1117-28", "ownerId": 388, "vehicleGroup": "KORLANTAS", "merkName": "TOYOTA", "tipeName": "Hilux", "tahun": "Hilux", "imei": "863719063846050", "simcard": "081120041236", "longitude": 110.374845, "speed": 0, "fuel": 0, "locTime": "2026-06-07T22:49:57+07:00", "statusEngine": "0", "parking": false, "Satwil": "Polda DI Yogyakarta", "_source": "eling_jogja", "last_update": "2026-06-10T13:18:05+07:00" }, "geometry": { "type": "Point", "coordinates": [ 110.374845, -7.7828433 ] } },
{ "type": "Feature", "properties": { "vehicleId": 3540, "vehicleName": "PEMADAM KEBAKARAN", "nopol": "AB 8007 WI", "ownerId": 388, "vehicleGroup": "DAMKAR", "merkName": "MITSUBISHI", "tipeName": "Canter", "tahun": "Canter", "imei": "863719063845656", "simcard": "081120041237", "longitude": 110.58048, "speed": 0, "fuel": 0, "locTime": "2026-06-10T10:45:14+07:00", "statusEngine": "0", "parking": false, "Satwil": "Polda DI Yogyakarta", "_source": "eling_jogja", "last_update": "2026-06-10T13:18:05+07:00" }, "geometry": { "type": "Point", "coordinates": [ 110.58048, -7.9714433 ] } },
{ "type": "Feature", "properties": { "vehicleId": 3541, "vehicleName": "AMBULANS", "nopol": "AB 9008 AD", "ownerId": 388, "vehicleGroup": "DINKES", "merkName": "TOYOTA", "tipeName": "Hiace", "tahun": "Hiace", "imei": "863719063845714", "simcard": "081120041238", "longitude": 110.5815333, "speed": 6, "fuel": 0, "locTime": "2024-07-06T07:06:29+07:00", "statusEngine": "1", "parking": true, "Satwil": "Polda DI Yogyakarta", "_source": "eling_jogja", "last_update": "2026-06-10T13:18:05+07:00" }, "geometry": { "type": "Point", "coordinates": [ 110.5815333, -7.9704883 ] } },
{ "type": "Feature", "properties": { "vehicleId": 3542, "vehicleName": "MOBIL POLRES", "nopol": "1162-31", "ownerId": 388, "vehicleGroup": "KORLANTAS", "merkName": "MAZDA", "tipeName": "6", "tahun": "6", "imei": "863719063845698", "simcard": "081120041239", "longitude": 110.6065649, "speed": 0, "fuel": 0, "locTime": "2026-06-05T17:34:51.01+07:00", "statusEngine": "0", "parking": false, "Satwil": "Polda DI Yogyakarta", "_source": "eling_jogja", "last_update": "2026-06-10T13:18:05+07:00" }, "geometry": { "type": "Point", "coordinates": [ 110.6065649, -7.9705783 ] } },
{ "type": "Feature", "properties": { "vehicleId": 3544, "vehicleName": "DAMKAR", "nopol": "AB 9005 UL", "ownerId": 388, "vehicleGroup": "DAMKAR", "merkName": "HINO", "tipeName": "Ranger", "tahun": "Ranger", "imei": "863719063845912", "simcard": "081120041241", "longitude": 110.1424733, "speed": 24, "fuel": 0, "locTime": "2026-06-10T13:16:36+07:00", "statusEngine": "1", "parking": true, "Satwil": "Polda DI Yogyakarta", "_source": "eling_jogja", "last_update": "2026-06-10T13:18:05+07:00" }, "geometry": { "type": "Point", "coordinates": [ 110.1424733, -7.8705733 ] } },
{ "type": "Feature", "properties": { "vehicleId": 3545, "vehicleName": "DINKES", "nopol": "AB 9035 UL ", "ownerId": 388, "vehicleGroup": "DINKES", "merkName": "HYUNDAI", "tipeName": "Starex", "tahun": "Starex", "imei": "863719063846035", "simcard": "081120041242", "longitude": 110.32338, "speed": 0, "fuel": 0, "locTime": "2026-06-10T08:37:54+07:00", "statusEngine": "0", "parking": false, "Satwil": "Polda DI Yogyakarta", "_source": "eling_jogja", "last_update": "2026-06-10T13:18:05+07:00" }, "geometry": { "type": "Point", "coordinates": [ 110.32338, -7.7835733 ] } },
{ "type": "Feature", "properties": { "vehicleId": 3546, "vehicleName": "KORLANTAS", "nopol": "1177-30", "ownerId": 388, "vehicleGroup": "KORLANTAS", "merkName": "ISUZU", "tipeName": "D-MAX", "tahun": "D-MAX", "imei": "863719063846043", "simcard": "081120041243", "longitude": 110.425, "speed": 0, "fuel": 0, "locTime": "2026-06-10T11:52:14+07:00", "statusEngine": "0", "parking": false, "Satwil": "Polda DI Yogyakarta", "_source": "eling_jogja", "last_update": "2026-06-10T13:18:05+07:00" }, "geometry": { "type": "Point", "coordinates": [ 110.425, -7.8589683 ] } },
{ "type": "Feature", "properties": { "vehicleId": 3547, "vehicleName": "KORLANTAS", "nopol": "1141-30", "ownerId": 388, "vehicleGroup": "KORLANTAS", "merkName": "FORD", "tipeName": "Ranger", "tahun": "Ranger", "imei": "863719063844097", "simcard": "081120041244", "longitude": 110.1759966, "speed": 0, "fuel": 0, "locTime": "2026-06-10T09:06:52+07:00", "statusEngine": "0", "parking": false, "Satwil": "Polda DI Yogyakarta", "_source": "eling_jogja", "last_update": "2026-06-10T13:18:05+07:00" }, "geometry": { "type": "Point", "coordinates": [ 110.1759966, -7.8657633 ] } },
{ "type": "Feature", "properties": { "vehicleId": 3548, "vehicleName": "KORLANTAS", "nopol": "1124-29", "ownerId": 388, "vehicleGroup": "KORLANTAS", "merkName": "FORD", "tipeName": "Ranger", "tahun": "Ranger", "imei": "863719063844014", "simcard": "081120041245", "longitude": 110.32707, "speed": 0, "fuel": 0, "locTime": "2026-06-05T16:07:20+07:00", "statusEngine": "0", "parking": false, "Satwil": "Polda DI Yogyakarta", "_source": "eling_jogja", "last_update": "2026-06-10T13:18:05+07:00" }, "geometry": { "type": "Point", "coordinates": [ 110.32707, -7.8902516 ] } },
{ "type": "Feature", "properties": { "vehicleId": 3549, "vehicleName": "DAMKAR", "nopol": "AB 9011 UB", "ownerId": 388, "vehicleGroup": "DAMKAR", "merkName": "HINO", "tipeName": "Dutro", "tahun": "Dutro", "imei": "863719063844089", "simcard": "081120041246", "longitude": 110.33588, "speed": 0, "fuel": 0, "locTime": "2026-06-10T10:54:05+07:00", "statusEngine": "0", "parking": false, "Satwil": "Polda DI Yogyakarta", "_source": "eling_jogja", "last_update": "2026-06-10T13:18:05+07:00" }, "geometry": { "type": "Point", "coordinates": [ 110.33588, -7.8293833 ] } },
{ "type": "Feature", "properties": { "vehicleId": 3550, "vehicleName": "DINKES", "nopol": "AB 9008 BI", "ownerId": 388, "vehicleGroup": "DINKES", "merkName": "TOYOTA", "tipeName": "Hiace", "tahun": "Hiace", "imei": "863719063844022", "simcard": "081120041247", "longitude": 110.0918166, "speed": 52, "fuel": 0, "locTime": "2026-06-10T13:16:44+07:00", "statusEngine": "1", "parking": true, "Satwil": "Polda DI Yogyakarta", "_source": "eling_jogja", "last_update": "2026-06-10T13:18:05+07:00" }, "geometry": { "type": "Point", "coordinates": [ 110.0918166, -7.8880216 ] } },
{ "type": "Feature", "properties": { "vehicleId": 3551, "vehicleName": "MOBIL POLRES", "nopol": "1143-29", "ownerId": 388, "vehicleGroup": "KORLANTAS", "merkName": "ISUZU", "tipeName": "D-MAX", "tahun": "D-MAX", "imei": "863719063846019", "simcard": "081120041248", "longitude": 110.3540166, "speed": 0, "fuel": 0, "locTime": "2026-06-10T02:20:59+07:00", "statusEngine": "0", "parking": false, "Satwil": "Polda DI Yogyakarta", "_source": "eling_jogja", "last_update": "2026-06-10T13:18:05+07:00" }, "geometry": { "type": "Point", "coordinates": [ 110.3540166, -7.8278616 ] } },
{ "type": "Feature", "properties": { "vehicleId": 3619, "vehicleName": "PEMADAM KEBAKARAN", "nopol": "AB 9102 AX", "ownerId": 388, "vehicleGroup": "DAMKAR", "merkName": "MITSUBISHI", "tipeName": "Fuso", "tahun": "Fuso", "imei": "863719067131236", "simcard": "081181418099", "longitude": 110.3919883, "speed": 0, "fuel": 0, "locTime": "2026-06-10T13:16:18+07:00", "statusEngine": "1", "parking": true, "Satwil": "Polda DI Yogyakarta", "_source": "eling_jogja", "last_update": "2026-06-10T13:18:05+07:00" }, "geometry": { "type": "Point", "coordinates": [ 110.3919883, -7.8011833 ] } },
{ "type": "Feature", "properties": { "vehicleId": 3623, "vehicleName": "MOBIL RESCUE", "nopol": "AB 9066 UA", "ownerId": 388, "vehicleGroup": "DAMKAR", "merkName": "ISUZU", "tipeName": "ELF", "tahun": "ELF", "imei": "863719066801904", "simcard": "085123297079", "longitude": 0.0, "speed": 0, "fuel": 0, "locTime": "", "statusEngine": "", "parking": true, "Satwil": "Polda DI Yogyakarta", "_source": "eling_jogja", "last_update": "2026-06-10T13:18:05+07:00" }, "geometry": { "type": "Point", "coordinates": [ 0.0, 0.0 ] } },
{ "type": "Feature", "properties": { "vehicleId": 3628, "vehicleName": "PEMADAM KEBAKARAN", "nopol": "AB 9082 UA", "ownerId": 388, "vehicleGroup": "DAMKAR", "merkName": "HINO", "tipeName": "Dutro", "tahun": "Dutro", "imei": "863719066823486", "simcard": "081181418100", "longitude": 110.35504, "speed": 0, "fuel": 0, "locTime": "2026-06-10T08:05:04+07:00", "statusEngine": "0", "parking": false, "Satwil": "Polda DI Yogyakarta", "_source": "eling_jogja", "last_update": "2026-06-10T13:18:05+07:00" }, "geometry": { "type": "Point", "coordinates": [ 110.35504, -7.7820466 ] } },
{ "type": "Feature", "properties": { "vehicleId": 3629, "vehicleName": "PEMADAM KEBAKARAN", "nopol": "AB 9083 UA", "ownerId": 388, "vehicleGroup": "DAMKAR", "merkName": "HINO", "tipeName": "Dutro", "tahun": "Dutro", "imei": "863719067048604", "simcard": "081181418097", "longitude": 110.3550066, "speed": 0, "fuel": 0, "locTime": "2026-06-10T08:07:42+07:00", "statusEngine": "0", "parking": false, "Satwil": "Polda DI Yogyakarta", "_source": "eling_jogja", "last_update": "2026-06-10T13:18:05+07:00" }, "geometry": { "type": "Point", "coordinates": [ 110.3550066, -7.782085 ] } },
{ "type": "Feature", "properties": { "vehicleId": 3648, "vehicleName": "KLX D-TRACKER", "nopol": "14301-XXIV", "ownerId": 388, "vehicleGroup": "KORLANTAS", "merkName": "KAWASAKI MOTOR", "tipeName": "KLX", "tahun": "KLX", "imei": "863719067176371", "simcard": "081181418449", "longitude": 110.4203, "speed": 0, "fuel": 0, "locTime": "2026-04-02T19:19:27+07:00", "statusEngine": "0", "parking": false, "Satwil": "Polda DI Yogyakarta", "_source": "eling_jogja", "last_update": "2026-06-10T13:18:05+07:00" }, "geometry": { "type": "Point", "coordinates": [ 110.4203, -7.7542366 ] } },
{ "type": "Feature", "properties": { "vehicleId": 3649, "vehicleName": "KLX D-TRACKER", "nopol": "14296-XXIV", "ownerId": 388, "vehicleGroup": "KORLANTAS", "merkName": "KAWASAKI MOTOR", "tipeName": "KLX", "tahun": "KLX", "imei": "863719066813917", "simcard": "081181418464", "longitude": 110.400125, "speed": 0, "fuel": 0, "locTime": "2026-04-16T18:01:58+07:00", "statusEngine": "0", "parking": false, "Satwil": "Polda DI Yogyakarta", "_source": "eling_jogja", "last_update": "2026-06-10T13:18:05+07:00" }, "geometry": { "type": "Point", "coordinates": [ 110.400125, -7.7567616 ] } },
{ "type": "Feature", "properties": { "vehicleId": 3650, "vehicleName": "KLX D-TRACKER", "nopol": "14269-XXIV", "ownerId": 388, "vehicleGroup": "KORLANTAS", "merkName": "YAMAHA MOTOR", "tipeName": "V-Ixion R", "tahun": "V-Ixion R", "imei": "863719067177353", "simcard": "081181418457", "longitude": 110.4003283, "speed": 0, "fuel": 0, "locTime": "2026-03-20T20:45:34+07:00", "statusEngine": "0", "parking": false, "Satwil": "Polda DI Yogyakarta", "_source": "eling_jogja", "last_update": "2026-06-10T13:18:05+07:00" }, "geometry": { "type": "Point", "coordinates": [ 110.4003283, -7.7569166 ] } },
{ "type": "Feature", "properties": { "vehicleId": 3651, "vehicleName": "KLX D-TRACKER", "nopol": "14292-XXIV", "ownerId": 388, "vehicleGroup": "KORLANTAS", "merkName": "KAWASAKI MOTOR", "tipeName": "KLX", "tahun": "KLX", "imei": "863719067048570", "simcard": "081181418451", "longitude": 110.4005666, "speed": 0, "fuel": 0, "locTime": "2026-03-30T23:21:36+07:00", "statusEngine": "0", "parking": false, "Satwil": "Polda DI Yogyakarta", "_source": "eling_jogja", "last_update": "2026-06-10T13:18:05+07:00" }, "geometry": { "type": "Point", "coordinates": [ 110.4005666, -7.756785 ] } },
{ "type": "Feature", "properties": { "vehicleId": 3652, "vehicleName": "KLX D-TRACKER", "nopol": "14288-XXIV", "ownerId": 388, "vehicleGroup": "KORLANTAS", "merkName": "KAWASAKI MOTOR", "tipeName": "KLX", "tahun": "KLX", "imei": "863719067176322", "simcard": "081181418462", "longitude": 110.4005516, "speed": 0, "fuel": 0, "locTime": "2026-03-30T23:26:21+07:00", "statusEngine": "0", "parking": false, "Satwil": "Polda DI Yogyakarta", "_source": "eling_jogja", "last_update": "2026-06-10T13:18:05+07:00" }, "geometry": { "type": "Point", "coordinates": [ 110.4005516, -7.7567916 ] } },
{ "type": "Feature", "properties": { "vehicleId": 3653, "vehicleName": "MOBIL POLRES", "nopol": "1114-28", "ownerId": 388, "vehicleGroup": "KORLANTAS", "merkName": "MITSUBISHI", "tipeName": "L300", "tahun": "L300", "imei": "863719067176355", "simcard": "081181418453", "longitude": 110.3598833, "speed": 0, "fuel": 0, "locTime": "2026-06-10T13:12:17+07:00", "statusEngine": "0", "parking": false, "Satwil": "Polda DI Yogyakarta", "_source": "eling_jogja", "last_update": "2026-06-10T13:18:05+07:00" }, "geometry": { "type": "Point", "coordinates": [ 110.3598833, -7.7830083 ] } },
{ "type": "Feature", "properties": { "vehicleId": 3654, "vehicleName": "AMBULANS", "nopol": "AB 9025 HK", "ownerId": 388, "vehicleGroup": "DINKES", "merkName": "TOYOTA", "tipeName": "Hiace", "tahun": "Hiace", "imei": "863719067049800", "simcard": "081181418450", "longitude": 110.3925383, "speed": 0, "fuel": 0, "locTime": "2026-06-10T12:20:48+07:00", "statusEngine": "0", "parking": false, "Satwil": "Polda DI Yogyakarta", "_source": "eling_jogja", "last_update": "2026-06-10T13:18:05+07:00" }, "geometry": { "type": "Point", "coordinates": [ 110.3925383, -7.8254483 ] } },
{ "type": "Feature", "properties": { "vehicleId": 3655, "vehicleName": "AMBULANS", "nopol": "AB 9073 AA", "ownerId": 388, "vehicleGroup": "DINKES", "merkName": "SUZUKI", "tipeName": "APV", "tahun": "APV", "imei": "863719067176298", "simcard": "081181418092", "longitude": 110.2367016, "speed": 0, "fuel": 0, "locTime": "2026-06-10T13:16:21+07:00", "statusEngine": "1", "parking": true, "Satwil": "Polda DI Yogyakarta", "_source": "eling_jogja", "last_update": "2026-06-10T13:18:05+07:00" }, "geometry": { "type": "Point", "coordinates": [ 110.236701599999989, -7.8065 ] } },
{ "type": "Feature", "properties": { "vehicleId": 3656, "vehicleName": "DINKES", "nopol": "AB 9040 BB", "ownerId": 388, "vehicleGroup": "DINKES", "merkName": "MITSUBISHI", "tipeName": "L300", "tahun": "L300", "imei": "863719067049818", "simcard": "081181418452", "longitude": 110.323255, "speed": 0, "fuel": 0, "locTime": "2026-06-09T11:27:03+07:00", "statusEngine": "0", "parking": false, "Satwil": "Polda DI Yogyakarta", "_source": "eling_jogja", "last_update": "2026-06-10T13:18:05+07:00" }, "geometry": { "type": "Point", "coordinates": [ 110.323255, -7.8608133 ] } },
{ "type": "Feature", "properties": { "vehicleId": 3657, "vehicleName": "DINKES", "nopol": "AB 9054 WK", "ownerId": 388, "vehicleGroup": "DINKES", "merkName": "MITSUBISHI", "tipeName": "L300", "tahun": "L300", "imei": "863719067048919", "simcard": "081181418454", "longitude": 110.3403333, "speed": 47, "fuel": 0, "locTime": "2026-06-10T13:16:43+07:00", "statusEngine": "1", "parking": true, "Satwil": "Polda DI Yogyakarta", "_source": "eling_jogja", "last_update": "2026-06-10T13:18:05+07:00" }, "geometry": { "type": "Point", "coordinates": [ 110.3403333, -7.8812233 ] } },
{ "type": "Feature", "properties": { "vehicleId": 3658, "vehicleName": "KORLANTAS", "nopol": "1179-29", "ownerId": 388, "vehicleGroup": "KORLANTAS", "merkName": "KIA", "tipeName": "Picanto", "tahun": "Picanto", "imei": "863719067106527", "simcard": "081181418461", "longitude": 110.3917833, "speed": 0, "fuel": 0, "locTime": "2026-06-10T12:45:03+07:00", "statusEngine": "0", "parking": false, "Satwil": "Polda DI Yogyakarta", "_source": "eling_jogja", "last_update": "2026-06-10T13:18:05+07:00" }, "geometry": { "type": "Point", "coordinates": [ 110.3917833, -7.8368683 ] } },
{ "type": "Feature", "properties": { "vehicleId": 3659, "vehicleName": "AMBULANS", "nopol": "AB 9151 E", "ownerId": 388, "vehicleGroup": "DINKES", "merkName": "SUZUKI", "tipeName": "APV", "tahun": "APV", "imei": "863719066797011", "simcard": "081181418459", "longitude": 110.3476633, "speed": 0, "fuel": 0, "locTime": "2026-06-10T13:08:02+07:00", "statusEngine": "0", "parking": false, "Satwil": "Polda DI Yogyakarta", "_source": "eling_jogja", "last_update": "2026-06-10T13:18:05+07:00" }, "geometry": { "type": "Point", "coordinates": [ 110.3476633, -7.7059016 ] } },
{ "type": "Feature", "properties": { "vehicleId": 3660, "vehicleName": "AMBULANS", "nopol": "AB 9068 DE", "ownerId": 388, "vehicleGroup": "DINKES", "merkName": "TOYOTA", "tipeName": "Hiace", "tahun": "Hiace", "imei": "863719066813297", "simcard": "081181418093", "longitude": 110.3475466, "speed": 0, "fuel": 0, "locTime": "2026-06-10T12:12:46+07:00", "statusEngine": "0", "parking": false, "Satwil": "Polda DI Yogyakarta", "_source": "eling_jogja", "last_update": "2026-06-10T13:18:05+07:00" }, "geometry": { "type": "Point", "coordinates": [ 110.3475466, -7.7063466 ] } },
{ "type": "Feature", "properties": { "vehicleId": 3661, "vehicleName": "KORLANTAS", "nopol": "109-30", "ownerId": 388, "vehicleGroup": "KORLANTAS", "merkName": "HYUNDAI", "tipeName": "Starex", "tahun": "Starex", "imei": "863719067049693", "simcard": "081181418447", "longitude": 110.1622083, "speed": 31, "fuel": 0, "locTime": "2026-06-10T13:16:48+07:00", "statusEngine": "1", "parking": true, "Satwil": "Polda DI Yogyakarta", "_source": "eling_jogja", "last_update": "2026-06-10T13:18:05+07:00" }, "geometry": { "type": "Point", "coordinates": [ 110.162208299999989, -7.8558216 ] } },
{ "type": "Feature", "properties": { "vehicleId": 3662, "vehicleName": "AMBULANS", "nopol": "AB 9041 E", "ownerId": 388, "vehicleGroup": "DINKES", "merkName": "MITSUBISHI", "tipeName": "L300", "tahun": "L300", "imei": "863719066813412", "simcard": "081181418463", "longitude": 110.3478433, "speed": 6, "fuel": 0, "locTime": "2026-06-10T13:10:58+07:00", "statusEngine": "1", "parking": true, "Satwil": "Polda DI Yogyakarta", "_source": "eling_jogja", "last_update": "2026-06-10T13:18:05+07:00" }, "geometry": { "type": "Point", "coordinates": [ 110.3478433, -7.7058633 ] } },
{ "type": "Feature", "properties": { "vehicleId": 3663, "vehicleName": "AMBULANS ROTARY", "nopol": "AB 9999 Y", "ownerId": 388, "vehicleGroup": "DINKES", "merkName": "TOYOTA", "tipeName": "Hiace", "tahun": "Hiace", "imei": "863719067106816", "simcard": "081181418091", "longitude": 110.3291716, "speed": 0, "fuel": 0, "locTime": "2026-06-10T12:13:27+07:00", "statusEngine": "0", "parking": false, "Satwil": "Polda DI Yogyakarta", "_source": "eling_jogja", "last_update": "2026-06-10T13:18:05+07:00" }, "geometry": { "type": "Point", "coordinates": [ 110.3291716, -7.7993166 ] } },
{ "type": "Feature", "properties": { "vehicleId": 3664, "vehicleName": "AMBULANS", "nopol": "AB 9406 SE", "ownerId": 388, "vehicleGroup": "DINKES", "merkName": "SUZUKI", "tipeName": "APV", "tahun": "APV", "imei": "863719067176488", "simcard": "081181418448", "longitude": 110.3292949, "speed": 0, "fuel": 0, "locTime": "2026-03-25T17:59:03+07:00", "statusEngine": "0", "parking": false, "Satwil": "Polda DI Yogyakarta", "_source": "eling_jogja", "last_update": "2026-06-10T13:18:05+07:00" }, "geometry": { "type": "Point", "coordinates": [ 110.3292949, -7.7993416 ] } },
{ "type": "Feature", "properties": { "vehicleId": 3665, "vehicleName": "AMBULANS PEGADAIAN", "nopol": "AB 9101 E", "ownerId": 388, "vehicleGroup": "DINKES", "merkName": "TOYOTA", "tipeName": "Hiace", "tahun": "Hiace", "imei": "863719066813768", "simcard": "081181418456", "longitude": 110.3290966, "speed": 0, "fuel": 0, "locTime": "2026-06-10T12:21:22+07:00", "statusEngine": "0", "parking": false, "Satwil": "Polda DI Yogyakarta", "_source": "eling_jogja", "last_update": "2026-06-10T13:18:05+07:00" }, "geometry": { "type": "Point", "coordinates": [ 110.3290966, -7.7993266 ] } },
{ "type": "Feature", "properties": { "vehicleId": 3666, "vehicleName": "MOBIL POLRES", "nopol": "1184-31", "ownerId": 388, "vehicleGroup": "KORLANTAS", "merkName": "ISUZU", "tipeName": "D-MAX", "tahun": "D-MAX", "imei": "863719063845987", "simcard": "081181418095", "longitude": 110.6046183, "speed": 0, "fuel": 0, "locTime": "2026-06-10T11:25:04+07:00", "statusEngine": "0", "parking": false, "Satwil": "Polda DI Yogyakarta", "_source": "eling_jogja", "last_update": "2026-06-10T13:18:05+07:00" }, "geometry": { "type": "Point", "coordinates": [ 110.6046183, -7.9697666 ] } },
{ "type": "Feature", "properties": { "vehicleId": 3667, "vehicleName": "MOBIL POLRES", "nopol": "1169-31", "ownerId": 388, "vehicleGroup": "KORLANTAS", "merkName": "ISUZU", "tipeName": "D-MAX", "tahun": "D-MAX", "imei": "863719067176280", "simcard": "081181418460", "longitude": 110.6047366, "speed": 0, "fuel": 0, "locTime": "2026-06-10T12:33:24+07:00", "statusEngine": "0", "parking": false, "Satwil": "Polda DI Yogyakarta", "_source": "eling_jogja", "last_update": "2026-06-10T13:18:05+07:00" }, "geometry": { "type": "Point", "coordinates": [ 110.6047366, -7.9698783 ] } },
{ "type": "Feature", "properties": { "vehicleId": 3668, "vehicleName": "MOBIL POLRES", "nopol": "1182-32", "ownerId": 388, "vehicleGroup": "KORLANTAS", "merkName": "HYUNDAI", "tipeName": "Starex", "tahun": "Starex", "imei": "863719067166232", "simcard": "081181418455", "longitude": 110.362075, "speed": 0, "fuel": 0, "locTime": "2026-06-10T13:14:38+07:00", "statusEngine": "1", "parking": true, "Satwil": "Polda DI Yogyakarta", "_source": "eling_jogja", "last_update": "2026-06-10T13:18:05+07:00" }, "geometry": { "type": "Point", "coordinates": [ 110.362075, -7.7488816 ] } },
{ "type": "Feature", "properties": { "vehicleId": 3669, "vehicleName": "MOBIL RESCUE", "nopol": "AB 9016 UA", "ownerId": 388, "vehicleGroup": "DAMKAR", "merkName": "MITSUBISHI", "tipeName": "L300", "tahun": "L300", "imei": "863719067131244", "simcard": "081181418098", "longitude": 110.355165, "speed": 0, "fuel": 0, "locTime": "2026-06-10T13:03:41+07:00", "statusEngine": "0", "parking": false, "Satwil": "Polda DI Yogyakarta", "_source": "eling_jogja", "last_update": "2026-06-10T13:18:05+07:00" }, "geometry": { "type": "Point", "coordinates": [ 110.355165, -7.78201 ] } },
{ "type": "Feature", "properties": { "vehicleId": 3670, "vehicleName": "PEMADAM KEBAKARAN", "nopol": "AB 9044 UA", "ownerId": 388, "vehicleGroup": "DAMKAR", "merkName": "HINO", "tipeName": "Dutro", "tahun": "Dutro", "imei": "863719067053414", "simcard": "081181418103", "longitude": 110.3919483, "speed": 0, "fuel": 0, "locTime": "2026-06-10T04:50:37+07:00", "statusEngine": "0", "parking": false, "Satwil": "Polda DI Yogyakarta", "_source": "eling_jogja", "last_update": "2026-06-10T13:18:05+07:00" }, "geometry": { "type": "Point", "coordinates": [ 110.3919483, -7.8010033 ] } },
{ "type": "Feature", "properties": { "vehicleId": 3671, "vehicleName": "PEMADAM KEBAKARAN", "nopol": "AB 9115 UA", "ownerId": 388, "vehicleGroup": "DAMKAR", "merkName": "HINO", "tipeName": "Dutro", "tahun": "Dutro", "imei": "863719066823460", "simcard": "081181418458", "longitude": 110.3921133, "speed": 0, "fuel": 0, "locTime": "2026-06-10T13:16:25+07:00", "statusEngine": "1", "parking": true, "Satwil": "Polda DI Yogyakarta", "_source": "eling_jogja", "last_update": "2026-06-10T13:18:05+07:00" }, "geometry": { "type": "Point", "coordinates": [ 110.3921133, -7.8011483 ] } },
{ "type": "Feature", "properties": { "vehicleId": 3672, "vehicleName": "PEMADAM KEBAKARAN", "nopol": "AB 9042 UA", "ownerId": 388, "vehicleGroup": "DAMKAR", "merkName": "HINO", "tipeName": "Dutro", "tahun": "Dutro", "imei": "863719066823601", "simcard": "081181418096", "longitude": 110.3918766, "speed": 0, "fuel": 0, "locTime": "2026-06-10T11:48:25+07:00", "statusEngine": "0", "parking": false, "Satwil": "Polda DI Yogyakarta", "_source": "eling_jogja", "last_update": "2026-06-10T13:18:05+07:00" }, "geometry": { "type": "Point", "coordinates": [ 110.391876599999989, -7.8011866 ] } },
{ "type": "Feature", "properties": { "vehicleId": 3673, "vehicleName": "PEMADAM KEBAKARAN", "nopol": "AB 9101 AX", "ownerId": 388, "vehicleGroup": "DAMKAR", "merkName": "MITSUBISHI", "tipeName": "L300", "tahun": "L300", "imei": "863719066997587", "simcard": "081181418102", "longitude": 110.3551333, "speed": 0, "fuel": 0, "locTime": "2026-05-05T07:37:17+07:00", "statusEngine": "1", "parking": true, "Satwil": "Polda DI Yogyakarta", "_source": "eling_jogja", "last_update": "2026-06-10T13:18:05+07:00" }, "geometry": { "type": "Point", "coordinates": [ 110.3551333, -7.7820983 ] } },
{ "type": "Feature", "properties": { "vehicleId": 3674, "vehicleName": "PEMADAM KEBAKARAN", "nopol": "AB 2392 IF", "ownerId": 388, "vehicleGroup": "DAMKAR", "merkName": "YAMAHA MOTOR", "tipeName": "XRide", "tahun": "XRide", "imei": "863719066801532", "simcard": "085123297132", "longitude": 0.0, "speed": 0, "fuel": 0, "locTime": "", "statusEngine": "", "parking": true, "Satwil": "Polda DI Yogyakarta", "_source": "eling_jogja", "last_update": "2026-06-10T13:18:05+07:00" }, "geometry": { "type": "Point", "coordinates": [ 0.0, 0.0 ] } },
{ "type": "Feature", "properties": { "vehicleId": 3444, "vehicleName": "LZ-00", "nopol": "1273-VIII", "ownerId": 388, "vehicleGroup": "KORLANTAS", "merkName": "TOYOTA", "tipeName": "Corolla Altis", "tahun": "Corolla Altis", "imei": "860896050994607", "simcard": "081120011164", "longitude": 107.6085483, "speed": 0, "fuel": 0, "locTime": "2026-05-27T17:56:37+07:00", "statusEngine": "0", "parking": false, "Satwil": "Polrestabes Bandung", "_source": "eling_bandung", "last_update": "2026-06-10T13:18:05+07:00" }, "geometry": { "type": "Point", "coordinates": [ 107.6085483, -6.9076516 ] } },
{ "type": "Feature", "properties": { "vehicleId": 3445, "vehicleName": "MOGE-01", "nopol": "10131-12", "ownerId": 388, "vehicleGroup": "KORLANTAS", "merkName": "YAMAHA MOTOR", "tipeName": "MT-09", "tahun": "MT-09", "imei": "866344055525906", "simcard": "081120011161", "longitude": 108.4736083, "speed": 0, "fuel": 0, "locTime": "2026-06-10T13:16:36+07:00", "statusEngine": "0", "parking": false, "Satwil": "Polrestabes Bandung", "_source": "eling_bandung", "last_update": "2026-06-10T13:18:05+07:00" }, "geometry": { "type": "Point", "coordinates": [ 108.4736083, -7.73338 ] } },
{ "type": "Feature", "properties": { "vehicleId": 3635, "vehicleName": "TRUK DEREK", "nopol": "D 8565 D", "ownerId": 388, "vehicleGroup": "DISHUB", "merkName": "ISUZU", "tipeName": "FTR", "tahun": "FTR", "imei": "863719066801698", "simcard": "081119754760", "longitude": 107.69757, "speed": 0, "fuel": 0, "locTime": "2026-03-11T06:05:50+07:00", "statusEngine": "0", "parking": false, "Satwil": "Polrestabes Bandung", "_source": "eling_bandung", "last_update": "2026-06-10T13:18:05+07:00" }, "geometry": { "type": "Point", "coordinates": [ 107.69757, -6.9673566 ] } },
{ "type": "Feature", "properties": { "vehicleId": 3636, "vehicleName": "LIGHT TRUCK", "nopol": "D 8318 D", "ownerId": 388, "vehicleGroup": "DISHUB", "merkName": "HINO", "tipeName": "Bus", "tahun": "Bus", "imei": "863719067109646", "simcard": "081119754762", "longitude": 107.6071216, "speed": 0, "fuel": 0, "locTime": "2026-06-10T12:41:37+07:00", "statusEngine": "0", "parking": false, "Satwil": "Polrestabes Bandung", "_source": "eling_bandung", "last_update": "2026-06-10T13:18:05+07:00" }, "geometry": { "type": "Point", "coordinates": [ 107.6071216, -6.92074 ] } },
{ "type": "Feature", "properties": { "vehicleId": 3637, "vehicleName": "LIGHT TRUCK", "nopol": "D 8319 D", "ownerId": 388, "vehicleGroup": "DISHUB", "merkName": "HINO", "tipeName": "Bus", "tahun": "Bus", "imei": "863719067184268", "simcard": "081119754761", "longitude": 107.6067866, "speed": 0, "fuel": 0, "locTime": "2026-06-10T12:52:05+07:00", "statusEngine": "1", "parking": true, "Satwil": "Polrestabes Bandung", "_source": "eling_bandung", "last_update": "2026-06-10T13:18:05+07:00" }, "geometry": { "type": "Point", "coordinates": [ 107.6067866, -6.92084 ] } },
{ "type": "Feature", "properties": { "vehicleId": 3638, "vehicleName": "Mobil Pemadam", "nopol": "D 8800 AX", "ownerId": 388, "vehicleGroup": "DAMKAR", "merkName": "MITSUBISHI", "tipeName": "Fuso", "tahun": "Fuso", "imei": "863719066801128", "simcard": "081119754764", "longitude": 107.6340233, "speed": 0, "fuel": 0, "locTime": "2026-06-10T13:13:07+07:00", "statusEngine": "1", "parking": true, "Satwil": "Polrestabes Bandung", "_source": "eling_bandung", "last_update": "2026-06-10T13:18:05+07:00" }, "geometry": { "type": "Point", "coordinates": [ 107.6340233, -6.916775 ] } },
{ "type": "Feature", "properties": { "vehicleId": 3639, "vehicleName": "Mobil Pemadam", "nopol": "D 8696 A", "ownerId": 388, "vehicleGroup": "DAMKAR", "merkName": "ISUZU", "tipeName": "FTR", "tahun": "FTR", "imei": "863719066813222", "simcard": "081119754765", "longitude": 107.6321533, "speed": 0, "fuel": 0, "locTime": "2026-06-10T13:15:54+07:00", "statusEngine": "1", "parking": true, "Satwil": "Polrestabes Bandung", "_source": "eling_bandung", "last_update": "2026-06-10T13:18:05+07:00" }, "geometry": { "type": "Point", "coordinates": [ 107.6321533, -6.9281716 ] } },
{ "type": "Feature", "properties": { "vehicleId": 3640, "vehicleName": "Mobil Pemadam", "nopol": "D 8715 C", "ownerId": 388, "vehicleGroup": "DAMKAR", "merkName": "HINO", "tipeName": "Dutro", "tahun": "Dutro", "imei": "863719067268681", "simcard": "081119754763", "longitude": 107.634055, "speed": 0, "fuel": 0, "locTime": "2026-06-10T12:43:40+07:00", "statusEngine": "0", "parking": false, "Satwil": "Polrestabes Bandung", "_source": "eling_bandung", "last_update": "2026-06-10T13:18:05+07:00" }, "geometry": { "type": "Point", "coordinates": [ 107.634055, -6.9167 ] } },
{ "type": "Feature", "properties": { "vehicleId": 3641, "vehicleName": "Mobil Patroli", "nopol": "VIII 11012-40", "ownerId": 388, "vehicleGroup": "KORLANTAS", "merkName": "MAZDA", "tipeName": "CX-3", "tahun": "CX-3", "imei": "863719067821869", "simcard": "081119754767", "longitude": 107.6042683, "speed": 6, "fuel": 0, "locTime": "2026-06-09T19:44:33+07:00", "statusEngine": "1", "parking": true, "Satwil": "Polrestabes Bandung", "_source": "eling_bandung", "last_update": "2026-06-10T13:18:05+07:00" }, "geometry": { "type": "Point", "coordinates": [ 107.6042683, -6.9048933 ] } },
{ "type": "Feature", "properties": { "vehicleId": 3642, "vehicleName": "Mobil Patroli", "nopol": "VIII 1105-40", "ownerId": 388, "vehicleGroup": "KORLANTAS", "merkName": "MAZDA", "tipeName": "CX-3", "tahun": "CX-3", "imei": "863719066813867", "simcard": "081119754768", "longitude": 107.6085699, "speed": 0, "fuel": 0, "locTime": "2026-06-10T13:04:00+07:00", "statusEngine": "0", "parking": false, "Satwil": "Polrestabes Bandung", "_source": "eling_bandung", "last_update": "2026-06-10T13:18:05+07:00" }, "geometry": { "type": "Point", "coordinates": [ 107.6085699, -6.9104266 ] } },
{ "type": "Feature", "properties": { "vehicleId": 3643, "vehicleName": "Mobil Ambulance", "nopol": "D 9976 A", "ownerId": 388, "vehicleGroup": "DINKES", "merkName": "SUZUKI", "tipeName": "APV", "tahun": "APV", "imei": "863719066801920", "simcard": "081119754769", "longitude": 107.6440333, "speed": 0, "fuel": 0, "locTime": "2026-06-10T12:59:18+07:00", "statusEngine": "0", "parking": false, "Satwil": "Polrestabes Bandung", "_source": "eling_bandung", "last_update": "2026-06-10T13:18:05+07:00" }, "geometry": { "type": "Point", "coordinates": [ 107.6440333, -6.9188016 ] } },
{ "type": "Feature", "properties": { "vehicleId": 3644, "vehicleName": "Mobil Ambulance", "nopol": "D 9979 A", "ownerId": 388, "vehicleGroup": "DINKES", "merkName": "SUZUKI", "tipeName": "APV", "tahun": "APV", "imei": "863719067986498", "simcard": "081119754770", "longitude": 107.6031383, "speed": 0, "fuel": 0, "locTime": "2026-06-10T11:40:06.01+07:00", "statusEngine": "0", "parking": false, "Satwil": "Polrestabes Bandung", "_source": "eling_bandung", "last_update": "2026-06-10T13:18:05+07:00" }, "geometry": { "type": "Point", "coordinates": [ 107.6031383, -6.8900683 ] } },
{ "type": "Feature", "properties": { "vehicleId": 3434, "vehicleName": "Hyundai Elantra", "nopol": "1101-28", "ownerId": 388, "vehicleGroup": "Polres Medan", "merkName": "HYUNDAI", "tipeName": "Elantra", "tahun": "Elantra", "imei": "860896050994722", "simcard": "081120013982", "longitude": 98.67623, "speed": 0, "fuel": 0, "locTime": "2023-08-31T02:17:53+07:00", "statusEngine": "0", "parking": false, "Satwil": "Polrestabes Medan", "_source": "eling_medan", "last_update": "2026-06-10T13:18:05+07:00" }, "geometry": { "type": "Point", "coordinates": [ 98.67623, 3.5911566 ] } },
{ "type": "Feature", "properties": { "vehicleId": 3435, "vehicleName": "Daihatsu Terios", "nopol": "11230-28", "ownerId": 388, "vehicleGroup": "Polres Medan", "merkName": "DAIHATSU", "tipeName": "Terios", "tahun": "Terios", "imei": "860896051339281", "simcard": "081120013983", "longitude": 98.7352783, "speed": 0, "fuel": 0, "locTime": "2026-06-10T10:38:35+07:00", "statusEngine": "0", "parking": false, "Satwil": "Polrestabes Medan", "_source": "eling_medan", "last_update": "2026-06-10T13:18:05+07:00" }, "geometry": { "type": "Point", "coordinates": [ 98.7352783, 3.5214566 ] } },
{ "type": "Feature", "properties": { "vehicleId": 3436, "vehicleName": "Mitsubishi Lancer", "nopol": "1107-28", "ownerId": 388, "vehicleGroup": "Polres Medan", "merkName": "MITSUBISHI", "tipeName": "Lancer", "tahun": "Lancer", "imei": "860896051152643", "simcard": "081120013980", "longitude": 98.6670949, "speed": 0, "fuel": 0, "locTime": "2024-07-25T09:11:23+07:00", "statusEngine": "0", "parking": false, "Satwil": "Polrestabes Medan", "_source": "eling_medan", "last_update": "2026-06-10T13:18:05+07:00" }, "geometry": { "type": "Point", "coordinates": [ 98.6670949, 3.6070033 ] } },
{ "type": "Feature", "properties": { "vehicleId": 3437, "vehicleName": "Mitsubishi Triton", "nopol": "5017-28", "ownerId": 388, "vehicleGroup": "Polres Medan", "merkName": "MITSUBISHI", "tipeName": "Triton", "tahun": "Triton", "imei": "860896051339158", "simcard": "081120013979", "longitude": 98.6816816, "speed": 0, "fuel": 0, "locTime": "2026-06-09T01:05:13+07:00", "statusEngine": "0", "parking": false, "Satwil": "Polrestabes Medan", "_source": "eling_medan", "last_update": "2026-06-10T13:18:05+07:00" }, "geometry": { "type": "Point", "coordinates": [ 98.6816816, 3.6019616 ] } },
{ "type": "Feature", "properties": { "vehicleId": 3438, "vehicleName": "Daihatsu Terios", "nopol": "2801-28", "ownerId": 388, "vehicleGroup": "Polres Medan", "merkName": "DAIHATSU", "tipeName": "Terios", "tahun": "Terios", "imei": "860896051340982", "simcard": "081120013996", "longitude": 98.6816516, "speed": 0, "fuel": 0, "locTime": "2026-06-10T05:07:58+07:00", "statusEngine": "0", "parking": false, "Satwil": "Polrestabes Medan", "_source": "eling_medan", "last_update": "2026-06-10T13:18:05+07:00" }, "geometry": { "type": "Point", "coordinates": [ 98.6816516, 3.6019266 ] } },
{ "type": "Feature", "properties": { "vehicleId": 3439, "vehicleName": "Mitsubishi Lancer", "nopol": "25438-28", "ownerId": 388, "vehicleGroup": "Polres Medan", "merkName": "MITSUBISHI", "tipeName": "Lancer", "tahun": "Lancer", "imei": "860896051339216", "simcard": "081120014000", "longitude": 98.6814883, "speed": 0, "fuel": 0, "locTime": "2024-02-04T17:51:27+07:00", "statusEngine": "0", "parking": false, "Satwil": "Polrestabes Medan", "_source": "eling_medan", "last_update": "2026-06-10T13:18:05+07:00" }, "geometry": { "type": "Point", "coordinates": [ 98.6814883, 3.6022983 ] } },
{ "type": "Feature", "properties": { "vehicleId": 3453, "vehicleName": "PK-57", "nopol": "BK9709J", "ownerId": 388, "vehicleGroup": "DAMKAR", "merkName": "MITSUBISHI", "tipeName": "Canter", "tahun": "Canter", "imei": "863719060891828", "simcard": "081120011158", "longitude": 98.6712883, "speed": 0, "fuel": 0, "locTime": "2026-06-10T12:47:00+07:00", "statusEngine": "0", "parking": false, "Satwil": "Polrestabes Medan", "_source": "eling_medan", "last_update": "2026-06-10T13:18:05+07:00" }, "geometry": { "type": "Point", "coordinates": [ 98.6712883, 3.5893783 ] } },
{ "type": "Feature", "properties": { "vehicleId": 3454, "vehicleName": "PK-48", "nopol": "BK9185J", "ownerId": 388, "vehicleGroup": "DAMKAR", "merkName": "HINO", "tipeName": "Ranger", "tahun": "Ranger", "imei": "863719060889384", "simcard": "081120011159", "longitude": 98.6715166, "speed": 0, "fuel": 0, "locTime": "2026-06-10T13:16:45+07:00", "statusEngine": "1", "parking": true, "Satwil": "Polrestabes Medan", "_source": "eling_medan", "last_update": "2026-06-10T13:18:05+07:00" }, "geometry": { "type": "Point", "coordinates": [ 98.6715166, 3.58925 ] } },
{ "type": "Feature", "properties": { "vehicleId": 3455, "vehicleName": "PK-43", "nopol": "BK8560J", "ownerId": 388, "vehicleGroup": "DAMKAR", "merkName": "HINO", "tipeName": "Ranger", "tahun": "Ranger", "imei": "863719060891877", "simcard": "081120011138", "longitude": 98.6712366, "speed": 0, "fuel": 0, "locTime": "2026-06-10T12:37:15+07:00", "statusEngine": "0", "parking": false, "Satwil": "Polrestabes Medan", "_source": "eling_medan", "last_update": "2026-06-10T13:18:05+07:00" }, "geometry": { "type": "Point", "coordinates": [ 98.6712366, 3.5894116 ] } },
{ "type": "Feature", "properties": { "vehicleId": 3456, "vehicleName": "Hiace Com", "nopol": "BK7193J", "ownerId": 388, "vehicleGroup": "DINKES", "merkName": "TOYOTA", "tipeName": "Hiace", "tahun": "Hiace", "imei": "863719060891869", "simcard": "081120011139", "longitude": 98.706395, "speed": 0, "fuel": 0, "locTime": "2026-06-10T13:16:49+07:00", "statusEngine": "1", "parking": true, "Satwil": "Polrestabes Medan", "_source": "eling_medan", "last_update": "2026-06-10T13:18:05+07:00" }, "geometry": { "type": "Point", "coordinates": [ 98.706395, 3.54335 ] } },
{ "type": "Feature", "properties": { "vehicleId": 3457, "vehicleName": "Hiace Pre-02", "nopol": "BK9678K", "ownerId": 388, "vehicleGroup": "DINKES", "merkName": "TOYOTA", "tipeName": "Hiace", "tahun": "Hiace", "imei": "863719060648095", "simcard": "081120011140", "longitude": 98.6651816, "speed": 0, "fuel": 0, "locTime": "2026-06-10T07:30:38+07:00", "statusEngine": "0", "parking": false, "Satwil": "Polrestabes Medan", "_source": "eling_medan", "last_update": "2026-06-10T13:18:05+07:00" }, "geometry": { "type": "Point", "coordinates": [ 98.6651816, 3.5898766 ] } },
{ "type": "Feature", "properties": { "vehicleId": 3458, "vehicleName": "Hiace Pre-01", "nopol": "BK9677K", "ownerId": 388, "vehicleGroup": "DINKES", "merkName": "TOYOTA", "tipeName": "Hiace", "tahun": "Hiace", "imei": "863719060819134", "simcard": "081120011141", "longitude": 98.6650533, "speed": 0, "fuel": 0, "locTime": "2026-06-10T07:29:22+07:00", "statusEngine": "0", "parking": false, "Satwil": "Polrestabes Medan", "_source": "eling_medan", "last_update": "2026-06-10T13:18:05+07:00" }, "geometry": { "type": "Point", "coordinates": [ 98.6650533, 3.5898583 ] } },
{ "type": "Feature", "properties": { "vehicleId": 3459, "vehicleName": "Ranger-01", "nopol": "BK8130A", "ownerId": 388, "vehicleGroup": "BPBD", "merkName": "FORD", "tipeName": "Ranger", "tahun": "Ranger", "imei": "863719060889426", "simcard": "081120011144", "longitude": 98.7274383, "speed": 0, "fuel": 0, "locTime": "2026-06-04T06:20:02+07:00", "statusEngine": "1", "parking": true, "Satwil": "Polrestabes Medan", "_source": "eling_medan", "last_update": "2026-06-10T13:18:05+07:00" }, "geometry": { "type": "Point", "coordinates": [ 98.727438299999989, 3.5631016 ] } },
{ "type": "Feature", "properties": { "vehicleId": 3460, "vehicleName": "Canter", "nopol": "BK8043A", "ownerId": 388, "vehicleGroup": "BPBD", "merkName": "MITSUBISHI", "tipeName": "Canter", "tahun": "Canter", "imei": "863719060776607", "simcard": "081120011145", "longitude": 98.7237983, "speed": 0, "fuel": 0, "locTime": "2026-06-09T20:15:13+07:00", "statusEngine": "0", "parking": false, "Satwil": "Polrestabes Medan", "_source": "eling_medan", "last_update": "2026-06-10T13:18:05+07:00" }, "geometry": { "type": "Point", "coordinates": [ 98.7237983, 3.56577 ] } },
{ "type": "Feature", "properties": { "vehicleId": 3461, "vehicleName": "PD-01", "nopol": "BK9556J", "ownerId": 388, "vehicleGroup": "DISHUB", "merkName": "HINO", "tipeName": "Dutro", "tahun": "Dutro", "imei": "863719060891844", "simcard": "081120011146", "longitude": 98.6417133, "speed": 0, "fuel": 0, "locTime": "2026-06-08T15:34:03+07:00", "statusEngine": "0", "parking": false, "Satwil": "Polrestabes Medan", "_source": "eling_medan", "last_update": "2026-06-10T13:18:05+07:00" }, "geometry": { "type": "Point", "coordinates": [ 98.6417133, 3.5816166 ] } },
{ "type": "Feature", "properties": { "vehicleId": 3462, "vehicleName": "PD-02", "nopol": "BK9555J", "ownerId": 388, "vehicleGroup": "DISHUB", "merkName": "HINO", "tipeName": "Dutro", "tahun": "Dutro", "imei": "863719060891794", "simcard": "081120011147", "longitude": 98.6418266, "speed": 0, "fuel": 0, "locTime": "2026-06-09T12:49:30+07:00", "statusEngine": "0", "parking": false, "Satwil": "Polrestabes Medan", "_source": "eling_medan", "last_update": "2026-06-10T13:18:05+07:00" }, "geometry": { "type": "Point", "coordinates": [ 98.6418266, 3.58171 ] } },
{ "type": "Feature", "properties": { "vehicleId": 3463, "vehicleName": "Travello", "nopol": "BK1113J", "ownerId": 388, "vehicleGroup": "DINKES", "merkName": "KIA", "tipeName": "Carens", "tahun": "Carens", "imei": "863719060888865", "simcard": "081120011148", "longitude": 98.6653916, "speed": 0, "fuel": 0, "locTime": "2026-06-10T07:31:47+07:00", "statusEngine": "0", "parking": false, "Satwil": "Polrestabes Medan", "_source": "eling_medan", "last_update": "2026-06-10T13:18:05+07:00" }, "geometry": { "type": "Point", "coordinates": [ 98.6653916, 3.5897183 ] } },
{ "type": "Feature", "properties": { "vehicleId": 3464, "vehicleName": "Canter", "nopol": "BK8046A", "ownerId": 388, "vehicleGroup": "SATPOL PP", "merkName": "MITSUBISHI", "tipeName": "Canter", "tahun": "Canter", "imei": "863719060891786", "simcard": "081120011149", "longitude": 98.67449, "speed": 0, "fuel": 0, "locTime": "2026-06-10T12:15:27+07:00", "statusEngine": "0", "parking": false, "Satwil": "Polrestabes Medan", "_source": "eling_medan", "last_update": "2026-06-10T13:18:05+07:00" }, "geometry": { "type": "Point", "coordinates": [ 98.67449, 3.5897566 ] } },
{ "type": "Feature", "properties": { "vehicleId": 3465, "vehicleName": "Triton", "nopol": "BK8148A", "ownerId": 388, "vehicleGroup": "SATPOL PP", "merkName": "MITSUBISHI", "tipeName": "Triton", "tahun": "Triton", "imei": "863719060889350", "simcard": "081120011150", "longitude": 98.6810016, "speed": 0, "fuel": 0, "locTime": "2026-06-07T11:50:18+07:00", "statusEngine": "0", "parking": false, "Satwil": "Polrestabes Medan", "_source": "eling_medan", "last_update": "2026-06-10T13:18:05+07:00" }, "geometry": { "type": "Point", "coordinates": [ 98.6810016, 3.6017083 ] } },
{ "type": "Feature", "properties": { "vehicleId": 3466, "vehicleName": "PK-49", "nopol": "BK9183J", "ownerId": 388, "vehicleGroup": "DAMKAR", "merkName": "HINO", "tipeName": "Ranger", "tahun": "Ranger", "imei": "863719060889327", "simcard": "081120011151", "longitude": 98.7176716, "speed": 0, "fuel": 0, "locTime": "2026-06-10T08:42:42+07:00", "statusEngine": "0", "parking": false, "Satwil": "Polrestabes Medan", "_source": "eling_medan", "last_update": "2026-06-10T13:18:05+07:00" }, "geometry": { "type": "Point", "coordinates": [ 98.717671599999989, 3.539995 ] } },
{ "type": "Feature", "properties": { "vehicleId": 3258, "vehicleName": "POLRESTA DENPASAR 9034", "nopol": "XI 1002-28", "ownerId": 388, "vehicleGroup": "KORLANTAS", "merkName": "MITSUBISHI", "tipeName": "Lancer", "tahun": "Lancer", "imei": "860896050994714", "simcard": "081120011089", "longitude": 115.2130116, "speed": 0, "fuel": 0, "locTime": "2025-08-21T08:39:40+07:00", "statusEngine": "0", "parking": false, "Satwil": "Polda Bali", "_source": "eling_bali", "last_update": "2026-06-10T14:18:05+08:00" }, "geometry": { "type": "Point", "coordinates": [ 115.2130116, -8.6074316 ] } },
{ "type": "Feature", "properties": { "vehicleId": 3259, "vehicleName": "SATLANTAS POLRES BADUNG 1133", "nopol": "XI 1169-36", "ownerId": 388, "vehicleGroup": "KORLANTAS", "merkName": "MAZDA", "tipeName": "6", "tahun": "6", "imei": "860896050986967", "simcard": "081120011088", "longitude": 115.176955, "speed": 0, "fuel": 0, "locTime": "2026-06-09T17:25:05+07:00", "statusEngine": "1", "parking": true, "Satwil": "Polda Bali", "_source": "eling_bali", "last_update": "2026-06-10T14:18:05+08:00" }, "geometry": { "type": "Point", "coordinates": [ 115.176955, -8.6030116 ] } },
{ "type": "Feature", "properties": { "vehicleId": 3260, "vehicleName": "SATLANTAS POLRES JEMBRANA 1116-35", "nopol": "XI 1116-35", "ownerId": 388, "vehicleGroup": "KORLANTAS", "merkName": "TOYOTA", "tipeName": "Corolla Altis", "tahun": "Corolla Altis", "imei": "860896051151439", "simcard": "081120011085", "longitude": 114.6360083, "speed": 0, "fuel": 0, "locTime": "2026-06-10T06:29:45+07:00", "statusEngine": "0", "parking": false, "Satwil": "Polda Bali", "_source": "eling_bali", "last_update": "2026-06-10T14:18:05+08:00" }, "geometry": { "type": "Point", "coordinates": [ 114.6360083, -8.3584116 ] } },
{ "type": "Feature", "properties": { "vehicleId": 3261, "vehicleName": "POLRESTA DENPASAR 1135", "nopol": "XI 11127-28", "ownerId": 388, "vehicleGroup": "KORLANTAS", "merkName": "MAZDA", "tipeName": "6", "tahun": "6", "imei": "860896050988195", "simcard": "081120011087", "longitude": 115.19298, "speed": 0, "fuel": 0, "locTime": "2023-02-01T11:00:31+07:00", "statusEngine": "0", "parking": false, "Satwil": "Polda Bali", "_source": "eling_bali", "last_update": "2026-06-10T14:18:05+08:00" }, "geometry": { "type": "Point", "coordinates": [ 115.19298, -8.6221916 ] } },
{ "type": "Feature", "properties": { "vehicleId": 3262, "vehicleName": "POLRESTA JEMBRANA 1114-35", "nopol": "XI 1114-35", "ownerId": 388, "vehicleGroup": "KORLANTAS", "merkName": "MAZDA", "tipeName": "6", "tahun": "6", "imei": "860896051098150", "simcard": "081120011086", "longitude": 114.6359916, "speed": 0, "fuel": 0, "locTime": "2026-06-05T02:36:17+07:00", "statusEngine": "1", "parking": true, "Satwil": "Polda Bali", "_source": "eling_bali", "last_update": "2026-06-10T14:18:05+08:00" }, "geometry": { "type": "Point", "coordinates": [ 114.6359916, -8.3584349 ] } },
{ "type": "Feature", "properties": { "vehicleId": 3264, "vehicleName": "XI 11105-28", "nopol": "XI 11105-28", "ownerId": 388, "vehicleGroup": "KORLANTAS", "merkName": "FORD", "tipeName": "Ranger", "tahun": "Ranger", "imei": "860896050985142", "simcard": "081120011107", "longitude": 115.18263, "speed": 0, "fuel": 0, "locTime": "2026-04-24T18:21:56+07:00", "statusEngine": "0", "parking": false, "Satwil": "Polda Bali", "_source": "eling_bali", "last_update": "2026-06-10T14:18:05+08:00" }, "geometry": { "type": "Point", "coordinates": [ 115.18263, -8.6494583 ] } },
{ "type": "Feature", "properties": { "vehicleId": 3265, "vehicleName": "SATLANTAS POLRES BADUNG 1134", "nopol": "XI 1170-36", "ownerId": 388, "vehicleGroup": "KORLANTAS", "merkName": "MAZDA", "tipeName": "6", "tahun": "6", "imei": "860896050994656", "simcard": "081120011106", "longitude": 115.1759633, "speed": 11, "fuel": 0, "locTime": "2026-06-10T08:32:05+07:00", "statusEngine": "1", "parking": true, "Satwil": "Polda Bali", "_source": "eling_bali", "last_update": "2026-06-10T14:18:05+08:00" }, "geometry": { "type": "Point", "coordinates": [ 115.1759633, -8.6031933 ] } },
{ "type": "Feature", "properties": { "vehicleId": 3266, "vehicleName": "SATLANTAS POLRES GIANYAR 1136", "nopol": "XI 1162-31", "ownerId": 388, "vehicleGroup": "KORLANTAS", "merkName": "MAZDA", "tipeName": "6", "tahun": "6", "imei": "860896051340909", "simcard": "081120011105", "longitude": 115.32248, "speed": 0, "fuel": 0, "locTime": "2026-06-10T13:16:38+07:00", "statusEngine": "1", "parking": true, "Satwil": "Polda Bali", "_source": "eling_bali", "last_update": "2026-06-10T14:18:05+08:00" }, "geometry": { "type": "Point", "coordinates": [ 115.32248, -8.5332483 ] } },
{ "type": "Feature", "properties": { "vehicleId": 3267, "vehicleName": "SATLANTAS POLRES GIANYAR 1138", "nopol": "XI 1164-31", "ownerId": 388, "vehicleGroup": "KORLANTAS", "merkName": "MAZDA", "tipeName": "6", "tahun": "6", "imei": "860896051339463", "simcard": "081120011101", "longitude": 115.3252116, "speed": 0, "fuel": 0, "locTime": "2026-06-10T13:16:51+07:00", "statusEngine": "1", "parking": true, "Satwil": "Polda Bali", "_source": "eling_bali", "last_update": "2026-06-10T14:18:05+08:00" }, "geometry": { "type": "Point", "coordinates": [ 115.325211599999989, -8.5366699 ] } },
{ "type": "Feature", "properties": { "vehicleId": 3268, "vehicleName": "SATLANTAS POLRES KARANGASEM 1135", "nopol": "XI 1157-34", "ownerId": 388, "vehicleGroup": "KORLANTAS", "merkName": "MITSUBISHI", "tipeName": "Lancer", "tahun": "Lancer", "imei": "860896051340867", "simcard": "081120011100", "longitude": 115.6168349, "speed": 0, "fuel": 0, "locTime": "2025-02-14T09:25:44+07:00", "statusEngine": "0", "parking": false, "Satwil": "Polda Bali", "_source": "eling_bali", "last_update": "2026-06-10T14:18:05+08:00" }, "geometry": { "type": "Point", "coordinates": [ 115.6168349, -8.4751466 ] } },
{ "type": "Feature", "properties": { "vehicleId": 3269, "vehicleName": "SATLANTAS POLRES KARANGASEM 1134", "nopol": "XI 1158-34", "ownerId": 388, "vehicleGroup": "KORLANTAS", "merkName": "MAZDA", "tipeName": "6", "tahun": "6", "imei": "860896051321990", "simcard": "081120011102", "longitude": 115.6166333, "speed": 0, "fuel": 0, "locTime": "2025-10-17T11:58:07+07:00", "statusEngine": "0", "parking": false, "Satwil": "Polda Bali", "_source": "eling_bali", "last_update": "2026-06-10T14:18:05+08:00" }, "geometry": { "type": "Point", "coordinates": [ 115.6166333, -8.47494 ] } },
{ "type": "Feature", "properties": { "vehicleId": 3511, "vehicleName": "SATLANTAS POLRES BADUNG 1136", "nopol": "1171-36", "ownerId": 388, "vehicleGroup": "Korlantas", "merkName": "MAZDA", "tipeName": "6", "tahun": "6", "imei": "860896051137792", "simcard": "081120041250", "longitude": 115.175985, "speed": 3, "fuel": 0, "locTime": "2026-06-07T15:08:12+07:00", "statusEngine": "1", "parking": true, "Satwil": "Polda Bali", "_source": "eling_bali", "last_update": "2026-06-10T14:18:05+08:00" }, "geometry": { "type": "Point", "coordinates": [ 115.175985, -8.6032233 ] } },
{ "type": "Feature", "properties": { "vehicleId": 3512, "vehicleName": "SATLANTAS POLRES BADUNG 1137", "nopol": "1172-36", "ownerId": 388, "vehicleGroup": "Korlantas", "merkName": "MAZDA", "tipeName": "6", "tahun": "6", "imei": "860896051242204", "simcard": "081120041251", "longitude": 115.1762416, "speed": 5, "fuel": 0, "locTime": "2026-06-10T10:08:07+07:00", "statusEngine": "0", "parking": false, "Satwil": "Polda Bali", "_source": "eling_bali", "last_update": "2026-06-10T14:18:05+08:00" }, "geometry": { "type": "Point", "coordinates": [ 115.1762416, -8.6034516 ] } },
{ "type": "Feature", "properties": { "vehicleId": 3513, "vehicleName": "SATLANTAS POLRES BADUNG 1135", "nopol": "1173-36", "ownerId": 388, "vehicleGroup": "Korlantas", "merkName": "MAZDA", "tipeName": "6", "tahun": "6", "imei": "860896051155463", "simcard": "081120041252", "longitude": 115.1911616, "speed": 0, "fuel": 0, "locTime": "2026-06-10T13:16:40+07:00", "statusEngine": "1", "parking": true, "Satwil": "Polda Bali", "_source": "eling_bali", "last_update": "2026-06-10T14:18:05+08:00" }, "geometry": { "type": "Point", "coordinates": [ 115.1911616, -8.5800166 ] } },
{ "type": "Feature", "properties": { "vehicleId": 3514, "vehicleName": "DITLANTAS POLDA BALI 6107", "nopol": "126024-XI", "ownerId": 388, "vehicleGroup": "Korlantas", "merkName": "MAZDA", "tipeName": "6", "tahun": "6", "imei": "860896051153963", "simcard": "081120041253", "longitude": 115.2119766, "speed": 0, "fuel": 0, "locTime": "2026-06-10T09:22:02+07:00", "statusEngine": "0", "parking": false, "Satwil": "Polda Bali", "_source": "eling_bali", "last_update": "2026-06-10T14:18:05+08:00" }, "geometry": { "type": "Point", "coordinates": [ 115.2119766, -8.6332899 ] } },
{ "type": "Feature", "properties": { "vehicleId": 3515, "vehicleName": "DITLANTAS POLDA BALI 6110", "nopol": "126016-XI", "ownerId": 388, "vehicleGroup": "Korlantas", "merkName": "MAZDA", "tipeName": "6", "tahun": "6", "imei": "860896051151223", "simcard": "081120041254", "longitude": 115.225995, "speed": 0, "fuel": 0, "locTime": "2026-06-10T13:04:03+07:00", "statusEngine": "0", "parking": false, "Satwil": "Polda Bali", "_source": "eling_bali", "last_update": "2026-06-10T14:18:05+08:00" }, "geometry": { "type": "Point", "coordinates": [ 115.225995, -8.64962 ] } },
{ "type": "Feature", "properties": { "vehicleId": 3516, "vehicleName": "DITLANTAS POLDA BALI 6118", "nopol": "126077-XI", "ownerId": 388, "vehicleGroup": "Korlantas", "merkName": "MAZDA", "tipeName": "6", "tahun": "6", "imei": "860896051154656", "simcard": "081120041255", "longitude": 115.2324849, "speed": 0, "fuel": 0, "locTime": "2026-06-10T12:47:56+07:00", "statusEngine": "0", "parking": false, "Satwil": "Polda Bali", "_source": "eling_bali", "last_update": "2026-06-10T14:18:05+08:00" }, "geometry": { "type": "Point", "coordinates": [ 115.232484899999989, -8.6670249 ] } },
{ "type": "Feature", "properties": { "vehicleId": 3517, "vehicleName": "DITLANTAS POLDA BALI 6125", "nopol": "126023-XI", "ownerId": 388, "vehicleGroup": "Korlantas", "merkName": "MAZDA", "tipeName": "6", "tahun": "6", "imei": "860896051245967", "simcard": "081120041256", "longitude": 114.6204649, "speed": 0, "fuel": 0, "locTime": "2026-06-10T11:26:43+07:00", "statusEngine": "0", "parking": false, "Satwil": "Polda Bali", "_source": "eling_bali", "last_update": "2026-06-10T14:18:05+08:00" }, "geometry": { "type": "Point", "coordinates": [ 114.6204649, -8.3455633 ] } },
{ "type": "Feature", "properties": { "vehicleId": 3518, "vehicleName": "DITLANTAS POLDA BALI 6123", "nopol": "126032-XI", "ownerId": 388, "vehicleGroup": "Korlantas", "merkName": "MAZDA", "tipeName": "6", "tahun": "6", "imei": "860896051131696", "simcard": "081120041257", "longitude": 115.2254483, "speed": 0, "fuel": 0, "locTime": "2026-06-10T11:10:03+07:00", "statusEngine": "0", "parking": false, "Satwil": "Polda Bali", "_source": "eling_bali", "last_update": "2026-06-10T14:18:05+08:00" }, "geometry": { "type": "Point", "coordinates": [ 115.2254483, -8.64856 ] } },
{ "type": "Feature", "properties": { "vehicleId": 3519, "vehicleName": "DITLANTAS POLDA BALI 6122", "nopol": "126035-XI", "ownerId": 388, "vehicleGroup": "Korlantas", "merkName": "MAZDA", "tipeName": "6", "tahun": "6", "imei": "860896051253292", "simcard": "081120041258", "longitude": 115.2327783, "speed": 0, "fuel": 0, "locTime": "2025-05-04T20:51:13+07:00", "statusEngine": "0", "parking": false, "Satwil": "Polda Bali", "_source": "eling_bali", "last_update": "2026-06-10T14:18:05+08:00" }, "geometry": { "type": "Point", "coordinates": [ 115.2327783, -8.6670116 ] } },
{ "type": "Feature", "properties": { "vehicleId": 3520, "vehicleName": "SATLANTAS POLRESTA DENPASAR 1138", "nopol": "11107-28", "ownerId": 388, "vehicleGroup": "Korlantas", "merkName": "MITSUBISHI", "tipeName": "Lancer", "tahun": "Lancer", "imei": "860896051250553", "simcard": "081120041259", "longitude": 115.21339, "speed": 0, "fuel": 0, "locTime": "2026-06-10T10:45:32+07:00", "statusEngine": "0", "parking": false, "Satwil": "Polda Bali", "_source": "eling_bali", "last_update": "2026-06-10T14:18:05+08:00" }, "geometry": { "type": "Point", "coordinates": [ 115.21339, -8.6077549 ] } },
{ "type": "Feature", "properties": { "vehicleId": 3521, "vehicleName": "SATLANTAS POLDA BALI 6112", "nopol": "126028-XI", "ownerId": 388, "vehicleGroup": "Korlantas", "merkName": "MAZDA", "tipeName": "6", "tahun": "6", "imei": "860896051152999", "simcard": "081120041260", "longitude": 115.2257616, "speed": 0, "fuel": 0, "locTime": "2026-06-10T08:06:57+07:00", "statusEngine": "0", "parking": false, "Satwil": "Polda Bali", "_source": "eling_bali", "last_update": "2026-06-10T14:18:05+08:00" }, "geometry": { "type": "Point", "coordinates": [ 115.2257616, -8.6495283 ] } },
{ "type": "Feature", "properties": { "vehicleId": 3522, "vehicleName": "DITLANTAS POLDA BALI 6502", "nopol": "126038-XI", "ownerId": 388, "vehicleGroup": "Korlantas", "merkName": "MAZDA", "tipeName": "6", "tahun": "6", "imei": "860896051098317", "simcard": "081120041261", "longitude": 115.161865, "speed": 0, "fuel": 0, "locTime": "2024-07-16T04:25:31+07:00", "statusEngine": "0", "parking": false, "Satwil": "Polda Bali", "_source": "eling_bali", "last_update": "2026-06-10T14:18:05+08:00" }, "geometry": { "type": "Point", "coordinates": [ 115.161865, -8.78706 ] } },
{ "type": "Feature", "properties": { "vehicleId": 3523, "vehicleName": "POLRESTA DENPASAR 1135", "nopol": "126005-XI", "ownerId": 388, "vehicleGroup": "Korlantas", "merkName": "MAZDA", "tipeName": "6", "tahun": "6", "imei": "860896051098226", "simcard": "081120041262", "longitude": 115.179285, "speed": 10, "fuel": 0, "locTime": "2026-06-08T08:58:20+07:00", "statusEngine": "1", "parking": true, "Satwil": "Polda Bali", "_source": "eling_bali", "last_update": "2026-06-10T14:18:05+08:00" }, "geometry": { "type": "Point", "coordinates": [ 115.179285, -8.7019983 ] } },
{ "type": "Feature", "properties": { "vehicleId": 3524, "vehicleName": "DITLANTAS POLDA BALI 6106", "nopol": "126012-XI", "ownerId": 388, "vehicleGroup": "Korlantas", "merkName": "MAZDA", "tipeName": "6", "tahun": "6", "imei": "860896051098069", "simcard": "081120041263", "longitude": 115.2259816, "speed": 0, "fuel": 0, "locTime": "2026-06-10T07:07:58+07:00", "statusEngine": "0", "parking": false, "Satwil": "Polda Bali", "_source": "eling_bali", "last_update": "2026-06-10T14:18:05+08:00" }, "geometry": { "type": "Point", "coordinates": [ 115.2259816, -8.64991 ] } },
{ "type": "Feature", "properties": { "vehicleId": 3525, "vehicleName": "SATLANTAS POLRESTA DENPASAR", "nopol": "11129-28", "ownerId": 388, "vehicleGroup": "Korlantas", "merkName": "MITSUBISHI", "tipeName": "Lancer", "tahun": "Lancer", "imei": "860896051245991", "simcard": "081120041264", "longitude": 115.2541133, "speed": 0, "fuel": 0, "locTime": "2026-06-10T08:12:43+07:00", "statusEngine": "0", "parking": false, "Satwil": "Polda Bali", "_source": "eling_bali", "last_update": "2026-06-10T14:18:05+08:00" }, "geometry": { "type": "Point", "coordinates": [ 115.2541133, -8.6390066 ] } },
{ "type": "Feature", "properties": { "vehicleId": 3526, "vehicleName": "SATLANTAS POLRESTA DENPASAR 1134", "nopol": "11114-28", "ownerId": 388, "vehicleGroup": "Korlantas", "merkName": "MITSUBISHI", "tipeName": "Lancer", "tahun": "Lancer", "imei": "860896051242261", "simcard": "081120041265", "longitude": 115.2149233, "speed": 0, "fuel": 0, "locTime": "2026-06-10T13:04:23+07:00", "statusEngine": "0", "parking": false, "Satwil": "Polda Bali", "_source": "eling_bali", "last_update": "2026-06-10T14:18:05+08:00" }, "geometry": { "type": "Point", "coordinates": [ 115.2149233, -8.7173066 ] } },
{ "type": "Feature", "properties": { "vehicleId": 3527, "vehicleName": "SATLANTAS POLRES BADUNG 1131", "nopol": "1145-36", "ownerId": 388, "vehicleGroup": "Korlantas", "merkName": "MITSUBISHI", "tipeName": "Lancer", "tahun": "Lancer", "imei": "860896050987437", "simcard": "081120041266", "longitude": 115.1821966, "speed": 8, "fuel": 0, "locTime": "2026-05-13T10:27:59+07:00", "statusEngine": "1", "parking": true, "Satwil": "Polda Bali", "_source": "eling_bali", "last_update": "2026-06-10T14:18:05+08:00" }, "geometry": { "type": "Point", "coordinates": [ 115.1821966, -8.5780516 ] } },
{ "type": "Feature", "properties": { "vehicleId": 3528, "vehicleName": "SATLANTAS POLRES BADUNG 1132", "nopol": "1159-36", "ownerId": 388, "vehicleGroup": "Korlantas", "merkName": "MITSUBISHI", "tipeName": "Lancer", "tahun": "Lancer", "imei": "860896051087187", "simcard": "081120041267", "longitude": 115.1879133, "speed": 0, "fuel": 0, "locTime": "2026-06-08T16:07:22+07:00", "statusEngine": "0", "parking": false, "Satwil": "Polda Bali", "_source": "eling_bali", "last_update": "2026-06-10T14:18:05+08:00" }, "geometry": { "type": "Point", "coordinates": [ 115.1879133, -8.5819316 ] } },
{ "type": "Feature", "properties": { "vehicleId": 3529, "vehicleName": "DITLANTAS POLDA BALI 6117", "nopol": "126022-XI", "ownerId": 388, "vehicleGroup": "Korlantas", "merkName": "MAZDA", "tipeName": "6", "tahun": "6", "imei": "860896051152486", "simcard": "081120041268", "longitude": 115.2156766, "speed": 22, "fuel": 0, "locTime": "2025-03-10T12:51:10+07:00", "statusEngine": "1", "parking": true, "Satwil": "Polda Bali", "_source": "eling_bali", "last_update": "2026-06-10T14:18:05+08:00" }, "geometry": { "type": "Point", "coordinates": [ 115.2156766, -8.6837983 ] } },
{ "type": "Feature", "properties": { "vehicleId": 3530, "vehicleName": "SATLANTAS POLRESTA DENPASAR 1131", "nopol": "11116-28", "ownerId": 388, "vehicleGroup": "Korlantas", "merkName": "MITSUBISHI", "tipeName": "Lancer", "tahun": "Lancer", "imei": "860896051087278", "simcard": "081120041249", "longitude": 115.13959, "speed": 0, "fuel": 0, "locTime": "2026-06-09T19:59:24+07:00", "statusEngine": "0", "parking": false, "Satwil": "Polda Bali", "_source": "eling_bali", "last_update": "2026-06-10T14:18:05+08:00" }, "geometry": { "type": "Point", "coordinates": [ 115.13959, -8.6594633 ] } }
]
}
