{
"type": "FeatureCollection",
"name": "troublespot",
"crs": { "type": "name", "properties": { "name": "urn:ogc:def:crs:OGC:1.3:CRS84" } },
"features": [
{ "type": "Feature", "properties": { "Satwil": "Polrestabes Bandung", "country": "ID", "city": "Bandung", "reportRating": 1, "reportByMunicipalityUser": "false", "confidence": 0, "reliability": 5, "type": "ACCIDENT", "uuid": "a3d42492-5364-4bd2-a2f7-f400c9b292d1", "roadType": 1, "magvar": 359, "subtype": "", "street": "Pratista Utara 1", "location": { "x": 107.664182, "y": -6.925085 }, "pubMillis": 1766970833000, "keterangan": "Kecelakaan", "reportDescription": null, "pub_wib": "2025-12-29T08:13:53+07:00", "last_update": "2025-12-29T09:08:44+07:00" }, "geometry": { "type": "Point", "coordinates": [ 107.664182, -6.925085 ] } },
{ "type": "Feature", "properties": { "Satwil": "Polda Bali", "country": "ID", "city": "Tegallalang", "reportRating": 5, "reportByMunicipalityUser": "false", "confidence": 1, "reliability": 9, "type": "ROAD_CLOSED", "uuid": "bc1b1908-4dc1-4798-a26f-53618622a373", "roadType": 1, "magvar": 189, "subtype": "ROAD_CLOSED_EVENT", "street": "Jalan Raya Cebok", "location": { "x": 115.290403, "y": -8.428348 }, "pubMillis": 1755252923000, "keterangan": "Jalan Ditutup", "reportDescription": "", "pub_wib": "2025-08-15T17:15:23+07:00", "last_update": "2025-12-29T09:08:44+07:00" }, "geometry": { "type": "Point", "coordinates": [ 115.290403, -8.428348 ] } },
{ "type": "Feature", "properties": { "Satwil": "Polda Bali", "country": "ID", "city": "Tegallalang", "reportRating": 5, "reportByMunicipalityUser": "false", "confidence": 1, "reliability": 8, "type": "ROAD_CLOSED", "uuid": "87890bde-5dea-45ce-851c-1d9bcdd4a19a", "roadType": 1, "magvar": 52, "subtype": "ROAD_CLOSED_EVENT", "street": "Jalan Raya Cebok", "location": { "x": 115.290029, "y": -8.428832 }, "pubMillis": 1755252923000, "keterangan": "Jalan Ditutup", "reportDescription": "", "pub_wib": "2025-08-15T17:15:23+07:00", "last_update": "2025-12-29T09:08:44+07:00" }, "geometry": { "type": "Point", "coordinates": [ 115.290029, -8.428832 ] } },
{ "type": "Feature", "properties": { "Satwil": "Polrestabes Medan", "country": "ID", "city": "Medan", "reportRating": 0, "reportByMunicipalityUser": "false", "confidence": 0, "reliability": 6, "type": "HAZARD", "uuid": "fc94dcc6-ed76-4837-9eef-1a102b41d396", "roadType": 1, "magvar": 271, "subtype": "HAZARD_ON_ROAD_POT_HOLE", "street": "Ampera", "location": { "x": 98.719826, "y": 3.592738 }, "pubMillis": 1766405261000, "keterangan": "Ada Gangguan Jalan", "reportDescription": null, "pub_wib": "2025-12-22T19:07:41+07:00", "last_update": "2025-12-29T09:08:44+07:00" }, "geometry": { "type": "Point", "coordinates": [ 98.719826, 3.592738 ] } },
{ "type": "Feature", "properties": { "Satwil": "Polrestabes Medan", "country": "ID", "city": "Medan", "reportRating": 0, "reportByMunicipalityUser": "false", "confidence": 0, "reliability": 7, "type": "HAZARD", "uuid": "51805ca3-f3a7-413f-9ccd-1049bfc0ca53", "roadType": 1, "magvar": 96, "subtype": "HAZARD_ON_ROAD_POT_HOLE", "street": "Ampera", "location": { "x": 98.721243, "y": 3.592633 }, "pubMillis": 1766534435000, "keterangan": "Ada Gangguan Jalan", "reportDescription": null, "pub_wib": "2025-12-24T07:00:35+07:00", "last_update": "2025-12-29T09:08:44+07:00" }, "geometry": { "type": "Point", "coordinates": [ 98.721243, 3.592633 ] } },
{ "type": "Feature", "properties": { "Satwil": "Polrestabes Bandung", "country": "ID", "city": "Bandung", "reportRating": 5, "reportByMunicipalityUser": "false", "confidence": 0, "reliability": 6, "type": "ROAD_CLOSED", "uuid": "396331a2-0e16-480a-bfd1-3da8ea18e414", "roadType": 4, "magvar": 21, "subtype": "ROAD_CLOSED_EVENT", "street": "Arah Stadion GBLA/Sumarecon/Stasiun Tegalluar", "location": { "x": 107.692456, "y": -6.969217 }, "pubMillis": 1751352360000, "keterangan": "Jalan Ditutup", "reportDescription": null, "pub_wib": "2025-07-01T13:46:00+07:00", "last_update": "2025-12-29T09:08:44+07:00" }, "geometry": { "type": "Point", "coordinates": [ 107.692456, -6.969217 ] } },
{ "type": "Feature", "properties": { "Satwil": "Polrestabes Bandung", "country": "ID", "city": "Bandung", "reportRating": 5, "reportByMunicipalityUser": "false", "confidence": 5, "reliability": 10, "type": "ROAD_CLOSED", "uuid": "87a12f1b-6834-44c8-8f86-1cea731b6201", "roadType": 4, "magvar": 183, "subtype": "ROAD_CLOSED_EVENT", "street": null, "location": { "x": 107.691017, "y": -6.9518 }, "pubMillis": 1723460414000, "keterangan": "Jalan Ditutup", "reportDescription": null, "pub_wib": "2024-08-12T18:00:14+07:00", "last_update": "2025-12-29T09:08:44+07:00" }, "geometry": { "type": "Point", "coordinates": [ 107.691017, -6.9518 ] } },
{ "type": "Feature", "properties": { "Satwil": "Polrestabes Bandung", "country": "ID", "city": "Bandung", "reportRating": 5, "reportByMunicipalityUser": "false", "confidence": 5, "reliability": 10, "type": "ROAD_CLOSED", "uuid": "a5724aec-f2b5-4357-986a-8dfb39c49d60", "roadType": 4, "magvar": 239, "subtype": "ROAD_CLOSED_EVENT", "street": "Gerbang Tol KM 151", "location": { "x": 107.710971, "y": -6.963905 }, "pubMillis": 1751352262000, "keterangan": "Jalan Ditutup", "reportDescription": null, "pub_wib": "2025-07-01T13:44:22+07:00", "last_update": "2025-12-29T09:08:44+07:00" }, "geometry": { "type": "Point", "coordinates": [ 107.710971, -6.963905 ] } },
{ "type": "Feature", "properties": { "Satwil": "Polrestabes Bandung", "country": "ID", "city": "Bandung", "reportRating": 5, "reportByMunicipalityUser": "false", "confidence": 5, "reliability": 10, "type": "ROAD_CLOSED", "uuid": "8575bff8-4657-49ae-b7cf-c4233d911a57", "roadType": 4, "magvar": 3, "subtype": "ROAD_CLOSED_EVENT", "street": null, "location": { "x": 107.690579, "y": -6.958239 }, "pubMillis": 1723460414000, "keterangan": "Jalan Ditutup", "reportDescription": null, "pub_wib": "2024-08-12T18:00:14+07:00", "last_update": "2025-12-29T09:08:44+07:00" }, "geometry": { "type": "Point", "coordinates": [ 107.690579, -6.958239 ] } },
{ "type": "Feature", "properties": { "Satwil": "Polda DI Yogyakarta", "country": "ID", "city": "Yogyakarta", "reportRating": 5, "reportByMunicipalityUser": "false", "confidence": 2, "reliability": 10, "type": "ROAD_CLOSED", "uuid": "1f961d6f-b6c9-4b77-a960-e60a06d7b6cc", "roadType": 2, "magvar": 39, "subtype": "", "street": "Yos Sudarso", "location": { "x": 110.37327, "y": -7.786928 }, "pubMillis": 1764755930000, "keterangan": "Jalan Ditutup", "reportDescription": "", "pub_wib": "2025-12-03T16:58:50+07:00", "last_update": "2025-12-29T09:08:44+07:00" }, "geometry": { "type": "Point", "coordinates": [ 110.37327, -7.786928 ] } },
{ "type": "Feature", "properties": { "Satwil": "Polda DI Yogyakarta", "country": "ID", "city": "Banguntapan", "reportRating": 5, "reportByMunicipalityUser": "false", "confidence": 0, "reliability": 10, "type": "ROAD_CLOSED", "uuid": "88b64a79-8257-4b89-9536-4a8e9e750f1e", "roadType": 2, "magvar": 350, "subtype": "", "street": "Cendrawasih", "location": { "x": 110.41576, "y": -7.805781 }, "pubMillis": 1766972697000, "keterangan": "Jalan Ditutup", "reportDescription": null, "pub_wib": "2025-12-29T08:44:57+07:00", "last_update": "2025-12-29T09:08:44+07:00" }, "geometry": { "type": "Point", "coordinates": [ 110.41576, -7.805781 ] } },
{ "type": "Feature", "properties": { "Satwil": "Polda DI Yogyakarta", "country": "ID", "city": "Banguntapan", "reportRating": 5, "reportByMunicipalityUser": "false", "confidence": 0, "reliability": 10, "type": "ROAD_CLOSED", "uuid": "65ea23a8-5c2a-4b76-94c7-147445616f29", "roadType": 2, "magvar": 56, "subtype": "", "street": "Cendrawasih", "location": { "x": 110.415869, "y": -7.80607 }, "pubMillis": 1766972774000, "keterangan": "Jalan Ditutup", "reportDescription": null, "pub_wib": "2025-12-29T08:46:14+07:00", "last_update": "2025-12-29T09:08:44+07:00" }, "geometry": { "type": "Point", "coordinates": [ 110.415869, -7.80607 ] } },
{ "type": "Feature", "properties": { "Satwil": "Polda DI Yogyakarta", "country": "ID", "city": "Banguntapan", "reportRating": 5, "reportByMunicipalityUser": "false", "confidence": 0, "reliability": 10, "type": "ROAD_CLOSED", "uuid": "a2762094-b523-4fbd-9a0f-30d69a9d0de6", "roadType": 2, "magvar": 57, "subtype": "", "street": "Cendrawasih", "location": { "x": 110.416147, "y": -7.803064 }, "pubMillis": 1766973157000, "keterangan": "Jalan Ditutup", "reportDescription": null, "pub_wib": "2025-12-29T08:52:37+07:00", "last_update": "2025-12-29T09:08:44+07:00" }, "geometry": { "type": "Point", "coordinates": [ 110.416147, -7.803064 ] } },
{ "type": "Feature", "properties": { "Satwil": "Polda DI Yogyakarta", "country": "ID", "city": "Banguntapan", "reportRating": 5, "reportByMunicipalityUser": "false", "confidence": 0, "reliability": 10, "type": "ROAD_CLOSED", "uuid": "500a8f25-3be1-4b89-a6db-57f31bd03263", "roadType": 2, "magvar": 48, "subtype": "", "street": "Cendrawasih", "location": { "x": 110.415933, "y": -7.804195 }, "pubMillis": 1766973588000, "keterangan": "Jalan Ditutup", "reportDescription": null, "pub_wib": "2025-12-29T08:59:48+07:00", "last_update": "2025-12-29T09:08:44+07:00" }, "geometry": { "type": "Point", "coordinates": [ 110.415933, -7.804195 ] } },
{ "type": "Feature", "properties": { "Satwil": "Polda DI Yogyakarta", "country": "ID", "city": "Yogyakarta", "reportRating": 5, "reportByMunicipalityUser": "false", "confidence": 0, "reliability": 7, "type": "ROAD_CLOSED", "uuid": "a48e4122-f3a3-45e3-8daa-b6751003ca25", "roadType": 2, "magvar": 109, "subtype": "", "street": "Faridan Muridan Noto", "location": { "x": 110.373071, "y": -7.786861 }, "pubMillis": 1764755930000, "keterangan": "Jalan Ditutup", "reportDescription": "", "pub_wib": "2025-12-03T16:58:50+07:00", "last_update": "2025-12-29T09:08:44+07:00" }, "geometry": { "type": "Point", "coordinates": [ 110.373071, -7.786861 ] } },
{ "type": "Feature", "properties": { "Satwil": "Polda DI Yogyakarta", "country": "ID", "city": "Banguntapan", "reportRating": 5, "reportByMunicipalityUser": "false", "confidence": 0, "reliability": 10, "type": "ROAD_CLOSED", "uuid": "d3313657-3d72-4170-a70c-75e77da4bdf3", "roadType": 2, "magvar": 51, "subtype": "", "street": "Cendrawasih", "location": { "x": 110.416055, "y": -7.803784 }, "pubMillis": 1766973605000, "keterangan": "Jalan Ditutup", "reportDescription": null, "pub_wib": "2025-12-29T09:00:05+07:00", "last_update": "2025-12-29T09:08:44+07:00" }, "geometry": { "type": "Point", "coordinates": [ 110.416055, -7.803784 ] } },
{ "type": "Feature", "properties": { "Satwil": "Polda Bali", "country": "ID", "city": "Kuta Selatan", "reportRating": 5, "reportByMunicipalityUser": "false", "confidence": 0, "reliability": 7, "type": "ROAD_CLOSED", "uuid": "6605f8a0-dcb3-4076-825c-e6568c5ecdcc", "roadType": 2, "magvar": 58, "subtype": "", "street": "Nusa Dua Selatan", "location": { "x": 115.167509, "y": -8.839649 }, "pubMillis": 1761844243000, "keterangan": "Jalan Ditutup", "reportDescription": "", "pub_wib": "2025-10-31T00:10:43+07:00", "last_update": "2025-12-29T09:08:44+07:00" }, "geometry": { "type": "Point", "coordinates": [ 115.167509, -8.839649 ] } },
{ "type": "Feature", "properties": { "Satwil": "Polda Bali", "country": "ID", "city": "Kuta Selatan", "reportRating": 5, "reportByMunicipalityUser": "false", "confidence": 0, "reliability": 6, "type": "ROAD_CLOSED", "uuid": "9f5226cb-e018-4d44-8861-857270ee6f96", "roadType": 2, "magvar": 238, "subtype": "", "street": "Nusa Dua Selatan", "location": { "x": 115.167826, "y": -8.839452 }, "pubMillis": 1761844242000, "keterangan": "Jalan Ditutup", "reportDescription": "", "pub_wib": "2025-10-31T00:10:42+07:00", "last_update": "2025-12-29T09:08:44+07:00" }, "geometry": { "type": "Point", "coordinates": [ 115.167826, -8.839452 ] } },
{ "type": "Feature", "properties": { "Satwil": "Polda Bali", "country": "ID", "city": "Kuta Selatan", "reportRating": 5, "reportByMunicipalityUser": "false", "confidence": 0, "reliability": 6, "type": "HAZARD", "uuid": "7fbe96ca-de96-4dab-9547-ae43ee797779", "roadType": 2, "magvar": 204, "subtype": "HAZARD_ON_ROAD_POT_HOLE", "street": "Jalan Raya Kampus Udayana", "location": { "x": 115.176832, "y": -8.793223 }, "pubMillis": 1766969992000, "keterangan": "Ada Gangguan Jalan", "reportDescription": null, "pub_wib": "2025-12-29T07:59:52+07:00", "last_update": "2025-12-29T09:08:44+07:00" }, "geometry": { "type": "Point", "coordinates": [ 115.176832, -8.793223 ] } },
{ "type": "Feature", "properties": { "Satwil": "Polda Bali", "country": "ID", "city": "Abang", "reportRating": 2, "reportByMunicipalityUser": "false", "confidence": 0, "reliability": 6, "type": "HAZARD", "uuid": "746b5652-0df7-4091-a6ff-496750a29b3c", "roadType": 2, "magvar": 131, "subtype": "HAZARD_ON_ROAD_POT_HOLE", "street": "Jalan Raya Amed-Seraya", "location": { "x": 115.682573, "y": -8.350982 }, "pubMillis": 1766471638000, "keterangan": "Ada Gangguan Jalan", "reportDescription": null, "pub_wib": "2025-12-23T13:33:58+07:00", "last_update": "2025-12-29T09:08:44+07:00" }, "geometry": { "type": "Point", "coordinates": [ 115.682573, -8.350982 ] } },
{ "type": "Feature", "properties": { "Satwil": "Polrestabes Medan", "country": "ID", "city": "Medan", "reportRating": 0, "reportByMunicipalityUser": "false", "confidence": 0, "reliability": 5, "type": "HAZARD", "uuid": "642a911a-e1ad-4485-9a35-2935642aea5f", "roadType": 2, "magvar": 273, "subtype": "HAZARD_ON_ROAD_POT_HOLE", "street": "Aluminium Raya", "location": { "x": 98.668333, "y": 3.643023 }, "pubMillis": 1766449590000, "keterangan": "Ada Gangguan Jalan", "reportDescription": null, "pub_wib": "2025-12-23T07:26:30+07:00", "last_update": "2025-12-29T09:08:44+07:00" }, "geometry": { "type": "Point", "coordinates": [ 98.668333, 3.643023 ] } },
{ "type": "Feature", "properties": { "Satwil": "Polrestabes Medan", "country": "ID", "city": "Medan", "reportRating": 0, "reportByMunicipalityUser": "false", "confidence": 0, "reliability": 5, "type": "HAZARD", "uuid": "2d43844c-5b84-4088-a7db-befcd4157680", "roadType": 2, "magvar": 254, "subtype": "HAZARD_ON_ROAD_POT_HOLE", "street": "Aluminium Raya", "location": { "x": 98.667053, "y": 3.642901 }, "pubMillis": 1766449618000, "keterangan": "Ada Gangguan Jalan", "reportDescription": null, "pub_wib": "2025-12-23T07:26:58+07:00", "last_update": "2025-12-29T09:08:44+07:00" }, "geometry": { "type": "Point", "coordinates": [ 98.667053, 3.642901 ] } },
{ "type": "Feature", "properties": { "Satwil": "Polrestabes Medan", "country": "ID", "city": "Medan", "reportRating": 0, "reportByMunicipalityUser": "false", "confidence": 0, "reliability": 7, "type": "HAZARD", "uuid": "cc17b7e3-4325-4543-80e3-753c583b5fe2", "roadType": 4, "magvar": 136, "subtype": "HAZARD_ON_ROAD_POT_HOLE", "street": "Arah Tembung", "location": { "x": 98.724614, "y": 3.597627 }, "pubMillis": 1766404984000, "keterangan": "Ada Gangguan Jalan", "reportDescription": null, "pub_wib": "2025-12-22T19:03:04+07:00", "last_update": "2025-12-29T09:08:44+07:00" }, "geometry": { "type": "Point", "coordinates": [ 98.724614, 3.597627 ] } },
{ "type": "Feature", "properties": { "Satwil": "Polrestabes Medan", "country": "ID", "city": "Medan", "reportRating": 0, "reportByMunicipalityUser": "false", "confidence": 1, "reliability": 7, "type": "HAZARD", "uuid": "4eef1ff1-8a8a-4924-8bc3-b7022b551045", "roadType": 2, "magvar": 298, "subtype": "HAZARD_ON_ROAD_POT_HOLE", "street": "Aluminium Raya", "location": { "x": 98.670218, "y": 3.642973 }, "pubMillis": 1766449554000, "keterangan": "Ada Gangguan Jalan", "reportDescription": null, "pub_wib": "2025-12-23T07:25:54+07:00", "last_update": "2025-12-29T09:08:44+07:00" }, "geometry": { "type": "Point", "coordinates": [ 98.670218, 3.642973 ] } },
{ "type": "Feature", "properties": { "Satwil": "Polrestabes Bandung", "country": "ID", "city": "Bandung", "reportRating": 5, "reportByMunicipalityUser": "false", "confidence": 1, "reliability": 8, "type": "ROAD_CLOSED", "uuid": "a393af38-b466-44d1-98ac-971d9d3cb237", "roadType": 22, "magvar": 275, "subtype": "", "street": null, "location": { "x": 107.579203, "y": -6.907899 }, "pubMillis": 1765641605000, "keterangan": "Jalan Ditutup", "reportDescription": "", "pub_wib": "2025-12-13T23:00:05+07:00", "last_update": "2025-12-29T09:08:44+07:00" }, "geometry": { "type": "Point", "coordinates": [ 107.579203, -6.907899 ] } },
{ "type": "Feature", "properties": { "Satwil": "Polda Bali", "country": "ID", "city": "Abang", "reportRating": 2, "reportByMunicipalityUser": "false", "confidence": 0, "reliability": 5, "type": "HAZARD", "uuid": "e341de2f-f00d-49d5-840e-684bc04890a2", "roadType": 22, "magvar": 218, "subtype": "HAZARD_ON_ROAD_POT_HOLE", "street": null, "location": { "x": 115.685903, "y": -8.356327 }, "pubMillis": 1766471949000, "keterangan": "Ada Gangguan Jalan", "reportDescription": null, "pub_wib": "2025-12-23T13:39:09+07:00", "last_update": "2025-12-29T09:08:44+07:00" }, "geometry": { "type": "Point", "coordinates": [ 115.685903, -8.356327 ] } },
{ "type": "Feature", "properties": { "Satwil": "Polda DI Yogyakarta", "country": "ID", "city": "Yogyakarta", "reportRating": 5, "reportByMunicipalityUser": "false", "confidence": 1, "reliability": 9, "type": "ROAD_CLOSED", "uuid": "4395990a-299d-4ce5-98ba-97026d518e86", "roadType": 7, "magvar": 273, "subtype": "", "street": "Abu Bakar Ali", "location": { "x": 110.368528, "y": -7.790598 }, "pubMillis": 1765366213000, "keterangan": "Jalan Ditutup", "reportDescription": "", "pub_wib": "2025-12-10T18:30:13+07:00", "last_update": "2025-12-29T09:08:44+07:00" }, "geometry": { "type": "Point", "coordinates": [ 110.368528, -7.790598 ] } },
{ "type": "Feature", "properties": { "Satwil": "Polda DI Yogyakarta", "country": "ID", "city": "Yogyakarta", "reportRating": 5, "reportByMunicipalityUser": "false", "confidence": 0, "reliability": 7, "type": "ROAD_CLOSED", "uuid": "45ce9d1f-7cfe-46c8-9ef4-63ecadafd778", "roadType": 7, "magvar": 189, "subtype": "", "street": "Abu Bakar Ali", "location": { "x": 110.368999, "y": -7.790124 }, "pubMillis": 1765366212000, "keterangan": "Jalan Ditutup", "reportDescription": "", "pub_wib": "2025-12-10T18:30:12+07:00", "last_update": "2025-12-29T09:08:44+07:00" }, "geometry": { "type": "Point", "coordinates": [ 110.368999, -7.790124 ] } },
{ "type": "Feature", "properties": { "Satwil": "Polda DI Yogyakarta", "country": "ID", "city": "Yogyakarta", "reportRating": 5, "reportByMunicipalityUser": "false", "confidence": 0, "reliability": 7, "type": "ROAD_CLOSED", "uuid": "19a5f36a-01e7-458c-bbd9-97c70dee96cc", "roadType": 7, "magvar": 257, "subtype": "", "street": "Jembatan Kewek", "location": { "x": 110.368886, "y": -7.790517 }, "pubMillis": 1765366213000, "keterangan": "Jalan Ditutup", "reportDescription": "", "pub_wib": "2025-12-10T18:30:13+07:00", "last_update": "2025-12-29T09:08:44+07:00" }, "geometry": { "type": "Point", "coordinates": [ 110.368886, -7.790517 ] } },
{ "type": "Feature", "properties": { "Satwil": "Polrestabes Bandung", "country": "ID", "city": "Bandung", "reportRating": 0, "reportByMunicipalityUser": "false", "confidence": 0, "reliability": 5, "type": "HAZARD", "uuid": "999e14ca-9146-4129-b401-c07c313266a8", "roadType": 7, "magvar": 251, "subtype": "HAZARD_ON_SHOULDER_CAR_STOPPED", "street": "Soekarno-Hatta (Jalur Lambat)", "location": { "x": 107.64963, "y": -6.943084 }, "pubMillis": 1766972205000, "keterangan": "Ada Gangguan Jalan", "reportDescription": null, "pub_wib": "2025-12-29T08:36:45+07:00", "last_update": "2025-12-29T09:08:44+07:00" }, "geometry": { "type": "Point", "coordinates": [ 107.64963, -6.943084 ] } },
{ "type": "Feature", "properties": { "Satwil": "Polrestabes Bandung", "country": "ID", "city": "Bandung", "reportRating": 5, "reportByMunicipalityUser": "false", "confidence": 0, "reliability": 6, "type": "ROAD_CLOSED", "uuid": "d3e90249-714a-48fe-8eae-24d1c1052e8a", "roadType": 6, "magvar": 270, "subtype": "", "street": "Flyover Nurtanio", "location": { "x": 107.579908, "y": -6.907443 }, "pubMillis": 1766377795000, "keterangan": "Jalan Ditutup", "reportDescription": null, "pub_wib": "2025-12-22T11:29:55+07:00", "last_update": "2025-12-29T09:08:44+07:00" }, "geometry": { "type": "Point", "coordinates": [ 107.579908, -6.907443 ] } },
{ "type": "Feature", "properties": { "Satwil": "Polrestabes Bandung", "country": "ID", "city": "Bandung", "reportRating": 0, "reportByMunicipalityUser": "false", "confidence": 5, "reliability": 10, "type": "HAZARD", "uuid": "9ecab306-404c-4983-80ac-d7d3e29b6913", "roadType": 6, "magvar": 9, "subtype": "HAZARD_ON_ROAD_CONSTRUCTION", "street": "Garuda", "location": { "x": 107.578464, "y": -6.909549 }, "pubMillis": 1754798400000, "keterangan": "Ada Gangguan Jalan", "reportDescription": "Konstruksi Fly Over Nurtanio", "pub_wib": "2025-08-10T11:00:00+07:00", "last_update": "2025-12-29T09:08:44+07:00" }, "geometry": { "type": "Point", "coordinates": [ 107.578464, -6.909549 ] } },
{ "type": "Feature", "properties": { "Satwil": "Polrestabes Bandung", "country": "ID", "city": "Bandung", "reportRating": 5, "reportByMunicipalityUser": "false", "confidence": 1, "reliability": 9, "type": "ROAD_CLOSED", "uuid": "93486888-1a3f-4f12-9cf9-b3e9e5bd8969", "roadType": 6, "magvar": 186, "subtype": "", "street": "Flyover Nurtanio", "location": { "x": 107.57855, "y": -6.909417 }, "pubMillis": 1766377795000, "keterangan": "Jalan Ditutup", "reportDescription": null, "pub_wib": "2025-12-22T11:29:55+07:00", "last_update": "2025-12-29T09:08:44+07:00" }, "geometry": { "type": "Point", "coordinates": [ 107.57855, -6.909417 ] } },
{ "type": "Feature", "properties": { "Satwil": "Polda DI Yogyakarta", "country": "ID", "city": "Tempel", "reportRating": 5, "reportByMunicipalityUser": "false", "confidence": 0, "reliability": 10, "type": "HAZARD", "uuid": "bb27db8d-458f-49a3-b820-c89ab1e9ccdd", "roadType": 6, "magvar": 170, "subtype": "HAZARD_ON_ROAD_POT_HOLE", "street": "Jalan Raya Magelang", "location": { "x": 110.325248, "y": -7.651493 }, "pubMillis": 1766919505000, "keterangan": "Ada Gangguan Jalan", "reportDescription": null, "pub_wib": "2025-12-28T17:58:25+07:00", "last_update": "2025-12-29T09:08:44+07:00" }, "geometry": { "type": "Point", "coordinates": [ 110.325248, -7.651493 ] } },
{ "type": "Feature", "properties": { "Satwil": "Polda Bali", "country": "ID", "city": "Kuta Selatan", "reportRating": 0, "reportByMunicipalityUser": "false", "confidence": 3, "reliability": 10, "type": "HAZARD", "uuid": "35af10bb-fb29-4f05-9657-31d0e9037f66", "roadType": 6, "magvar": 215, "subtype": "HAZARD_ON_ROAD_POT_HOLE", "street": "Jalan Raya Uluwatu-Pecatu", "location": { "x": 115.154507, "y": -8.817388 }, "pubMillis": 1766895328000, "keterangan": "Ada Gangguan Jalan", "reportDescription": null, "pub_wib": "2025-12-28T11:15:28+07:00", "last_update": "2025-12-29T09:08:44+07:00" }, "geometry": { "type": "Point", "coordinates": [ 115.154507, -8.817388 ] } },
{ "type": "Feature", "properties": { "Satwil": "Polda Bali", "country": "ID", "city": "Buleleng", "reportRating": 0, "reportByMunicipalityUser": "false", "confidence": 0, "reliability": 5, "type": "HAZARD", "uuid": "ca134da6-5236-47d4-a532-3ed462f6a10c", "roadType": 6, "magvar": 165, "subtype": "HAZARD_WEATHER", "street": "Gajah Mada", "location": { "x": 115.094789, "y": -8.115786 }, "pubMillis": 1766973088000, "keterangan": "Ada Gangguan Jalan", "reportDescription": null, "pub_wib": "2025-12-29T08:51:28+07:00", "last_update": "2025-12-29T09:08:44+07:00" }, "geometry": { "type": "Point", "coordinates": [ 115.094789, -8.115786 ] } },
{ "type": "Feature", "properties": { "Satwil": "Polrestabes Medan", "country": "ID", "city": "Medan", "reportRating": 0, "reportByMunicipalityUser": "false", "confidence": 0, "reliability": 6, "type": "HAZARD", "uuid": "8e6db954-3abd-4600-ae28-f491aeb2e8cb", "roadType": 6, "magvar": 176, "subtype": "HAZARD_ON_ROAD_POT_HOLE", "street": "N4 Yos Sudarso", "location": { "x": 98.669135, "y": 3.625191 }, "pubMillis": 1766917530000, "keterangan": "Ada Gangguan Jalan", "reportDescription": null, "pub_wib": "2025-12-28T17:25:30+07:00", "last_update": "2025-12-29T09:08:44+07:00" }, "geometry": { "type": "Point", "coordinates": [ 98.669135, 3.625191 ] } }
]
}
